Year,m,d,Time,Time zone,Cloud amount (1/8),Pressure (msl) (hPa),Relative humidity (%),Precipitation intensity (mm/h),Snow depth (cm),Air temperature (degC),Dew-point temperature (degC),Horizontal visibility (m),Wind direction (deg),Gust speed (m/s),Wind speed (m/s)
2019,1,1,00:00,UTC,8,1000.9,97,1.1,7,0.8,0.5,3180,190,13.8,7.9
2019,1,1,01:00,UTC,8,998.7,97,2.4,7,1.5,1.1,2360,193,13.1,8.5
2019,1,1,02:00,UTC,8,996.6,98,0.8,7,2,1.6,2800,195,15.9,9.8
2019,1,1,03:00,UTC,8,994.2,98,0,6,2.4,2.1,4780,196,13.9,8.9
2019,1,1,04:00,UTC,8,992,98,0.5,6,2.5,2.3,3410,192,12.9,7.6
2019,1,1,05:00,UTC,8,990,98,0.2,5,2.7,2.4,3200,188,13.9,8.4
2019,1,1,06:00,UTC,8,988.1,99,0.3,5,2.8,2.6,2980,174,14,7.8
2019,1,1,07:00,UTC,8,986.4,98,0.7,5,2.7,2.5,2590,167,12.7,7.4
2019,1,1,08:00,UTC,8,984.7,98,0,5,2.8,2.5,3230,166,11.7,7.8
2019,1,1,09:00,UTC,8,983.3,99,0.5,4,3.1,2.9,3440,175,10.6,6.8
2019,1,1,10:00,UTC,8,981.7,99,0,4,3.5,3.3,8140,183,10.8,5.7
2019,1,1,11:00,UTC,8,980.8,98,0,4,4,3.8,14670,193,8.8,5.3
2019,1,1,12:00,UTC,7,980.7,99,0,4,3.5,3.3,15520,212,6.2,4.3
2019,1,1,13:00,UTC,8,980.6,98,0,4,3.1,2.8,22500,213,8.5,6.2
2019,1,1,14:00,UTC,8,980.6,98,0,4,2.7,2.3,3530,219,6.8,4.9
2019,1,1,15:00,UTC,7,980.5,98,0,4,2.5,2.2,36830,206,6.4,4.6
2019,1,1,16:00,UTC,8,980.6,98,0,4,2.3,1.9,26700,221,6.4,4.1
2019,1,1,17:00,UTC,5,980.7,98,0,4,1.8,1.4,50000,241,5.8,3.2
2019,1,1,18:00,UTC,8,981.1,96,0,4,1.7,1.1,50000,209,2.9,1.3
2019,1,1,19:00,UTC,8,981.4,96,0,4,1.6,0.9,50000,266,2.1,1.6
2019,1,1,20:00,UTC,8,982,96,0,4,1.5,0.9,21360,64,1.3,1
2019,1,1,21:00,UTC,8,982.7,97,0,4,1.1,0.7,13800,71,2.5,1.3
2019,1,1,22:00,UTC,7,983.5,98,0,4,1.3,1,7660,12,3,1.8
2019,1,1,23:00,UTC,7,984.6,97,0,4,1.3,0.9,15650,22,5.2,3.1
2019,1,2,00:00,UTC,8,986,96,0,4,1.4,0.8,6340,346,5.4,3.4
2019,1,2,01:00,UTC,8,987.4,97,0.3,4,1.3,0.9,4280,346,8.6,5.3
2019,1,2,02:00,UTC,8,988.9,95,0.3,4,0.8,0,4590,340,11.5,5.8
2019,1,2,03:00,UTC,8,990.8,94,0.3,4,0.4,-0.5,2160,344,14.6,8
2019,1,2,04:00,UTC,8,992.9,87,0,4,-1.2,-3.1,5440,341,18.7,9.9
2019,1,2,05:00,UTC,8,994.9,82,0,3,-1.8,-4.4,11500,346,16.4,9.3
2019,1,2,06:00,UTC,8,997,79,0,3,-1.7,-4.9,15670,354,18.7,10.6
2019,1,2,07:00,UTC,7,998.8,88,0.3,4,-2.4,-4.2,1320,346,17.1,10.1
2019,1,2,08:00,UTC,7,1000.7,84,0.4,4,-2.8,-5.2,2190,341,16.1,9.4
2019,1,2,09:00,UTC,8,1002.4,80,0,4,-3,-6,4150,339,16.4,9.7
2019,1,2,10:00,UTC,8,1003.5,79,0,4,-3.2,-6.3,5760,340,16.8,8.9
2019,1,2,11:00,UTC,7,1004.6,83,0.4,4,-3.7,-6.2,1790,334,17.8,9.2
2019,1,2,12:00,UTC,8,1005.8,82,0.5,4,-4,-6.6,2200,333,16.6,9.2
2019,1,2,13:00,UTC,7,1007.4,78,0,4,-4,-7.3,6840,333,15.6,8.6
2019,1,2,14:00,UTC,8,1008.8,70,0,4,-4.2,-8.9,50000,332,14.9,7.8
2019,1,2,15:00,UTC,7,1010.2,65,0,4,-5,-10.6,50000,331,16,9.2
2019,1,2,16:00,UTC,7,1011.4,61,0,4,-5.7,-12,50000,330,16.9,7.7
2019,1,2,17:00,UTC,7,1012.1,61,0,4,-6,-12.2,50000,333,13.5,7.5
2019,1,2,18:00,UTC,1,1012.9,64,0,4,-6.5,-12.2,50000,333,12.8,7.6
2019,1,2,19:00,UTC,0,1013.9,65,0,4,-6.8,-12.2,50000,328,14.2,6.9
2019,1,2,20:00,UTC,0,1014.8,68,0,4,-6.8,-11.8,50000,333,16.2,7.7
2019,1,2,21:00,UTC,0,1015.7,69,0,4,-6.9,-11.6,50000,331,11.4,6
2019,1,2,22:00,UTC,0,1016.6,66,0,4,-6.9,-12.3,50000,333,12.6,7
2019,1,2,23:00,UTC,0,1017.2,67,0,4,-7.1,-12.2,50000,335,12.7,7.7
2019,1,3,00:00,UTC,0,1018.1,66,0,4,-7.4,-12.6,50000,334,11.8,6.3
2019,1,3,01:00,UTC,0,1018.6,66,0,4,-7.5,-12.8,50000,330,12.6,7.1
2019,1,3,02:00,UTC,0,1019.7,69,0,4,-7.7,-12.4,50000,338,9.8,6.3
2019,1,3,03:00,UTC,0,1020.6,74,0,4,-8.2,-12,50000,331,9.7,6.1
2019,1,3,04:00,UTC,0,1021.6,76,0,4,-8.5,-11.9,50000,335,10.5,6.2
2019,1,3,05:00,UTC,0,1022.6,78,0,4,-8.9,-12.1,50000,332,8.7,5.2
2019,1,3,06:00,UTC,0,1023.3,78,0,4,-9.1,-12.2,50000,337,10.4,5.9
2019,1,3,07:00,UTC,0,1024.5,76,0,4,-8.9,-12.5,50000,335,9.9,5.3
2019,1,3,08:00,UTC,0,1025.4,76,0,4,-9.1,-12.6,50000,335,8.4,5.2
2019,1,3,09:00,UTC,0,1026.3,76,0,4,-9.1,-12.6,50000,332,9.2,5.2
2019,1,3,10:00,UTC,0,1026.5,75,0,4,-8.7,-12.2,50000,335,8.5,4.6
2019,1,3,11:00,UTC,0,1026.7,75,0,4,-8.4,-12.1,50000,337,8,3.8
2019,1,3,12:00,UTC,0,1026.7,72,0,4,-8.1,-12.2,50000,337,8,4
2019,1,3,13:00,UTC,0,1026.9,75,0,4,-8.9,-12.5,50000,326,8.3,4.2
2019,1,3,14:00,UTC,0,1027.6,79,0,4,-9.9,-12.9,50000,322,7,4.2
2019,1,3,15:00,UTC,0,1027.1,82,0,4,-10.7,-13.1,50000,330,5.3,3.6
2019,1,3,16:00,UTC,0,1027.3,85,0,4,-11.3,-13.3,50000,320,5.7,2.9
2019,1,3,17:00,UTC,0,1027.4,86,0,4,-11.6,-13.5,50000,318,5.1,3.5
2019,1,3,18:00,UTC,0,1026.6,89,0,4,-12.3,-13.8,49140,319,4.2,2.6
2019,1,3,19:00,UTC,0,1025.9,89,0,4,-12.9,-14.2,41940,314,3.5,1.9
2019,1,3,20:00,UTC,5,1024.9,90,0,4,-13.2,-14.5,38690,315,3.3,2
2019,1,3,21:00,UTC,3,1024,90,0,4,-12.4,-13.7,43250,280,1.8,1
2019,1,3,22:00,UTC,7,1022.5,88,0,4,-11.2,-12.8,43090,213,2.1,1.5
2019,1,3,23:00,UTC,8,1021.3,89,0,4,-9.8,-11.3,35910,182,3,2.3
2019,1,4,00:00,UTC,8,1020.3,91,0,7,-7.8,-9,35180,204,3,2.2
2019,1,4,01:00,UTC,8,1019,87,0,4,-5.7,-7.5,15320,219,5,3.6
2019,1,4,02:00,UTC,8,1017.5,84,0,4,-3.8,-6.1,11550,199,7.4,4.3
2019,1,4,03:00,UTC,8,1015.7,88,1.2,4,-2,-3.8,3340,194,11.7,7.1
2019,1,4,04:00,UTC,7,1014.1,94,1.4,5,-2,-2.9,1050,198,10.4,6.8
2019,1,4,05:00,UTC,8,1012.6,96,1,5,-1.8,-2.4,690,196,11.3,6.9
2019,1,4,06:00,UTC,8,1011.3,96,0.3,7,-1.5,-2.1,1020,194,11.6,7.1
2019,1,4,07:00,UTC,8,1010.3,97,0.3,8,-0.9,-1.3,1830,205,9.7,6.4
2019,1,4,08:00,UTC,8,1009.4,97,0,8,-0.1,-0.5,7870,206,10.5,6.9
2019,1,4,09:00,UTC,8,1008.8,98,0,8,0.4,0.1,3370,211,9.1,5.5
2019,1,4,10:00,UTC,8,1007.8,99,0.7,9,0.7,0.5,3040,213,5.4,3.8
2019,1,4,11:00,UTC,7,1006.5,99,0,9,0.7,0.6,17580,232,5.5,3.9
2019,1,4,12:00,UTC,8,1006,99,0,9,0.5,0.4,6270,265,4.8,3.1
2019,1,4,13:00,UTC,8,1005.8,99,0,8,0.4,0.3,3090,287,4.5,2.5
2019,1,4,14:00,UTC,8,1005.8,99,0,8,0.5,0.4,11760,308,7,4.1
2019,1,4,15:00,UTC,8,1006,97,0,8,0.5,0.1,27170,334,8.2,4.1
2019,1,4,16:00,UTC,8,1006.2,94,0,8,0.2,-0.6,50000,334,9.4,5.3
2019,1,4,17:00,UTC,8,1006.5,92,0,8,-0.2,-1.4,50000,336,9.4,5.5
2019,1,4,18:00,UTC,8,1006.9,92,0,8,-0.6,-1.8,5050,344,8.9,5.7
2019,1,4,19:00,UTC,8,1007.5,94,0,8,-1.1,-1.9,2500,1,7.4,4.3
2019,1,4,20:00,UTC,8,1008,89,0,8,-1.6,-3.2,5970,355,8.5,4.8
2019,1,4,21:00,UTC,8,1008.6,88,0,8,-2.4,-4.1,32400,354,8.8,5.1
2019,1,4,22:00,UTC,8,1009.3,86,0,8,-2.8,-4.9,50000,9,10.8,5.7
2019,1,4,23:00,UTC,7,1010.1,86,0,8,-3.2,-5.2,50000,346,8.8,6.1
2019,1,5,00:00,UTC,8,1010.8,89,0,8,-3.6,-5.1,11700,353,7.8,5.3
2019,1,5,01:00,UTC,7,1011.7,88,0,8,-3.9,-5.6,36410,11,9.1,5
2019,1,5,02:00,UTC,8,1012.2,88,0,8,-4.2,-5.9,50000,7,9.3,5.4
2019,1,5,03:00,UTC,7,1013,89,0,8,-4.5,-6,13450,2,9.5,5.1
2019,1,5,04:00,UTC,8,1013.7,89,0,8,-4.8,-6.4,34340,7,8.6,5.9
2019,1,5,05:00,UTC,8,1014.6,87,0,8,-5,-6.8,40770,15,9.1,5.6
2019,1,5,06:00,UTC,8,1015.6,87,0,8,-5.2,-7.1,27740,13,7,3.9
2019,1,5,07:00,UTC,8,1016.3,85,0,8,-5.1,-7.3,29580,10,8.3,5.2
2019,1,5,08:00,UTC,8,1016.8,85,0,8,-5.1,-7.2,29380,7,7.9,4.5
2019,1,5,09:00,UTC,8,1017.8,85,0,8,-5.1,-7.3,21580,350,7.2,4.5
2019,1,5,10:00,UTC,8,1018.2,84,0,8,-5,-7.3,14350,355,7.1,4.1
2019,1,5,11:00,UTC,5,1018.2,84,0,8,-5.2,-7.4,19800,346,5,3.4
2019,1,5,12:00,UTC,7,1018.7,84,0,8,-5.2,-7.5,48580,350,8,5.3
2019,1,5,13:00,UTC,5,1019.2,83,0,8,-5.2,-7.6,50000,360,5.6,4.1
2019,1,5,14:00,UTC,7,1019.6,86,0,8,-5.6,-7.6,31900,333,4.6,2.6
2019,1,5,15:00,UTC,7,1020.1,85,0,8,-5.1,-7.2,25630,360,6.3,3.5
2019,1,5,16:00,UTC,8,1020.8,86,0,8,-5.1,-7.1,50000,350,5.6,3.1
2019,1,5,17:00,UTC,8,1021.2,86,0,8,-5.1,-7.1,45010,347,6.1,3.5
2019,1,5,18:00,UTC,7,1021.5,86,0,8,-5.3,-7.3,50000,336,5.5,3.4
2019,1,5,19:00,UTC,8,1021.9,84,0,8,-5.7,-7.9,50000,342,5.8,3.6
2019,1,5,20:00,UTC,7,1022.3,85,0,8,-5.9,-7.9,50000,326,3.4,2
2019,1,5,21:00,UTC,7,1022.3,87,0,8,-6.2,-8,50000,322,4.3,2.3
2019,1,5,22:00,UTC,8,1022.5,88,0,8,-6.5,-8.1,50000,332,5.1,3.7
2019,1,5,23:00,UTC,8,1022.7,89,0,8,-6.8,-8.3,50000,327,4.2,2.3
2019,1,6,00:00,UTC,8,1022.9,92,0,8,-7.1,-8.3,50000,328,2.5,0.9
2019,1,6,01:00,UTC,7,1023,92,0,8,-7.5,-8.5,50000,355,2.4,1.7
2019,1,6,02:00,UTC,8,1023,93,0,8,-7.3,-8.1,38340,296,2.5,1.5
2019,1,6,03:00,UTC,8,1023.2,93,0,8,-7.3,-8.2,20740,287,2.2,1.6
2019,1,6,04:00,UTC,8,1023.1,94,0,8,-7,-7.8,50000,261,2.9,1.7
2019,1,6,05:00,UTC,8,1023.2,91,0,8,-6.7,-7.9,50000,259,2.4,1.6
2019,1,6,06:00,UTC,8,1023.2,89,0,8,-6.4,-7.8,50000,253,3.1,2.1
2019,1,6,07:00,UTC,8,1023.5,90,0,8,-6.2,-7.6,50000,256,3.3,1.8
2019,1,6,08:00,UTC,8,1023.6,89,0,8,-5.8,-7.3,50000,228,3.7,2.8
2019,1,6,09:00,UTC,8,1023.6,87,0,8,-5.1,-6.9,50000,231,4.4,2.8
2019,1,6,10:00,UTC,8,1023.4,86,0,8,-4.8,-6.7,50000,237,3.6,2.1
2019,1,6,11:00,UTC,8,1023.1,85,0,8,-4.1,-6.2,50000,241,4.6,2.8
2019,1,6,12:00,UTC,8,1023.1,83,0,8,-3.4,-5.9,50000,249,6.3,4.6
2019,1,6,13:00,UTC,8,1022.8,84,0,8,-2.8,-5.2,50000,228,5.3,3.8
2019,1,6,14:00,UTC,8,1022.7,84,0,7,-2.2,-4.5,50000,224,7.7,4
2019,1,6,15:00,UTC,8,1022.5,85,0,7,-1.8,-4,50000,219,6.9,5.1
2019,1,6,16:00,UTC,8,1022.2,87,0,8,-1.2,-3,50000,215,6,4.5
2019,1,6,17:00,UTC,8,1021.8,85,0,7,-0.5,-2.6,50000,214,7.3,5
2019,1,6,18:00,UTC,8,1021.2,90,0,7,-0.1,-1.6,21250,208,9.7,6.1
2019,1,6,19:00,UTC,8,1020.7,95,0.5,8,-0.7,-1.4,1730,203,10.3,5.5
2019,1,6,20:00,UTC,8,1020.2,94,0.4,7,-0.5,-1.3,2950,208,11,7.1
2019,1,6,21:00,UTC,8,1019.9,97,0.1,8,-0.3,-0.7,2510,204,12.3,7.2
2019,1,6,22:00,UTC,8,1019.1,98,0,8,0.2,0,2060,207,11.2,7
2019,1,6,23:00,UTC,8,1018.4,99,0.2,8,0.7,0.5,3800,217,7.3,4.5
2019,1,7,00:00,UTC,8,1017.9,99,0,8,1,0.9,13540,229,5.8,3.7
2019,1,7,01:00,UTC,9,1017.2,99,0,8,1.1,1,2740,221,5.7,4
2019,1,7,02:00,UTC,8,1016.6,100,0,7,1.6,1.5,12400,220,7.5,5
2019,1,7,03:00,UTC,8,1015.9,99,0.4,7,1.9,1.8,20810,225,7.6,4.7
2019,1,7,04:00,UTC,8,1015.3,100,0,7,1.9,1.9,5660,234,7.7,4.4
2019,1,7,05:00,UTC,8,1014.7,99,0,7,2,1.9,4700,240,8.7,5.8
2019,1,7,06:00,UTC,8,1014.7,99,0,6,1.8,1.7,3580,246,8.6,5.1
2019,1,7,07:00,UTC,8,1014.5,99,0,6,1.6,1.5,2260,248,6.8,4.8
2019,1,7,08:00,UTC,8,1014.4,100,0,6,1.7,1.6,1830,240,6,4
2019,1,7,09:00,UTC,7,1014.1,100,0,6,1.8,1.7,7020,246,5.7,4.1
2019,1,7,10:00,UTC,8,1013.9,99,0,5,1.9,1.8,10750,252,6.7,4.3
2019,1,7,11:00,UTC,8,1013.6,98,0,5,2,1.7,11520,250,5.6,4.3
2019,1,7,12:00,UTC,8,1013.3,98,0,5,1.8,1.5,9610,251,7,4.7
2019,1,7,13:00,UTC,8,1013.1,98,0,5,1.6,1.3,4930,262,7.7,4.8
2019,1,7,14:00,UTC,8,1013.1,97,0,5,1.2,0.7,36210,281,7,4.2
2019,1,7,15:00,UTC,8,1012.5,95,0,5,1,0.4,19500,247,6.4,4.3
2019,1,7,16:00,UTC,7,1012.3,95,0,5,0.3,-0.4,22110,271,6.3,4.3
2019,1,7,17:00,UTC,5,1011.9,95,0,5,-0.1,-0.8,21040,270,5.8,3.5
2019,1,7,18:00,UTC,7,1011.1,97,0,5,-0.5,-1,16610,283,3.8,2.7
2019,1,7,19:00,UTC,7,1010.4,96,0,5,-0.6,-1.1,15650,261,3.6,2.3
2019,1,7,20:00,UTC,7,1009.8,97,0,5,-0.7,-1.2,10790,258,3,2
2019,1,7,21:00,UTC,7,1009.1,97,0,5,-0.8,-1.2,11980,247,1.7,1.3
2019,1,7,22:00,UTC,5,1008.4,98,0,5,-0.9,-1.3,8790,94,1.8,1.1
2019,1,7,23:00,UTC,7,1007.5,99,0,5,-0.9,-1.1,1500,91,2.1,1.6
2019,1,8,00:00,UTC,9,1006.6,99,0,5,-0.9,-1,470,110,2.8,2.3
2019,1,8,01:00,UTC,9,1005.6,99,0,5,-0.7,-0.8,360,83,3.9,2.8
2019,1,8,02:00,UTC,7,1004.5,100,0.2,5,0.1,0.1,5760,143,5.1,3.1
2019,1,8,03:00,UTC,7,1003.3,99,0.4,5,0.3,0.3,5570,109,4.8,3.5
2019,1,8,04:00,UTC,7,1002.4,99,0.8,5,0.3,0.2,1950,130,7.2,4.7
2019,1,8,05:00,UTC,7,1001.8,99,0.7,6,0.2,0.1,2680,129,4.7,3.2
2019,1,8,06:00,UTC,7,1001.2,100,0.8,6,0.3,0.3,2610,140,5.1,3.4
2019,1,8,07:00,UTC,7,1000.9,99,0.3,7,0.7,0.6,5320,169,7.1,4.3
2019,1,8,08:00,UTC,7,1000.8,99,0.5,7,1.1,0.8,5250,171,6.2,3.2
2019,1,8,09:00,UTC,7,1000.5,98,0.3,7,1,0.7,3790,168,7.8,3.9
2019,1,8,10:00,UTC,7,1000.3,98,0.3,7,0.8,0.5,2820,169,6.2,3.7
2019,1,8,11:00,UTC,7,1000.1,98,0.3,7,0.7,0.4,7040,164,5.4,2.9
2019,1,8,12:00,UTC,7,999.8,97,0.7,7,0.5,0.2,2840,148,3.6,2.2
2019,1,8,13:00,UTC,7,999.6,98,0.3,6,0.3,0,3150,139,4.2,2.5
2019,1,8,14:00,UTC,7,999.6,98,0.2,6,0.1,-0.1,2200,128,4.9,3.3
2019,1,8,15:00,UTC,7,999.7,99,0,6,0,-0.2,2030,130,4.4,2.9
2019,1,8,16:00,UTC,7,999.9,98,0,6,-0.1,-0.3,6700,122,3.3,2.5
2019,1,8,17:00,UTC,7,1000,98,0.3,7,-0.1,-0.3,2680,104,3.9,2.5
2019,1,8,18:00,UTC,7,1000.3,99,0.7,7,-0.2,-0.4,1310,106,3.1,2.1
2019,1,8,19:00,UTC,7,1000.5,99,0.7,10,-0.3,-0.5,1250,110,3.4,2.1
2019,1,8,20:00,UTC,7,1000.7,99,0.8,11,-0.4,-0.6,1190,98,2.9,1.7
2019,1,8,21:00,UTC,7,1001,99,1,12,-0.6,-0.7,850,102,2.7,1.5
2019,1,8,22:00,UTC,7,1001.3,99,0.8,15,-0.6,-0.8,1100,75,2.5,1.6
2019,1,8,23:00,UTC,7,1001.7,99,0.8,17,-0.7,-0.8,1250,83,3.2,2
2019,1,9,00:00,UTC,7,1002.2,99,0.3,18,-0.8,-0.9,2300,71,2.2,1.2
2019,1,9,01:00,UTC,8,1002.7,99,0.5,17,-0.7,-0.9,2060,49,2,1.5
2019,1,9,02:00,UTC,8,1003.2,99,0.7,18,-0.7,-0.9,1560,42,2,1.7
2019,1,9,03:00,UTC,7,1003.7,99,0.7,18,-0.7,-0.8,1990,52,2.8,1.9
2019,1,9,04:00,UTC,7,1004.3,99,0.5,18,-0.7,-0.8,2180,20,3.2,2
2019,1,9,05:00,UTC,7,1004.9,99,0,18,-0.8,-1,2770,14,3,1.8
2019,1,9,06:00,UTC,7,1005.5,98,0.5,18,-0.7,-1,1860,13,3.7,2.2
2019,1,9,07:00,UTC,7,1006.4,97,0.3,19,-1.1,-1.5,3810,356,6.1,3.7
2019,1,9,08:00,UTC,7,1007.3,96,0,19,-1.4,-1.9,7940,353,4.9,3.2
2019,1,9,09:00,UTC,7,1008.3,95,0,19,-1.5,-2.2,5310,353,6,3.8
2019,1,9,10:00,UTC,7,1009,94,0.3,19,-1.6,-2.4,6810,339,5.3,3.1
2019,1,9,11:00,UTC,7,1009.5,93,0.5,19,-2.1,-3.1,12370,346,6.8,4.3
2019,1,9,12:00,UTC,7,1010.1,94,0,19,-2.2,-3.1,10180,343,7,4.6
2019,1,9,13:00,UTC,8,1010.8,95,0,19,-1.9,-2.7,19600,340,5.3,3.4
2019,1,9,14:00,UTC,8,1011.3,93,0,19,-2,-2.9,18260,333,8.8,4.3
2019,1,9,15:00,UTC,8,1012.2,94,0,19,-3.3,-4.1,22670,327,6.5,3.5
2019,1,9,16:00,UTC,8,1013.1,93,0,19,-4.3,-5.2,15750,332,8.2,4.5
2019,1,9,17:00,UTC,8,1013.7,92,0,19,-4,-5.1,21650,340,9.3,5.3
2019,1,9,18:00,UTC,8,1014,92,0,19,-3.8,-4.9,50000,335,7.6,4.7
2019,1,9,19:00,UTC,8,1014.6,91,0,19,-3.8,-5.1,40190,347,8.6,5.2
2019,1,9,20:00,UTC,8,1015.1,90,0,19,-3.6,-5,38800,359,7.8,5.3
2019,1,9,21:00,UTC,8,1015.7,88,0,19,-3.4,-5,22450,6,9.8,5.5
2019,1,9,22:00,UTC,8,1016.3,88,0,19,-3.4,-5.2,35610,6,8.3,5
2019,1,9,23:00,UTC,8,1016.8,90,0,19,-3.3,-4.8,14860,1,4.6,2.7
2019,1,10,00:00,UTC,8,1017.1,88,0,19,-3.3,-5,43600,343,5.9,3.2
2019,1,10,01:00,UTC,8,1017.6,88,0,18,-3.4,-5.2,50000,5,6.4,3.9
2019,1,10,02:00,UTC,8,1017.6,90,0,18,-3.7,-5.1,50000,337,4.3,2.1
2019,1,10,03:00,UTC,8,1017.9,90,0,18,-4.2,-5.6,50000,2,6.4,3.8
2019,1,10,04:00,UTC,8,1018.4,91,0,18,-4.9,-6.1,38950,337,4.4,2.8
2019,1,10,05:00,UTC,8,1018.7,92,0,18,-5.4,-6.5,47550,34,4.5,3.2
2019,1,10,06:00,UTC,7,1018.9,92,0,18,-5.6,-6.7,46740,347,4.1,3
2019,1,10,07:00,UTC,7,1019.4,91,0,18,-5.6,-6.8,49310,42,4.1,2.2
2019,1,10,08:00,UTC,8,1019.6,91,0,18,-5.9,-7.2,50000,50,4.1,2.6
2019,1,10,09:00,UTC,8,1019.6,92,0,18,-6.3,-7.4,50000,67,1.4,0.8
2019,1,10,10:00,UTC,8,1019.5,91,0,18,-6.2,-7.4,41570,344,2.6,1.5
2019,1,10,11:00,UTC,7,1018.9,92,0,18,-5.9,-7,26190,248,3.4,1.6
2019,1,10,12:00,UTC,8,1018.8,92,0,18,-5.8,-6.9,14770,290,4.2,2.2
2019,1,10,13:00,UTC,8,1018.4,93,0,18,-5.6,-6.6,21420,257,4.4,3
2019,1,10,14:00,UTC,8,1017.8,95,0,18,-6,-6.6,6640,245,6.4,3.8
2019,1,10,15:00,UTC,8,1017,95,0,18,-5.7,-6.3,15450,245,7.3,3.5
2019,1,10,16:00,UTC,8,1016.3,94,0,18,-5,-5.8,41590,251,7,4.9
2019,1,10,17:00,UTC,8,1015.5,93,0,17,-4.9,-5.9,50000,248,5.5,4.1
2019,1,10,18:00,UTC,8,1014.3,92,0,17,-4.4,-5.5,50000,233,4.6,3
2019,1,10,19:00,UTC,8,1013.2,92,0,17,-3.6,-4.7,50000,207,5.8,3.9
2019,1,10,20:00,UTC,8,1011.6,87,0,17,-1.6,-3.5,45620,208,8.3,5.5
2019,1,10,21:00,UTC,8,1010.2,85,0,17,-0.6,-2.8,39970,209,13.4,8.9
2019,1,10,22:00,UTC,8,1008.9,91,4.7,17,-0.6,-1.9,42230,204,14.1,8.7
2019,1,10,23:00,UTC,8,1007.2,92,0,17,-0.5,-1.6,3860,208,14.7,9.7
2019,1,11,00:00,UTC,8,1005.3,97,1.1,16,-0.3,-0.7,880,211,15.5,10.7
2019,1,11,01:00,UTC,8,1003.4,99,0.2,17,-0.1,-0.2,3770,210,14.7,9.3
2019,1,11,02:00,UTC,8,1001.6,97,0,16,0.6,0.2,10540,219,18.3,10.1
2019,1,11,03:00,UTC,8,999.9,95,0,17,0.8,0.1,11030,217,17,10.3
2019,1,11,04:00,UTC,8,998.8,97,0.5,18,0.6,0.1,3790,223,12.8,8.2
2019,1,11,05:00,UTC,8,997.5,96,0.5,17,1.2,0.7,21460,228,13,8.9
2019,1,11,06:00,UTC,8,996.8,95,0,17,1.5,0.8,39160,242,10.2,7.2
2019,1,11,07:00,UTC,8,996,96,0,17,1.3,0.7,14470,243,9.8,6.8
2019,1,11,08:00,UTC,8,995.4,96,0,16,1.1,0.5,23210,245,8.9,6.2
2019,1,11,09:00,UTC,8,994.7,95,0,16,1.2,0.4,27020,243,8.4,6.1
2019,1,11,10:00,UTC,1,994.4,93,0,16,1.1,0.1,39880,251,7.1,5
2019,1,11,11:00,UTC,0,993.5,88,0,16,1.4,-0.4,47660,247,9.3,6.1
2019,1,11,12:00,UTC,0,992.8,83,0,16,1.4,-1.2,50000,244,9.9,6.3
2019,1,11,13:00,UTC,0,992.4,82,0,16,1.1,-1.6,46450,238,9.8,6.3
2019,1,11,14:00,UTC,0,991.2,82,0,16,0.7,-2,50000,244,10.5,6.6
2019,1,11,15:00,UTC,0,990.6,76,0,16,0.7,-3,50000,255,11.3,6.8
2019,1,11,16:00,UTC,0,989.9,75,0,16,0.6,-3.3,50000,257,11.2,6.7
2019,1,11,17:00,UTC,0,989.7,76,0,16,0.7,-3.1,50000,259,12.8,8
2019,1,11,18:00,UTC,0,989.5,76,0,16,0.7,-3,50000,260,11.3,7.3
2019,1,11,19:00,UTC,0,989.1,79,0,16,0.6,-2.7,50000,267,12.8,7.5
2019,1,11,20:00,UTC,0,989.2,78,0,16,1,-2.4,50000,269,12.2,7
2019,1,11,21:00,UTC,3,989.5,77,0,16,1.4,-2.1,50000,270,11.4,7.2
2019,1,11,22:00,UTC,0,989.9,82,0,16,0.8,-2,50000,278,9.6,5.8
2019,1,11,23:00,UTC,0,990.3,82,0,16,0.4,-2.3,50000,285,9,5.1
2019,1,12,00:00,UTC,0,990.7,85,0,15,-0.8,-3,49590,277,7.3,4.8
2019,1,12,01:00,UTC,0,991.1,85,0,16,-1,-3.1,49620,266,7.9,4.8
2019,1,12,02:00,UTC,0,991.8,84,0,16,-0.5,-2.8,47610,265,8.3,5.7
2019,1,12,03:00,UTC,0,991.9,83,0,15,-0.9,-3.5,44520,271,8.2,5.3
2019,1,12,04:00,UTC,1,992,84,0,15,-1.4,-3.7,45990,271,7.4,4.8
2019,1,12,05:00,UTC,0,992.1,85,0,15,-1.5,-3.7,50000,278,7.4,4.3
2019,1,12,06:00,UTC,0,992.3,86,0,15,-1.6,-3.6,48530,280,8.1,4.9
2019,1,12,07:00,UTC,0,992.4,86,0,15,-2.4,-4.3,50000,284,6.9,4.6
2019,1,12,08:00,UTC,0,992.5,86,0,15,-2.1,-4,50000,283,8.4,5.1
2019,1,12,09:00,UTC,0,992.7,81,0,15,-1.5,-4.3,47570,290,8.1,4.3
2019,1,12,10:00,UTC,0,992.5,77,0,15,-0.7,-4.2,50000,291,7.7,4.3
2019,1,12,11:00,UTC,0,992.5,77,0,15,-0.6,-4.2,50000,282,7.2,4
2019,1,12,12:00,UTC,0,992.5,79,0,15,-0.9,-4.1,50000,263,6.5,3.9
2019,1,12,13:00,UTC,0,992.7,81,0,15,-1.3,-4.1,50000,256,6.6,4.5
2019,1,12,14:00,UTC,0,993,87,0,15,-2.2,-4.1,50000,262,6.4,4.2
2019,1,12,15:00,UTC,0,993,89,0,15,-2.8,-4.4,50000,263,7,4.7
2019,1,12,16:00,UTC,0,993,93,0,15,-4,-5,41480,271,5.5,3.9
2019,1,12,17:00,UTC,0,992.8,94,0,15,-4.5,-5.3,42420,282,5.2,3.9
2019,1,12,18:00,UTC,0,992.9,92,0,15,-4.3,-5.4,46750,271,5,3.8
2019,1,12,19:00,UTC,0,992.9,94,0,15,-4.9,-5.8,41520,271,5.3,3.7
2019,1,12,20:00,UTC,0,992.8,95,0,15,-5.6,-6.3,40680,260,5.1,3.7
2019,1,12,21:00,UTC,0,992.5,94,0,15,-6.1,-6.9,43840,260,4.6,3.6
2019,1,12,22:00,UTC,3,992.3,94,0,15,-6.2,-7,41850,266,4.6,3.1
2019,1,12,23:00,UTC,3,992,94,0,15,-6.5,-7.3,45270,266,4.3,3.3
2019,1,13,00:00,UTC,3,991.8,94,0,15,-6.5,-7.3,47170,264,6.1,3.4
2019,1,13,01:00,UTC,3,991.5,91,0,15,-6.3,-7.5,50000,266,4.6,3.6
2019,1,13,02:00,UTC,7,991.3,91,0,15,-6.1,-7.3,50000,254,4.2,3.4
2019,1,13,03:00,UTC,7,990.7,92,0,15,-6.3,-7.4,50000,226,2.6,2.2
2019,1,13,04:00,UTC,7,990.1,91,0,15,-4.9,-6.2,47700,229,3.3,2.5
2019,1,13,05:00,UTC,7,989.4,94,0,14,-4.3,-5.1,35870,245,4.4,3.2
2019,1,13,06:00,UTC,7,988.8,96,0,14,-4.2,-4.7,33420,248,3.5,2.6
2019,1,13,07:00,UTC,7,988.2,96,0,14,-4.1,-4.7,25670,228,2.3,1.5
2019,1,13,08:00,UTC,3,987.6,97,0,14,-5.3,-5.7,15560,202,1.8,1.3
2019,1,13,09:00,UTC,7,986.8,98,0,14,-4.1,-4.4,15290,196,1.1,0.8
2019,1,13,10:00,UTC,7,985.9,94,0,14,-3.3,-4.1,21370,142,1.9,1.1
2019,1,13,11:00,UTC,7,984.8,92,0,14,-2.4,-3.5,25020,125,1.2,0.9
2019,1,13,12:00,UTC,7,983.8,94,0,14,-1.9,-2.7,20130,145,2.2,1.9
2019,1,13,13:00,UTC,7,982.9,95,0,14,-1.7,-2.4,18140,107,2.6,2.1
2019,1,13,14:00,UTC,7,981.9,97,0,14,-0.3,-0.7,8200,158,5.8,3.6
2019,1,13,15:00,UTC,7,981.1,97,0.8,14,0.4,0,5320,169,7.2,4.8
2019,1,13,16:00,UTC,7,980.4,97,0.5,14,0.4,-0.1,2230,180,8,5.3
2019,1,13,17:00,UTC,7,979.4,95,0,15,0.3,-0.4,10180,170,8.6,5.5
2019,1,13,18:00,UTC,7,978.6,93,0,15,0.1,-1,35780,160,7.1,4.3
2019,1,13,19:00,UTC,7,977.9,91,0,15,-0.3,-1.5,34170,141,6.5,3.8
2019,1,13,20:00,UTC,7,977.2,91,0,15,-0.3,-1.7,31230,138,8.1,5.1
2019,1,13,21:00,UTC,7,976.2,92,0,15,-0.5,-1.5,8340,129,8.5,5.3
2019,1,13,22:00,UTC,8,975.2,92,0,15,-0.7,-1.9,11230,121,6.9,4.5
2019,1,13,23:00,UTC,8,974.2,96,0.8,15,-1,-1.5,1290,115,6.5,4.7
2019,1,14,00:00,UTC,8,973.3,98,0.4,19,-0.7,-1.1,2770,113,5.4,3.9
2019,1,14,01:00,UTC,8,972.6,97,0.7,16,-0.6,-0.9,1760,118,6.5,4.3
2019,1,14,02:00,UTC,8,972,98,0.7,17,-0.5,-0.8,1780,118,4.4,2.9
2019,1,14,03:00,UTC,8,971.3,99,1.3,18,-0.1,-0.3,1140,136,4,2.5
2019,1,14,04:00,UTC,7,970.8,98,1,19,0.1,-0.2,1490,158,4.5,2.9
2019,1,14,05:00,UTC,7,970.4,98,0.5,19,-0.1,-0.3,2130,209,2.5,1.5
2019,1,14,06:00,UTC,7,970.1,99,0.2,19,-0.3,-0.5,2510,282,2.9,2.1
2019,1,14,07:00,UTC,7,970.5,99,0.1,20,-0.6,-0.8,2650,292,2.7,2
2019,1,14,08:00,UTC,7,970.6,99,0,20,-0.8,-0.9,2910,294,3.4,2.3
2019,1,14,09:00,UTC,7,970.9,98,0,20,-0.4,-0.7,5350,292,3.8,2.2
2019,1,14,10:00,UTC,7,971.3,96,0.2,20,-0.9,-1.5,2760,296,7.3,4.3
2019,1,14,11:00,UTC,7,971.9,93,0.2,21,-1.7,-2.8,2350,309,10,5.3
2019,1,14,12:00,UTC,3,972.6,89,0.7,21,-2.9,-4.5,5640,307,10.8,6.4
2019,1,14,13:00,UTC,7,973.4,88,0,21,-3.2,-4.9,7340,305,10.1,6.4
2019,1,14,14:00,UTC,8,974.3,86,0,21,-3.2,-5.2,22440,307,9.5,5.3
2019,1,14,15:00,UTC,8,975.2,87,0,21,-3.4,-5.3,50000,309,7.7,4.8
2019,1,14,16:00,UTC,8,975.7,89,0,21,-3.9,-5.4,50000,293,6.6,4.4
2019,1,14,17:00,UTC,1,976.4,91,0,21,-5,-6.2,50000,278,8,4.5
2019,1,14,18:00,UTC,0,977.1,93,0,20,-6.1,-7.1,50000,274,6.3,4.1
2019,1,14,19:00,UTC,1,977.7,93,0,21,-6.1,-7.1,50000,275,7.1,4.5
2019,1,14,20:00,UTC,7,978.2,91,0,21,-5.6,-6.9,50000,263,5.3,3.2
2019,1,14,21:00,UTC,3,978.6,89,0,20,-5.9,-7.4,50000,249,4.5,3.4
2019,1,14,22:00,UTC,0,979.2,91,0,20,-7,-8.2,50000,250,5,4
2019,1,14,23:00,UTC,0,979.6,94,0,20,-7.9,-8.7,50000,262,4.9,3.5
2019,1,15,00:00,UTC,3,980.3,94,0,20,-7.9,-8.7,50000,293,4.6,3.7
2019,1,15,01:00,UTC,0,980.7,95,0,20,-9,-9.7,50000,287,4.3,3.2
2019,1,15,02:00,UTC,3,981.2,95,0,20,-9.4,-10.1,50000,290,4.5,3.8
2019,1,15,03:00,UTC,0,981.6,93,0,20,-9.9,-10.9,50000,281,4.8,3.8
2019,1,15,04:00,UTC,5,982.2,93,0,20,-9.6,-10.5,50000,275,5.2,3.8
2019,1,15,05:00,UTC,3,982.5,91,0,20,-8.8,-10,50000,278,6,4.2
2019,1,15,06:00,UTC,5,983.4,93,0,20,-8.2,-9.2,46560,292,6.8,3.7
2019,1,15,07:00,UTC,8,984.1,93,0,20,-7,-8,30990,292,6.9,4.1
2019,1,15,08:00,UTC,7,984.8,92,0,20,-6.3,-7.4,45250,289,5.5,3.8
2019,1,15,09:00,UTC,7,985.4,91,0,20,-5.5,-6.8,41610,295,6.4,3.7
2019,1,15,10:00,UTC,7,985.7,90,0,20,-5.1,-6.5,18480,293,7,4.4
2019,1,15,11:00,UTC,8,985.9,89,0,20,-4.9,-6.5,9470,299,7.5,5
2019,1,15,12:00,UTC,7,985.9,88,0,20,-4.9,-6.5,45880,307,7.6,4
2019,1,15,13:00,UTC,7,986.4,89,0,20,-4.9,-6.4,45520,295,8.2,5.5
2019,1,15,14:00,UTC,7,986.7,90,0,20,-5,-6.4,47180,293,5.3,3.5
2019,1,15,15:00,UTC,7,987,89,0,20,-5.2,-6.7,50000,292,6.1,3.5
2019,1,15,16:00,UTC,8,987,88,0,20,-5.4,-7,50000,297,7.2,4.1
2019,1,15,17:00,UTC,8,987,88,0,20,-5.4,-7,32140,302,10.4,4.9
2019,1,15,18:00,UTC,8,987,89,0,20,-5.1,-6.7,9330,303,6.4,4.2
2019,1,15,19:00,UTC,7,987.3,89,0.3,20,-4.9,-6.4,16450,298,6.9,3.8
2019,1,15,20:00,UTC,8,987.8,85,0,20,-4.4,-6.5,7760,308,9.4,4.6
2019,1,15,21:00,UTC,8,988.3,87,0,20,-4.4,-6.2,3310,300,8.1,4.7
2019,1,15,22:00,UTC,7,988.7,91,0.5,19,-4.4,-5.6,2060,298,8,4.8
2019,1,15,23:00,UTC,8,989,87,0,20,-3.9,-5.7,25680,302,10.1,4.5
2019,1,16,00:00,UTC,8,989.4,88,0,20,-3.8,-5.5,14990,299,7.5,4.1
2019,1,16,01:00,UTC,8,990.2,84,0,20,-3.8,-6.1,50000,307,7.3,4.5
2019,1,16,02:00,UTC,8,990.9,85,0,20,-3.9,-6,50000,293,6,3.3
2019,1,16,03:00,UTC,8,991.5,83,0,20,-3.8,-6.3,50000,299,11.1,4.7
2019,1,16,04:00,UTC,8,992.2,79,0,20,-4.3,-7.4,24600,312,10.8,6.1
2019,1,16,05:00,UTC,8,992.7,81,0,20,-4.6,-7.3,50000,289,8,4.7
2019,1,16,06:00,UTC,7,993.2,78,0,20,-4.8,-8,50000,304,9.3,4.9
2019,1,16,07:00,UTC,8,993.9,77,0,20,-4.9,-8.3,50000,293,8.4,4.7
2019,1,16,08:00,UTC,8,994.7,80,0,20,-5.1,-8,50000,274,6.2,4.1
2019,1,16,09:00,UTC,8,995.2,83,0,20,-6.2,-8.5,43310,266,7.7,5.5
2019,1,16,10:00,UTC,3,995.8,83,0,21,-6.3,-8.8,50000,266,6.3,3.6
2019,1,16,11:00,UTC,0,995.7,81,0,21,-6.6,-9.4,50000,268,6.5,4.3
2019,1,16,12:00,UTC,0,996.1,80,0,20,-6.4,-9.3,50000,263,6.4,3.9
2019,1,16,13:00,UTC,0,996.4,82,0,20,-7.2,-9.8,50000,266,4.9,3.1
2019,1,16,14:00,UTC,0,996.4,87,0,20,-8,-9.8,50000,260,4.1,2.8
2019,1,16,15:00,UTC,8,996.2,91,0,20,-8.3,-9.5,50000,282,3.6,2.8
2019,1,16,16:00,UTC,7,996.1,89,0,20,-8.2,-9.7,50000,262,3.7,2.7
2019,1,16,17:00,UTC,5,995.7,91,0,20,-8.6,-9.8,45520,0,0.5,0
2019,1,16,18:00,UTC,7,995,92,0,20,-8.5,-9.6,36970,78,1.8,1.5
2019,1,16,19:00,UTC,7,994.2,88,0,20,-7.4,-9,50000,102,3.5,2.4
2019,1,16,20:00,UTC,7,993,90,0,20,-6.7,-8.1,46560,74,3.5,2.5
2019,1,16,21:00,UTC,8,991.9,91,0.4,20,-5.9,-7.1,2430,74,4.3,3
2019,1,16,22:00,UTC,8,990.3,94,0,21,-3,-3.8,1770,110,8,5.7
2019,1,16,23:00,UTC,9,988.6,97,3.7,21,-2.5,-2.9,540,123,10.6,6.6
2019,1,17,00:00,UTC,7,986.5,96,1.6,28,-2.7,-3.2,790,118,12,8.4
2019,1,17,01:00,UTC,9,984,96,2,26,-2.8,-3.2,390,100,12.8,8.1
2019,1,17,02:00,UTC,8,982,97,1.9,28,-2.3,-2.7,660,104,12.3,8.4
2019,1,17,03:00,UTC,9,980.6,96,2.1,28,-2.7,-3.2,520,98,12.5,7.8
2019,1,17,04:00,UTC,8,978.7,96,0.8,28,-2.4,-2.9,750,89,13.2,8.6
2019,1,17,05:00,UTC,8,977.6,96,0,29,-1.9,-2.4,7350,75,11.3,5.5
2019,1,17,06:00,UTC,8,977.3,95,0.3,28,-1.6,-2.2,20710,18,5.4,3.3
2019,1,17,07:00,UTC,8,977.4,94,0,28,-1.7,-2.6,24580,26,5.9,3.6
2019,1,17,08:00,UTC,8,977.5,94,0,28,-2.1,-2.9,8030,31,5.5,4
2019,1,17,09:00,UTC,8,977.8,92,0.6,28,-3.4,-4.5,1940,11,7.1,4.1
2019,1,17,10:00,UTC,8,978.1,90,0,28,-4.3,-5.7,3050,14,7.5,4.4
2019,1,17,11:00,UTC,8,978.4,87,0,28,-4.6,-6.5,28110,5,7.3,4.7
2019,1,17,12:00,UTC,8,979.1,86,0,28,-5.2,-7.2,11940,349,8.9,5.3
2019,1,17,13:00,UTC,7,980,86,0,28,-5.4,-7.5,31700,337,8.9,4.7
2019,1,17,14:00,UTC,8,981.1,87,0,28,-5.8,-7.7,13610,342,8.1,5.1
2019,1,17,15:00,UTC,8,982.1,85,0,28,-6.1,-8.2,39600,332,6.2,3.7
2019,1,17,16:00,UTC,8,984.2,83,0,28,-6.5,-8.9,37160,301,9.1,6.1
2019,1,17,17:00,UTC,8,984.8,84,0,28,-7.1,-9.4,6240,310,8,4.3
2019,1,17,18:00,UTC,9,986.1,89,0.4,27,-7.6,-9.1,1130,301,7.8,4.3
2019,1,17,19:00,UTC,7,987.3,86,0,29,-7.9,-9.8,3970,304,9.2,5.5
2019,1,17,20:00,UTC,7,988.6,84,0,29,-8.1,-10.3,43130,297,9.1,4.9
2019,1,17,21:00,UTC,0,989.8,86,0,29,-9,-10.8,50000,284,7.5,4.5
2019,1,17,22:00,UTC,7,991,84,0,29,-9,-11.2,50000,292,7.6,4.6
2019,1,17,23:00,UTC,7,991.8,89,0,29,-10.1,-11.6,50000,260,4.9,3.2
2019,1,18,00:00,UTC,7,992.5,89,0,30,-10.2,-11.7,50000,255,6.1,4.2
2019,1,18,01:00,UTC,7,993,89,0,29,-10,-11.6,50000,259,5.9,4.1
2019,1,18,02:00,UTC,5,993.4,88,0,29,-9.7,-11.3,50000,243,6.4,4.3
2019,1,18,03:00,UTC,7,993.6,87,0,29,-8.9,-10.7,14930,250,5.2,3.4
2019,1,18,04:00,UTC,7,993.8,87,0,28,-8.4,-10.1,8390,257,4.7,3
2019,1,18,05:00,UTC,5,994,89,0,28,-9.1,-10.6,11720,276,5.1,3.3
2019,1,18,06:00,UTC,1,994.5,91,0,28,-9.4,-10.6,50000,266,6.1,4.1
2019,1,18,07:00,UTC,0,994.9,91,0,28,-9.9,-11,43890,267,5.7,3.8
2019,1,18,08:00,UTC,0,995.5,89,0,28,-9.1,-10.5,50000,270,6.3,4.2
2019,1,18,09:00,UTC,5,996,90,0,28,-8.8,-10.1,30090,272,4.7,3.8
2019,1,18,10:00,UTC,7,996.2,88,0,28,-7.8,-9.5,50000,287,3.7,2.6
2019,1,18,11:00,UTC,7,996.5,85,0,28,-6.8,-8.8,50000,300,3.4,2.4
2019,1,18,12:00,UTC,1,996.6,85,0,28,-7.5,-9.6,50000,289,3.5,2.2
2019,1,18,13:00,UTC,7,997,84,0,28,-7.5,-9.7,41320,280,3.9,2.3
2019,1,18,14:00,UTC,5,997.5,81,0,28,-8.2,-10.8,50000,295,4.5,3
2019,1,18,15:00,UTC,0,998.2,87,0,27,-9.5,-11.3,50000,308,5.1,3.1
2019,1,18,16:00,UTC,0,999,89,0,27,-10.5,-12.1,50000,298,5.4,3.4
2019,1,18,17:00,UTC,1,999.7,88,0,27,-11.1,-12.7,49650,297,5.8,3.3
2019,1,18,18:00,UTC,0,1000.1,89,0,27,-12.4,-13.9,47640,289,5.4,3.5
2019,1,18,19:00,UTC,1,1000.9,90,0,27,-12.6,-13.9,49620,285,5.1,3.7
2019,1,18,20:00,UTC,3,1001.6,89,0,27,-12.5,-14,42040,287,4.7,3.4
2019,1,18,21:00,UTC,5,1002.4,88,0,27,-12,-13.6,23090,286,5.5,3.6
2019,1,18,22:00,UTC,7,1002.9,88,0,27,-11.4,-12.9,40830,294,5,3
2019,1,18,23:00,UTC,7,1003.4,88,0,27,-12.2,-13.7,43540,282,4.4,3.3
2019,1,19,00:00,UTC,7,1004.1,89,0,27,-12.1,-13.5,40320,270,5.4,3.4
2019,1,19,01:00,UTC,5,1004.6,89,0,27,-12.7,-14.1,41230,258,4.3,3.1
2019,1,19,02:00,UTC,0,1004.8,88,0,27,-13.5,-15,43870,266,4.9,3.4
2019,1,19,03:00,UTC,5,1005.2,88,0,27,-12.4,-13.9,35510,265,6.3,3.4
2019,1,19,04:00,UTC,8,1005.1,88,0,27,-11.2,-12.8,13540,282,3.8,2.9
2019,1,19,05:00,UTC,8,1005.1,89,0,27,-10,-11.5,27040,257,3.4,2.7
2019,1,19,06:00,UTC,7,1004.8,90,0,27,-8.2,-9.6,33860,248,6.4,3.5
2019,1,19,07:00,UTC,7,1004.9,87,0,27,-7.6,-9.3,45660,254,6.5,5.2
2019,1,19,08:00,UTC,7,1005.4,86,0,27,-6.8,-8.8,44920,250,6.5,4.8
2019,1,19,09:00,UTC,7,1005.7,85,0,27,-5.5,-7.6,44050,251,7.5,5.3
2019,1,19,10:00,UTC,1,1005.8,85,0,27,-4.5,-6.6,50000,249,7.6,5.1
2019,1,19,11:00,UTC,0,1005.7,84,0,27,-3.4,-5.8,50000,241,7.8,5.6
2019,1,19,12:00,UTC,1,1005.5,82,0,27,-3.1,-5.7,50000,240,7.1,5
2019,1,19,13:00,UTC,7,1005.3,85,0,27,-3,-5.1,50000,228,7.8,5.3
2019,1,19,14:00,UTC,7,1004.6,88,0,27,-3.7,-5.3,50000,223,6.3,4.1
2019,1,19,15:00,UTC,7,1003.6,88,0,27,-2.4,-4.1,50000,200,5.1,3.4
2019,1,19,16:00,UTC,8,1002.4,83,0,27,-0.7,-3.2,50000,203,7.1,4.7
2019,1,19,17:00,UTC,7,1001,92,1,27,-1.1,-2.1,1210,204,9.6,5.3
2019,1,19,18:00,UTC,9,999.2,97,3.1,28,-1.7,-2,280,162,10.8,6.8
2019,1,19,19:00,UTC,7,998.2,97,0.3,30,-1.4,-1.9,2240,242,11.3,7.8
2019,1,19,20:00,UTC,7,998.7,92,0,30,-2.4,-3.5,28640,265,10.2,6.4
2019,1,19,21:00,UTC,7,999.1,89,0,30,-2.8,-4.3,50000,257,6.8,3.9
2019,1,19,22:00,UTC,5,999.1,92,0,30,-3.5,-4.7,50000,244,7,4.8
2019,1,19,23:00,UTC,5,998.9,90,0,30,-4.8,-6.2,50000,241,6,4
2019,1,20,00:00,UTC,3,998.6,91,0,30,-4.3,-5.6,50000,242,7.2,5
2019,1,20,01:00,UTC,3,998.2,89,0,30,-4.5,-6.1,50000,250,5.8,4.1
2019,1,20,02:00,UTC,5,998.8,93,0,30,-5.1,-6,50000,289,6.7,4.4
2019,1,20,03:00,UTC,7,999.3,90,0,29,-4.4,-5.8,25930,296,8,4.7
2019,1,20,04:00,UTC,8,1000.3,90,0,29,-3.9,-5.4,26260,299,11,5.8
2019,1,20,05:00,UTC,7,1001.6,85,0,30,-4.7,-6.8,6190,314,10.5,6.2
2019,1,20,06:00,UTC,8,1003.1,85,0,30,-5.7,-7.7,14880,307,11.9,6.1
2019,1,20,07:00,UTC,7,1004.3,84,0,29,-6.4,-8.6,10650,319,8.3,5.2
2019,1,20,08:00,UTC,3,1005.8,80,0,29,-8.6,-11.3,6600,317,10.2,5.7
2019,1,20,09:00,UTC,0,1006.6,79,0,29,-9.2,-12.2,50000,300,9.1,5.7
2019,1,20,10:00,UTC,0,1007.1,80,0,29,-8.7,-11.6,50000,305,7.6,4.7
2019,1,20,11:00,UTC,1,1007.2,78,0,29,-8.1,-11.2,50000,306,8.8,5
2019,1,20,12:00,UTC,1,1007.7,78,0,29,-7.8,-10.9,50000,300,9.4,5.2
2019,1,20,13:00,UTC,3,1008.3,80,0,29,-8.2,-11.1,50000,284,5.8,3.5
2019,1,20,14:00,UTC,0,1008.7,85,0,29,-9.7,-11.7,50000,268,5.4,3.2
2019,1,20,15:00,UTC,0,1008.9,88,0,29,-10.2,-11.8,50000,260,5.4,3.7
2019,1,20,16:00,UTC,3,1009.2,89,0,29,-10.1,-11.6,2400,283,4.9,3.1
2019,1,20,17:00,UTC,0,1009.3,91,0,29,-11.3,-12.5,49360,273,4.6,3.5
2019,1,20,18:00,UTC,0,1009.7,91,0,29,-12.5,-13.7,44400,286,4.6,3.5
2019,1,20,19:00,UTC,0,1010,90,0,29,-12.4,-13.7,50000,288,6.8,4.6
2019,1,20,20:00,UTC,0,1010.3,89,0,29,-13.5,-14.9,50000,280,5.6,3.6
2019,1,20,21:00,UTC,0,1010.7,89,0,28,-14.2,-15.5,50000,285,5.2,3.9
2019,1,20,22:00,UTC,0,1011.1,90,0,28,-13.7,-15,50000,276,6.9,4.6
2019,1,20,23:00,UTC,0,1011.4,88,0,28,-13.7,-15.2,50000,284,6.1,4.3
2019,1,21,00:00,UTC,0,1011.7,89,0,30,-14.4,-15.8,50000,278,6.5,4.5
2019,1,21,01:00,UTC,0,1011.9,89,0,28,-14.5,-15.9,50000,290,5.2,3.7
2019,1,21,02:00,UTC,0,1012,89,0,28,-14.6,-16,50000,299,5.1,3.7
2019,1,21,03:00,UTC,0,1012.2,89,0,28,-14.7,-16.1,14670,300,4.8,3.2
2019,1,21,04:00,UTC,0,1012.4,89,0,28,-14.8,-16.3,46770,308,4.4,2.9
2019,1,21,05:00,UTC,0,1012.7,87,0,28,-15.2,-16.9,50000,308,5.1,2.8
2019,1,21,06:00,UTC,0,1012.9,87,0,28,-15,-16.8,50000,316,5.2,3
2019,1,21,07:00,UTC,0,1013.5,85,0,28,-15.4,-17.3,49540,318,4.7,2.7
2019,1,21,08:00,UTC,0,1014.5,86,0,28,-16,-17.8,41570,306,4.8,2.9
2019,1,21,09:00,UTC,0,1015,83,0,28,-14.7,-16.9,36990,311,4.9,2.2
2019,1,21,10:00,UTC,0,1015.4,82,0,28,-14.3,-16.7,38040,328,5.7,3.1
2019,1,21,11:00,UTC,0,1015.7,81,0,28,-14.2,-16.8,36100,331,4.7,2.8
2019,1,21,12:00,UTC,0,1016.3,80,0,28,-14.1,-16.7,29530,336,5.4,3.4
2019,1,21,13:00,UTC,0,1016.8,80,0,28,-14.1,-16.8,42990,327,4,1.7
2019,1,21,14:00,UTC,0,1017,82,0,28,-15.1,-17.5,46920,329,4.7,2.7
2019,1,21,15:00,UTC,0,1017.3,83,0,28,-15.8,-18,46720,335,3.8,2.2
2019,1,21,16:00,UTC,0,1017.6,87,0,28,-17.4,-19,34000,298,4.8,3.4
2019,1,21,17:00,UTC,0,1017.9,86,0,28,-16.4,-18.3,33060,327,5.1,3.2
2019,1,21,18:00,UTC,0,1018.1,85,0,28,-17.3,-19.2,32460,330,3.3,2.2
2019,1,21,19:00,UTC,0,1018.2,85,0,28,-18.6,-20.5,24770,309,3,2
2019,1,21,20:00,UTC,0,1018.4,85,0,28,-19,-20.9,17640,311,3.2,2
2019,1,21,21:00,UTC,0,1018.6,85,0,28,-19.2,-21.1,28860,330,2.7,1.9
2019,1,21,22:00,UTC,0,1018.6,85,0,28,-19.8,-21.8,33060,325,2.9,1.8
2019,1,21,23:00,UTC,0,1018.4,86,0,28,-19.9,-21.6,33170,307,3.1,2.3
2019,1,22,00:00,UTC,0,1018.3,84,0,30,-20.4,-22.4,33190,303,2.5,1.8
2019,1,22,01:00,UTC,0,1018.3,84,0,28,-20.4,-22.4,37440,309,2.8,2.2
2019,1,22,02:00,UTC,0,1018,83,0,28,-21.1,-23.2,35670,270,1.6,1.2
2019,1,22,03:00,UTC,0,1017.9,83,0,27,-20.6,-22.8,36430,281,1.4,0.9
2019,1,22,04:00,UTC,0,1017.7,85,0,28,-21.3,-23,41690,295,2.9,2.2
2019,1,22,05:00,UTC,5,1017.4,83,0,28,-20.8,-23,23880,315,3.5,1.8
2019,1,22,06:00,UTC,3,1016.8,82,0,27,-18.8,-21.1,29530,280,3.5,2.6
2019,1,22,07:00,UTC,5,1016.7,83,0,27,-19.2,-21.3,25020,259,3.3,2.5
2019,1,22,08:00,UTC,0,1016.8,88,0,28,-18.2,-19.8,12100,248,3.8,3.1
2019,1,22,09:00,UTC,5,1016.7,83,0,27,-16.3,-18.5,18730,244,2,1.6
2019,1,22,10:00,UTC,7,1016.6,84,0,27,-13.7,-15.8,16220,285,2.8,1.7
2019,1,22,11:00,UTC,1,1016.2,78,0,27,-13.9,-16.9,20510,95,1.1,0.6
2019,1,22,12:00,UTC,3,1015.8,81,0,27,-13.6,-16.2,19300,160,0.9,0.6
2019,1,22,13:00,UTC,5,1015.4,81,0,28,-12.8,-15.3,19030,203,3.1,2.1
2019,1,22,14:00,UTC,0,1015.3,86,0,27,-13.3,-15.2,15790,260,2.1,1.3
2019,1,22,15:00,UTC,5,1014.9,88,0,28,-13.1,-14.6,19770,130,2.2,2
2019,1,22,16:00,UTC,3,1014.6,89,0,27,-13.1,-14.5,20000,154,3.1,2.8
2019,1,22,17:00,UTC,5,1014.3,90,0,27,-12.4,-13.8,13410,208,4.4,3.2
2019,1,22,18:00,UTC,7,1014.2,86,0,28,-12.8,-14.6,11230,213,3,2
2019,1,22,19:00,UTC,7,1014,88,0,28,-11.7,-13.3,12330,148,5,3.3
2019,1,22,20:00,UTC,5,1013.4,88,0,27,-9.1,-10.7,18740,148,5.4,3.8
2019,1,22,21:00,UTC,5,1012.9,89,0,27,-8.7,-10.2,26820,149,4.6,3.1
2019,1,22,22:00,UTC,7,1012.6,93,0,27,-6.9,-7.8,29900,158,4.7,3.5
2019,1,22,23:00,UTC,7,1012.1,93,0,27,-4.5,-5.4,30090,189,8.5,5.5
2019,1,23,00:00,UTC,7,1011.6,96,0,30,-4.2,-4.8,17580,171,6.1,4
2019,1,23,01:00,UTC,7,1011,92,0,27,-3.6,-4.7,39590,196,7.6,4.6
2019,1,23,02:00,UTC,7,1010.5,94,0,27,-3.6,-4.5,18770,192,7.7,5.3
2019,1,23,03:00,UTC,7,1010,94,0.4,28,-3.4,-4.2,4410,189,7.4,3.7
2019,1,23,04:00,UTC,9,1009.6,94,0.6,28,-2.8,-3.6,1010,196,8.8,5.9
2019,1,23,05:00,UTC,7,1009.3,95,0.2,28,-2.7,-3.4,1500,201,7,4.5
2019,1,23,06:00,UTC,7,1009.1,95,0.6,29,-2.7,-3.3,1650,199,7.5,5
2019,1,23,07:00,UTC,7,1009,97,2.3,30,-2.3,-2.8,510,195,8.7,5.6
2019,1,23,08:00,UTC,7,1008.9,96,0.3,31,-2.1,-2.6,2310,198,8.4,5.7
2019,1,23,09:00,UTC,7,1008.8,95,0,31,-1.7,-2.3,6250,206,9.4,6.6
2019,1,23,10:00,UTC,7,1008.6,95,0,31,-1.5,-2.2,5060,205,9.3,5.8
2019,1,23,11:00,UTC,7,1008.3,96,0,31,-1.1,-1.7,4170,214,8.6,5.7
2019,1,23,12:00,UTC,7,1008.2,96,0,31,-0.7,-1.3,4510,210,8.1,5.9
2019,1,23,13:00,UTC,7,1008.2,95,0,31,-0.5,-1.1,5570,211,9.2,5.6
2019,1,23,14:00,UTC,7,1008.2,95,0,31,-0.5,-1.2,5400,209,8,5
2019,1,23,15:00,UTC,7,1008.2,97,1.9,31,-0.5,-0.9,1290,198,6.4,4.4
2019,1,23,16:00,UTC,7,1008.1,97,0,31,-0.4,-0.8,5190,244,5.3,3.6
2019,1,23,17:00,UTC,7,1008.5,93,0,31,-1.2,-2.2,11900,298,4.5,2.7
2019,1,23,18:00,UTC,7,1009.5,94,0,31,-1.5,-2.3,11500,271,7.8,4.3
2019,1,23,19:00,UTC,7,1009.6,95,0,31,-2.3,-3,13370,261,5.6,3.4
2019,1,23,20:00,UTC,7,1010.2,95,0,31,-2.6,-3.2,10330,250,4.4,3.2
2019,1,23,21:00,UTC,7,1010.8,96,0,30,-2.5,-3.1,7410,266,4.5,3.2
2019,1,23,22:00,UTC,7,1011.3,96,0,30,-2.5,-3.1,4650,287,4.2,2.8
2019,1,23,23:00,UTC,7,1011.9,95,0,30,-2.8,-3.4,12920,293,4.2,2.9
2019,1,24,00:00,UTC,7,1012.6,96,0,32,-3.4,-3.9,6930,279,3.7,2.8
2019,1,24,01:00,UTC,7,1013.3,90,0,30,-2.6,-4.1,12930,20,5.7,3.9
2019,1,24,02:00,UTC,8,1014.3,88,0,30,-4,-5.8,23760,14,7.4,4.8
2019,1,24,03:00,UTC,8,1015,88,0,30,-5.2,-6.8,40610,22,6.2,3.7
2019,1,24,04:00,UTC,5,1015.8,86,0,30,-6.5,-8.5,50000,31,6.3,4.1
2019,1,24,05:00,UTC,3,1016.6,80,0,30,-7.8,-10.5,50000,35,7,4.8
2019,1,24,06:00,UTC,7,1017.4,77,0,30,-9.1,-12.3,50000,33,6.1,4.1
2019,1,24,07:00,UTC,7,1018.5,80,0,30,-9.7,-12.6,50000,41,5,3.4
2019,1,24,08:00,UTC,0,1019.3,78,0,30,-10.5,-13.6,50000,44,4.4,2.9
2019,1,24,09:00,UTC,0,1019.8,78,0,30,-10.3,-13.4,50000,42,4.8,2.8
2019,1,24,10:00,UTC,3,1020.4,76,0,30,-10.2,-13.6,50000,62,4.3,3.2
2019,1,24,11:00,UTC,1,1020.7,76,0,30,-10,-13.4,50000,63,3.5,2.4
2019,1,24,12:00,UTC,7,1021.1,82,0,30,-10.3,-12.7,3700,55,3.5,2.4
2019,1,24,13:00,UTC,5,1021.2,85,0,30,-10.5,-12.5,8200,48,4.3,3.5
2019,1,24,14:00,UTC,5,1021.3,86,0,30,-10.8,-12.6,46180,50,4.7,3
2019,1,24,15:00,UTC,7,1021.6,87,0,30,-11.1,-12.7,46300,50,4.1,2.5
2019,1,24,16:00,UTC,7,1021.8,88,0,30,-11.3,-12.9,23640,56,4.2,2.5
2019,1,24,17:00,UTC,7,1022.1,89,0,30,-11.3,-12.7,9880,52,4.4,2.8
2019,1,24,18:00,UTC,7,1022,90,0,30,-10.8,-12.1,34970,63,3.8,2.6
2019,1,24,19:00,UTC,8,1022.1,90,0,30,-10.3,-11.6,39430,53,3.2,2.3
2019,1,24,20:00,UTC,8,1022.4,89,0,30,-9.8,-11.2,38880,48,3.2,2.3
2019,1,24,21:00,UTC,8,1022.2,89,0,30,-8.9,-10.5,46110,90,2.9,2
2019,1,24,22:00,UTC,8,1022.1,84,0,30,-6.4,-8.6,50000,132,6.3,3.9
2019,1,24,23:00,UTC,8,1022.3,77,0,30,-4.7,-8,50000,140,6.4,4.1
2019,1,25,00:00,UTC,8,1021.9,79,0,30,-4.6,-7.6,7630,146,6.6,3.9
2019,1,25,01:00,UTC,8,1021.8,88,0,29,-4.5,-6.2,8230,144,5.6,3.5
2019,1,25,02:00,UTC,7,1021.3,91,0,29,-4,-5.2,23750,150,5.5,3.7
2019,1,25,03:00,UTC,8,1021.2,94,0,29,-3.4,-4.3,14500,173,5.9,4
2019,1,25,04:00,UTC,7,1021.2,94,0,29,-3.2,-4,18110,179,5,3.4
2019,1,25,05:00,UTC,8,1021.2,95,0,29,-3.2,-3.9,12430,197,6.1,4
2019,1,25,06:00,UTC,7,1021,95,0,29,-3.2,-3.9,12200,179,7.4,4.2
2019,1,25,07:00,UTC,7,1021.1,93,0,28,-3.2,-4.3,17280,165,4.4,2.5
2019,1,25,08:00,UTC,7,1021.2,92,0,28,-2.9,-4,15530,204,5.1,3.3
2019,1,25,09:00,UTC,7,1021.1,92,0,28,-2.7,-3.8,16520,197,5.8,3.9
2019,1,25,10:00,UTC,7,1020.9,93,0,28,-2.7,-3.7,11830,165,6.6,3.5
2019,1,25,11:00,UTC,7,1020.7,93,0,29,-3.2,-4.3,11960,155,7.2,3.8
2019,1,25,12:00,UTC,7,1020.3,93,0,29,-3.4,-4.3,13540,174,5.7,3.9
2019,1,25,13:00,UTC,8,1019.7,91,0,29,-3.8,-5.1,8400,131,4.9,2.8
2019,1,25,14:00,UTC,8,1019.4,91,0,30,-4.1,-5.3,7390,130,4.2,2.3
2019,1,25,15:00,UTC,8,1019.2,87,0,30,-4.3,-6.1,30530,122,5,3.6
2019,1,25,16:00,UTC,7,1018.5,85,0,30,-5.1,-7.1,25070,110,4.6,3.5
2019,1,25,17:00,UTC,7,1017.9,85,0,30,-5.2,-7.3,23640,112,6.1,4.6
2019,1,25,18:00,UTC,7,1017.2,85,0,30,-5.2,-7.3,22020,117,7.2,5.2
2019,1,25,19:00,UTC,7,1016.5,83,0,29,-5.3,-7.8,26580,113,5.8,4.4
2019,1,25,20:00,UTC,8,1015.8,83,0,29,-5.2,-7.6,23140,117,6.3,4.8
2019,1,25,21:00,UTC,8,1015.1,83,0,29,-5.3,-7.7,23550,97,5.9,3.7
2019,1,25,22:00,UTC,7,1014.3,89,0,29,-6,-7.6,3900,82,6.3,4.5
2019,1,25,23:00,UTC,8,1013.4,89,0.2,30,-6.5,-8,3320,69,7,4.8
2019,1,26,00:00,UTC,8,1012.3,89,0.4,30,-6.4,-7.9,3910,75,7,4.3
2019,1,26,01:00,UTC,8,1011.5,89,0.3,30,-6.5,-7.9,2520,77,7.8,5.2
2019,1,26,02:00,UTC,8,1010.6,90,0.2,30,-6.8,-8.2,2730,76,6.8,4.7
2019,1,26,03:00,UTC,7,1009.7,90,0.4,31,-7.5,-8.9,2080,73,7,4.3
2019,1,26,04:00,UTC,8,1008.7,88,0,31,-7.3,-8.9,3360,77,6.8,4.3
2019,1,26,05:00,UTC,8,1008,88,0,31,-7.2,-8.9,2900,87,6.7,3.9
2019,1,26,06:00,UTC,8,1007.4,90,0.3,31,-7.4,-8.7,3070,59,5.7,3.4
2019,1,26,07:00,UTC,7,1006.9,89,0,30,-7.8,-9.2,4340,49,5.4,3.8
2019,1,26,08:00,UTC,8,1006.6,89,0,32,-8.5,-10.1,3100,31,5.8,3.4
2019,1,26,09:00,UTC,8,1006.2,87,0.3,30,-8.9,-10.7,2470,28,5.6,3.8
2019,1,26,10:00,UTC,9,1005.8,88,0.3,34,-8.9,-10.6,1390,36,5.6,3.2
2019,1,26,11:00,UTC,8,1005.4,87,0,34,-8.4,-10.2,1480,34,5.2,3.4
2019,1,26,12:00,UTC,9,1005.1,87,0.2,36,-8.5,-10.3,1980,29,6.2,4.1
2019,1,26,13:00,UTC,8,1004.9,87,0.3,36,-8.6,-10.3,2190,32,6.3,3.8
2019,1,26,14:00,UTC,8,1004.8,86,0,37,-9.1,-11,3420,32,6.8,4
2019,1,26,15:00,UTC,7,1004.9,86,0,37,-10.1,-12,20120,24,5.1,3.4
2019,1,26,16:00,UTC,7,1004.9,85,0,37,-10.2,-12.2,18360,21,4.8,3.3
2019,1,26,17:00,UTC,9,1004.8,86,0,37,-10.1,-12.1,4560,18,4.5,2.8
2019,1,26,18:00,UTC,8,1004.6,86,0.3,37,-10.1,-12,4930,20,4.5,2.7
2019,1,26,19:00,UTC,8,1004.4,87,0,37,-10.2,-12,4800,13,4.5,2.8
2019,1,26,20:00,UTC,8,1004.3,86,0,37,-10.3,-12.2,7730,16,5.2,2.9
2019,1,26,21:00,UTC,8,1004.4,87,0,37,-10.4,-12.1,12430,355,4.1,2.7
2019,1,26,22:00,UTC,8,1004.6,87,0,37,-10.6,-12.4,4180,11,4,2.4
2019,1,26,23:00,UTC,8,1004.7,86,0,37,-10.8,-12.7,8680,8,4.2,2.2
2019,1,27,00:00,UTC,7,1004.7,88,0,37,-11.5,-13.1,9630,11,3.6,2.1
2019,1,27,01:00,UTC,1,1004.6,88,0,36,-12.6,-14.2,37830,360,3.6,2.6
2019,1,27,02:00,UTC,0,1004.6,89,0,36,-13.1,-14.5,48140,346,3.2,2.5
2019,1,27,03:00,UTC,0,1004.7,88,0,36,-13.5,-15,50000,345,4,3.3
2019,1,27,04:00,UTC,0,1004.9,87,0,36,-14.2,-15.9,50000,342,4.5,3.7
2019,1,27,05:00,UTC,0,1004.9,88,0,36,-14.4,-16,50000,353,4.6,3.7
2019,1,27,06:00,UTC,0,1004.8,85,0,36,-15.1,-17,50000,6,3.9,3
2019,1,27,07:00,UTC,0,1005.1,86,0,36,-15.3,-17.1,50000,351,4.2,3.2
2019,1,27,08:00,UTC,0,1005.2,84,0,36,-15,-17,50000,4,4.9,3.9
2019,1,27,09:00,UTC,0,1005.4,83,0,36,-14.8,-17.1,42760,358,3.5,2.2
2019,1,27,10:00,UTC,0,1005.7,82,0,35,-14.1,-16.4,49600,30,1.6,0.7
2019,1,27,11:00,UTC,0,1005.7,78,0,35,-12.8,-15.9,45740,105,1.5,0.6
2019,1,27,12:00,UTC,0,1005.8,80,0,35,-12.8,-15.6,34430,60,1.5,0.9
2019,1,27,13:00,UTC,0,1005.9,78,0,35,-12.9,-15.9,35520,17,2.8,1.9
2019,1,27,14:00,UTC,0,1006.2,79,0,35,-13.3,-16.1,37150,6,2.8,1.1
2019,1,27,15:00,UTC,0,1006.5,83,0,35,-14.7,-17,25650,40,3.1,2.2
2019,1,27,16:00,UTC,0,1006.8,85,0,35,-14.8,-16.7,25010,36,3.4,2.5
2019,1,27,17:00,UTC,0,1007.1,85,0,35,-15.7,-17.6,41230,47,3.4,2.4
2019,1,27,18:00,UTC,0,1007.4,86,0,35,-16.2,-17.9,46490,57,3.7,2.7
2019,1,27,19:00,UTC,0,1007.8,85,0,35,-16.3,-18.2,50000,48,3.9,2.9
2019,1,27,20:00,UTC,7,1007.9,84,0,35,-15.6,-17.6,14960,46,3.7,2.8
2019,1,27,21:00,UTC,7,1008.1,85,0,35,-15.5,-17.4,34180,44,4.6,2.9
2019,1,27,22:00,UTC,3,1008.1,87,0,35,-15.6,-17.3,1760,43,4.2,3.4
2019,1,27,23:00,UTC,3,1008.4,88,0,35,-15.2,-16.8,1470,51,3.7,2.2
2019,1,28,00:00,UTC,7,1008.3,88,0,35,-14.3,-15.9,10970,58,5.5,4.1
2019,1,28,01:00,UTC,7,1008.2,88,0,34,-14.3,-15.8,19300,55,5.3,4.2
2019,1,28,02:00,UTC,7,1008,89,0,34,-13.3,-14.7,23940,55,4.9,3.5
2019,1,28,03:00,UTC,7,1007.7,90,0,34,-12.2,-13.6,48530,58,6.5,4.7
2019,1,28,04:00,UTC,7,1007.3,89,0,34,-11.6,-13,50000,66,6.7,4.9
2019,1,28,05:00,UTC,7,1006.5,81,0,34,-7.7,-10.3,29630,98,12.2,7.6
2019,1,28,06:00,UTC,7,1006.3,83,0,34,-7,-9.4,19290,96,11.9,8
2019,1,28,07:00,UTC,7,1006.3,82,0,34,-6.5,-9,13100,104,12.8,7.8
2019,1,28,08:00,UTC,7,1006,83,0,34,-6.5,-9,12810,99,14,9
2019,1,28,09:00,UTC,7,1005.3,82,0,33,-6.4,-8.9,10140,96,14.7,9.3
2019,1,28,10:00,UTC,7,1004.9,82,0,33,-5.9,-8.5,9420,92,13.5,8.9
2019,1,28,11:00,UTC,7,1003.8,84,0,33,-6,-8.2,11190,85,15.7,10.8
2019,1,28,12:00,UTC,7,1003.2,84,0,33,-5.6,-7.9,17480,92,15.4,10.5
2019,1,28,13:00,UTC,7,1002.5,87,0.4,33,-5.7,-7.6,1170,94,15.1,9.8
2019,1,28,14:00,UTC,7,1002,91,1.6,34,-5.9,-7.1,870,97,14.8,10
2019,1,28,15:00,UTC,7,1001.8,91,1.9,35,-6,-7.2,830,100,14.2,8.6
2019,1,28,16:00,UTC,7,1001.5,91,1.5,37,-5.9,-7,990,108,12.8,7.5
2019,1,28,17:00,UTC,7,1001.2,91,1.1,38,-5.9,-7.1,1270,112,11.7,7.8
2019,1,28,18:00,UTC,9,1000.8,92,1.2,38,-5.9,-7,1130,111,10.7,6.5
2019,1,28,19:00,UTC,9,1000.6,93,1,39,-5.9,-6.9,820,118,9.8,6.8
2019,1,28,20:00,UTC,7,1000.5,93,0.5,40,-5.7,-6.8,910,122,8.4,5.8
2019,1,28,21:00,UTC,7,1000.4,91,0,41,-5.4,-6.7,8110,116,7.9,5.9
2019,1,28,22:00,UTC,7,1000.3,91,0,42,-5.2,-6.4,1550,126,8.1,5.7
2019,1,28,23:00,UTC,7,1000.2,92,0.5,42,-5.2,-6.3,1590,129,8.5,5.2
2019,1,29,00:00,UTC,7,1000,92,0,47,-5.3,-6.4,3350,120,7.1,5.2
2019,1,29,01:00,UTC,8,999.9,92,0,43,-5.3,-6.4,3690,124,7.6,4.7
2019,1,29,02:00,UTC,8,999.7,89,0,44,-5.1,-6.7,10580,119,6.7,4.5
2019,1,29,03:00,UTC,8,999.8,88,0,43,-5.2,-6.8,5900,122,7,4.8
2019,1,29,04:00,UTC,7,999.7,88,0,43,-5.1,-6.7,16570,124,6.6,4.1
2019,1,29,05:00,UTC,8,999.8,89,0,43,-5.1,-6.6,15260,114,7.4,5.5
2019,1,29,06:00,UTC,8,999.7,89,0,43,-5.1,-6.7,16520,113,8.2,5.3
2019,1,29,07:00,UTC,7,999.8,89,0,43,-5.2,-6.7,16090,108,8.6,5.2
2019,1,29,08:00,UTC,8,1000,89,0,43,-5.1,-6.6,4530,105,7,4.1
2019,1,29,09:00,UTC,8,999.8,91,0.2,44,-5.1,-6.3,5820,93,6.6,4.6
2019,1,29,10:00,UTC,7,999.7,91,0,44,-4.6,-5.9,4350,97,7.1,4.5
2019,1,29,11:00,UTC,8,999.5,92,0.8,44,-4.4,-5.5,1720,96,6.6,4.4
2019,1,29,12:00,UTC,7,999.1,90,0.3,44,-4.5,-5.8,2960,93,8,5.7
2019,1,29,13:00,UTC,7,998.8,92,0.8,44,-4.6,-5.6,2280,82,6.6,4.7
2019,1,29,14:00,UTC,7,998.6,92,0.2,45,-4.6,-5.6,2770,76,7.8,5.2
2019,1,29,15:00,UTC,7,998.4,93,0,45,-4.2,-5.2,3590,79,6.8,4.7
2019,1,29,16:00,UTC,7,998.2,93,1,46,-4.4,-5.3,1770,92,6.2,4.5
2019,1,29,17:00,UTC,7,998,93,0.2,46,-4.7,-5.7,3570,114,4.7,3.5
2019,1,29,18:00,UTC,9,997.8,94,3,47,-4.9,-5.6,880,112,3.9,2.4
2019,1,29,19:00,UTC,8,997.7,93,0.3,46,-4.8,-5.8,5360,133,3.4,1.9
2019,1,29,20:00,UTC,8,997.9,88,0,46,-4.4,-6.1,9980,148,4.2,2.6
2019,1,29,21:00,UTC,8,998.1,90,0.4,47,-4.3,-5.8,5250,166,4.4,2.6
2019,1,29,22:00,UTC,7,998.2,92,0,47,-4.3,-5.4,7310,114,2.8,2
2019,1,29,23:00,UTC,8,998.1,94,0.2,47,-3.9,-4.8,3020,137,4.4,2.6
2019,1,30,00:00,UTC,7,998.3,92,0.4,53,-3.4,-4.5,4220,202,3.9,2.2
2019,1,30,01:00,UTC,8,998.4,90,0.3,47,-3.5,-4.9,5630,202,2.1,1.4
2019,1,30,02:00,UTC,8,998.6,90,0.4,47,-3.3,-4.7,6880,200,2.9,2
2019,1,30,03:00,UTC,8,998.9,89,0,47,-3,-4.6,3290,205,3.9,2.6
2019,1,30,04:00,UTC,9,999.2,95,0.5,47,-3.1,-3.8,1560,217,4.4,3
2019,1,30,05:00,UTC,8,999.5,96,0.2,48,-3,-3.6,1690,190,2.3,1.5
2019,1,30,06:00,UTC,8,1000,96,0.2,49,-2.3,-2.8,3970,199,4.1,2.5
2019,1,30,07:00,UTC,7,1000.6,96,0.5,49,-1.8,-2.4,1930,194,2.6,1.8
2019,1,30,08:00,UTC,8,1001.3,95,0,49,-1.2,-1.9,2830,213,2.2,1.5
2019,1,30,09:00,UTC,8,1002.1,96,0.4,48,-0.9,-1.5,1650,221,3.2,2.2
2019,1,30,10:00,UTC,8,1003,95,0,49,-0.7,-1.4,3420,239,1.6,1.1
2019,1,30,11:00,UTC,8,1003.5,95,0,49,-0.3,-1.1,3570,266,1.4,1
2019,1,30,12:00,UTC,8,1004,96,0,49,0,-0.6,5960,202,4.4,3.1
2019,1,30,13:00,UTC,8,1004.5,97,0,49,0.3,-0.1,9110,208,8.5,6
2019,1,30,14:00,UTC,7,1005.1,95,0.3,48,0.3,-0.4,8670,204,9,6.4
2019,1,30,15:00,UTC,7,1005.6,93,0,48,0.3,-0.8,16570,209,8.5,5.4
2019,1,30,16:00,UTC,7,1006.2,90,0,48,0.2,-1.2,17300,197,5.8,3.7
2019,1,30,17:00,UTC,8,1006.7,86,0,48,0,-2.2,34500,196,6.7,4.5
2019,1,30,18:00,UTC,8,1007.1,85,0,48,-0.2,-2.4,30300,194,9.3,5.6
2019,1,30,19:00,UTC,8,1007.5,86,0,47,-0.2,-2.3,37010,192,7.4,4.5
2019,1,30,20:00,UTC,8,1007.9,90,0,47,-0.5,-2,23210,193,6.7,3.7
2019,1,30,21:00,UTC,7,1008.3,91,0,47,-0.6,-1.9,24560,174,5.1,3.3
2019,1,30,22:00,UTC,8,1008.7,90,0,48,-0.5,-1.9,23340,206,3.8,2.4
2019,1,30,23:00,UTC,8,1008.9,92,0,48,-0.5,-1.7,22260,198,3,1.6
2019,1,31,00:00,UTC,8,1009.3,93,0,54,-0.8,-1.7,10610,111,1.5,1
2019,1,31,01:00,UTC,8,1009.5,96,0,47,-0.7,-1.2,3980,127,2.6,2
2019,1,31,02:00,UTC,7,1009.7,97,0.3,47,-0.6,-0.9,2490,146,2.6,1.7
2019,1,31,03:00,UTC,7,1009.9,98,0,47,-0.4,-0.6,4890,135,3,2
2019,1,31,04:00,UTC,7,1010.4,98,0,47,-0.5,-0.8,7120,226,4.4,2.8
2019,1,31,05:00,UTC,7,1010.8,97,0,47,-0.6,-1,10890,254,3.9,2.7
2019,1,31,06:00,UTC,8,1011.2,95,0,47,-0.6,-1.3,14020,259,3.2,2
2019,1,31,07:00,UTC,8,1011.7,96,0,47,-0.9,-1.5,8360,237,2.6,1.6
2019,1,31,08:00,UTC,8,1012.4,93,0,47,-0.5,-1.5,10810,278,1.6,1
2019,1,31,09:00,UTC,7,1012.8,88,0,46,-0.1,-1.9,16780,300,2.5,1.7
2019,1,31,10:00,UTC,1,1013.2,89,0,46,-0.2,-1.8,12930,60,1.1,0.6
2019,1,31,11:00,UTC,7,1013.6,84,0,46,0.3,-2,14910,102,2.6,1.8
2019,1,31,12:00,UTC,5,1014,82,0,46,0.5,-2.3,16610,249,1,0.5
2019,1,31,13:00,UTC,7,1014.4,90,0,46,-0.4,-1.9,11830,214,2.5,1.6
2019,1,31,14:00,UTC,7,1014.7,94,0,46,-1,-1.9,8740,128,1.2,0.5
2019,1,31,15:00,UTC,5,1014.9,93,0,46,-1.4,-2.4,10160,2,3.5,2
2019,1,31,16:00,UTC,0,1015.2,96,0,46,-3.1,-3.6,6120,12,2.4,1.2
2019,1,31,17:00,UTC,8,1015.6,98,0,46,-2.6,-2.8,1300,12,4.2,2.8
2019,1,31,18:00,UTC,9,1016,98,0,46,-2.7,-3,540,40,3.2,1.9
2019,1,31,19:00,UTC,8,1016,98,0,46,-2,-2.2,2400,34,3.1,2.5
2019,1,31,20:00,UTC,8,1016.3,99,0,46,-1.8,-2,3170,59,3.1,2
2019,1,31,21:00,UTC,7,1016.7,99,0,46,-1.7,-1.9,5210,53,5.2,3.4
2019,1,31,22:00,UTC,8,1016.9,98,0,46,-1.8,-2.1,14730,71,5,3.2
2019,1,31,23:00,UTC,8,1017.2,89,0,46,-1.6,-3.2,50000,75,7.4,5
2019,2,1,00:00,UTC,7,1017.4,91,0,51,-2.3,-3.6,38080,72,7.8,4.8
2019,2,1,01:00,UTC,8,1017.3,90,0,46,-3,-4.3,37330,63,6,4.2
2019,2,1,02:00,UTC,8,1017.5,94,0,46,-4.1,-4.9,21420,74,8.7,5.7
2019,2,1,03:00,UTC,7,1017.6,92,0,46,-4.4,-5.6,38020,74,7.1,4.7
2019,2,1,04:00,UTC,8,1017.5,96,0,46,-5.8,-6.4,4500,68,11.1,6.6
2019,2,1,05:00,UTC,7,1017.4,95,0,46,-5,-5.8,14490,51,7.5,4.8
2019,2,1,06:00,UTC,8,1017.4,91,0,45,-4.6,-5.8,18610,61,7.6,4.7
2019,2,1,07:00,UTC,8,1017.4,91,0,45,-4.5,-5.8,18100,52,7.4,4.6
2019,2,1,08:00,UTC,7,1017.2,89,0,45,-4,-5.5,18150,48,8.3,5.8
2019,2,1,09:00,UTC,7,1017.3,88,0,45,-3.7,-5.3,19460,55,8.1,4.9
2019,2,1,10:00,UTC,7,1017.3,86,0,45,-3.1,-5,22050,64,9.2,5.6
2019,2,1,11:00,UTC,7,1016.9,83,0,45,-2.5,-5.1,29860,67,13.4,8
2019,2,1,12:00,UTC,7,1016.7,81,0,45,-2.5,-5.3,23610,67,14.1,9.2
2019,2,1,13:00,UTC,8,1016.6,81,0,45,-2.7,-5.5,33120,69,13.4,9.4
2019,2,1,14:00,UTC,8,1016.4,83,0,45,-3.1,-5.6,31860,64,11.9,7.7
2019,2,1,15:00,UTC,8,1016.3,86,0,45,-3.4,-5.5,35550,60,13.4,8
2019,2,1,16:00,UTC,8,1016.2,87,0,45,-3.4,-5.2,33750,59,13.2,8.6
2019,2,1,17:00,UTC,8,1015.9,89,0,45,-3.8,-5.3,28860,56,12.1,6.8
2019,2,1,18:00,UTC,8,1015.9,91,0,45,-4.2,-5.4,24210,56,11.2,7.2
2019,2,1,19:00,UTC,8,1016,94,0,45,-4.6,-5.4,6530,58,10.4,6.3
2019,2,1,20:00,UTC,8,1016.1,93,0.7,45,-4.7,-5.7,3670,58,9,5.8
2019,2,1,21:00,UTC,7,1016,93,0.3,45,-4.6,-5.6,5320,60,9.1,5.8
2019,2,1,22:00,UTC,7,1015.8,91,0,45,-4.2,-5.4,4820,67,10.9,7
2019,2,1,23:00,UTC,7,1015.5,89,0.4,44,-4.2,-5.7,21250,68,11.6,7.4
2019,2,2,00:00,UTC,7,1015.3,91,0,45,-4.3,-5.6,25050,64,11.4,7.3
2019,2,2,01:00,UTC,7,1015.1,92,0,45,-3.9,-5,17550,68,10.3,6.8
2019,2,2,02:00,UTC,7,1015.2,93,0,45,-3.6,-4.5,12610,69,11.2,7.3
2019,2,2,03:00,UTC,7,1015,94,0,45,-3.2,-4.1,11100,65,10.8,6.6
2019,2,2,04:00,UTC,7,1014.9,94,0,45,-3,-3.9,9940,67,10.5,6.5
2019,2,2,05:00,UTC,7,1014.8,94,0,45,-2.8,-3.6,9250,68,11.2,7.6
2019,2,2,06:00,UTC,7,1014.8,95,0,45,-3,-3.7,3370,67,11.8,7.8
2019,2,2,07:00,UTC,7,1015.3,94,0,45,-2.8,-3.6,2360,68,13,7.1
2019,2,2,08:00,UTC,7,1015.2,93,0,45,-2.5,-3.5,2550,63,11.6,6.3
2019,2,2,09:00,UTC,7,1015.6,94,0,45,-2.6,-3.5,6450,71,12,7.4
2019,2,2,10:00,UTC,7,1015.6,95,0.4,45,-2.3,-3.1,1500,69,11.7,7.7
2019,2,2,11:00,UTC,7,1015.4,95,0.2,45,-2.2,-3,1370,68,10.9,7.2
2019,2,2,12:00,UTC,7,1014.8,94,0,45,-2.3,-3.2,3330,65,11.3,7.7
2019,2,2,13:00,UTC,7,1014.5,92,0,45,-2.4,-3.5,5740,67,13,8.2
2019,2,2,14:00,UTC,7,1014.8,92,0,45,-2.6,-3.8,12650,70,14,9.2
2019,2,2,15:00,UTC,7,1014.4,92,0,45,-2.7,-3.8,16130,68,14.3,9.4
2019,2,2,16:00,UTC,7,1014.4,93,0,45,-2.7,-3.6,11980,69,14.5,8.7
2019,2,2,17:00,UTC,7,1014,94,0,45,-2.5,-3.4,10220,64,13.5,8.5
2019,2,2,18:00,UTC,7,1013.9,96,0,45,-2.5,-3.1,7000,66,12.6,7
2019,2,2,19:00,UTC,7,1013.5,96,0,44,-2.5,-3,6880,61,12.3,7.9
2019,2,2,20:00,UTC,7,1012.8,95,0,44,-2.5,-3.2,6730,66,14.5,9.8
2019,2,2,21:00,UTC,7,1012.6,95,0,44,-2.6,-3.3,6410,67,17.8,9.4
2019,2,2,22:00,UTC,7,1012,94,0,44,-2.8,-3.6,8540,66,15.2,8.8
2019,2,2,23:00,UTC,7,1011.5,93,0,44,-2.7,-3.7,9240,66,15.9,9.8
2019,2,3,00:00,UTC,7,1011.3,93,0.7,44,-2.8,-3.8,910,69,14.7,9.4
2019,2,3,01:00,UTC,7,1010.2,94,1,45,-3,-3.8,580,66,14,8.4
2019,2,3,02:00,UTC,7,1009.5,94,0.4,46,-3.1,-4,780,67,16.2,9.6
2019,2,3,03:00,UTC,7,1009,92,0.2,47,-3.3,-4.3,800,69,16.4,10.7
2019,2,3,04:00,UTC,8,1007.9,92,0.3,49,-3.1,-4.2,1500,70,16.2,10.9
2019,2,3,05:00,UTC,8,1007.3,94,0.8,50,-2.9,-3.6,920,72,15,9.2
2019,2,3,06:00,UTC,8,1006.7,93,1.1,51,-2.3,-3.2,1850,74,15.5,10.4
2019,2,3,07:00,UTC,8,1006.5,94,2,51,-1.9,-2.8,2210,76,15.8,10
2019,2,3,08:00,UTC,8,1006.5,95,0,51,-1.2,-1.8,3940,79,14.8,8.5
2019,2,3,09:00,UTC,8,1006.2,96,0.9,51,-0.5,-1,2710,83,14.3,8.7
2019,2,3,10:00,UTC,8,1005.7,96,0,51,0,-0.5,6070,86,15.4,9.6
2019,2,3,11:00,UTC,8,1005.6,98,0,51,0.2,-0.1,2630,89,13.1,8.9
2019,2,3,12:00,UTC,8,1005.3,99,0.2,51,0.5,0.3,2550,93,12.4,7.8
2019,2,3,13:00,UTC,8,1004.9,99,0.7,51,1,0.8,2900,108,10,6.7
2019,2,3,14:00,UTC,8,1004.9,99,0.8,51,1.4,1.3,3020,128,9.1,5.9
2019,2,3,15:00,UTC,8,1005.2,99,0.5,50,1.5,1.4,5780,134,9,6
2019,2,3,16:00,UTC,8,1005.7,94,0,50,1.5,0.6,28840,163,9.1,5.6
2019,2,3,17:00,UTC,8,1006.2,95,0.2,50,1.1,0.4,15350,168,10.7,7
2019,2,3,18:00,UTC,7,1006.8,94,0,50,0.9,0.1,35840,195,11.9,6.5
2019,2,3,19:00,UTC,8,1007.8,88,0,49,0.7,-1,49910,201,13.8,7.7
2019,2,3,20:00,UTC,8,1008.4,87,0,49,0.2,-1.7,46130,210,14.4,8.2
2019,2,3,21:00,UTC,8,1009,86,0,49,-0.5,-2.5,49320,219,12.7,7.9
2019,2,3,22:00,UTC,8,1009.8,85,0,49,-0.7,-2.9,50000,217,12.9,9.3
2019,2,3,23:00,UTC,8,1010.8,85,0,49,-0.9,-3.1,50000,213,9.8,5.9
2019,2,4,00:00,UTC,8,1011.1,85,0,49,-1,-3.3,50000,226,9.7,6.2
2019,2,4,01:00,UTC,8,1011.6,85,0,49,-1.2,-3.4,46880,237,6.2,3.7
2019,2,4,02:00,UTC,8,1012.4,84,0,48,-1.5,-3.8,50000,238,6.4,4.1
2019,2,4,03:00,UTC,8,1012.7,81,0,48,-1.9,-4.8,50000,248,9.2,6.1
2019,2,4,04:00,UTC,8,1012.7,82,0,48,-2.1,-4.8,50000,249,9.7,5.2
2019,2,4,05:00,UTC,8,1013.2,78,0,48,-2.6,-5.9,50000,243,9.3,6.2
2019,2,4,06:00,UTC,8,1014,79,0,48,-3,-6.1,39920,259,10.8,5.6
2019,2,4,07:00,UTC,8,1014.4,78,0,48,-3.3,-6.6,30620,247,8,5.6
2019,2,4,08:00,UTC,8,1014.7,79,0,48,-3.7,-6.8,13740,256,8.2,5.7
2019,2,4,09:00,UTC,7,1015.2,80,0,48,-4.1,-7.1,6560,254,7.8,5.4
2019,2,4,10:00,UTC,7,1015.4,76,0,48,-4.1,-7.7,48340,258,6.4,4.1
2019,2,4,11:00,UTC,8,1015.3,75,0,48,-3.9,-7.6,12300,268,5.6,3.8
2019,2,4,12:00,UTC,8,1015.3,78,0,48,-4.1,-7.4,22500,263,8.1,5
2019,2,4,13:00,UTC,8,1015.9,75,0,48,-4.4,-8.1,36820,270,10,6.3
2019,2,4,14:00,UTC,8,1016.5,76,0,47,-4.9,-8.6,50000,280,8.4,5.7
2019,2,4,15:00,UTC,5,1017.3,75,0,47,-5.7,-9.4,50000,270,9.4,5.6
2019,2,4,16:00,UTC,7,1017.5,78,0,47,-5.9,-9.1,48590,263,7.1,4.7
2019,2,4,17:00,UTC,7,1018,81,0,47,-6.3,-9,46930,256,4.9,3.2
2019,2,4,18:00,UTC,7,1018.5,83,0,47,-6.3,-8.8,50000,264,8.9,5.3
2019,2,4,19:00,UTC,8,1019,85,0,47,-6,-8.2,50000,247,8.5,5.4
2019,2,4,20:00,UTC,8,1019.2,86,0,47,-5.5,-7.5,50000,243,9.7,6.6
2019,2,4,21:00,UTC,8,1019.4,87,0,47,-4.8,-6.7,50000,239,5.7,3.5
2019,2,4,22:00,UTC,8,1019.3,88,0,47,-3.9,-5.6,48020,227,5.8,3.5
2019,2,4,23:00,UTC,7,1019.1,88,0,47,-3.2,-4.9,50000,202,4.1,2.7
2019,2,5,00:00,UTC,7,1018.8,88,0,50,-1.5,-3.2,47850,196,6.5,4.2
2019,2,5,01:00,UTC,8,1018.4,92,0,47,-0.8,-1.9,1830,200,10,6.7
2019,2,5,02:00,UTC,8,1018,92,0,47,-0.5,-1.7,8240,193,9.3,6.1
2019,2,5,03:00,UTC,8,1017.3,96,0.3,47,-0.3,-0.9,5040,170,9.8,5.9
2019,2,5,04:00,UTC,8,1016.7,96,0.5,47,-0.1,-0.7,1680,179,13.1,7.1
2019,2,5,05:00,UTC,8,1016.2,98,1.3,48,0,-0.2,1260,195,14.5,8.8
2019,2,5,06:00,UTC,8,1016,99,0.2,49,0.2,0,3500,199,15.4,8.8
2019,2,5,07:00,UTC,7,1015.9,97,0,49,0.4,-0.1,9280,196,14.7,9.3
2019,2,5,08:00,UTC,8,1016.1,93,0.4,49,0.7,-0.3,10910,195,15.9,10.7
2019,2,5,09:00,UTC,7,1016,95,0.5,49,0.6,-0.1,8270,193,13.9,8.9
2019,2,5,10:00,UTC,8,1016,92,0,49,0.7,-0.4,7590,194,14.2,8.5
2019,2,5,11:00,UTC,8,1016.1,95,0.7,49,0.1,-0.6,1160,197,16.5,8.4
2019,2,5,12:00,UTC,8,1015.9,96,0.4,48,-0.3,-0.8,2220,189,11.8,6.3
2019,2,5,13:00,UTC,8,1015.8,94,0.3,49,-0.3,-1.2,4410,192,13.5,7.9
2019,2,5,14:00,UTC,8,1015.4,96,0.5,49,-0.5,-1,930,195,11.5,7.6
2019,2,5,15:00,UTC,8,1015.4,98,0.8,50,-0.7,-1.1,1050,193,14.3,9.4
2019,2,5,16:00,UTC,8,1015.2,96,0.5,50,-0.9,-1.4,1750,197,13.2,7
2019,2,5,17:00,UTC,8,1014.8,98,0.5,51,-1,-1.3,990,189,11.8,6.3
2019,2,5,18:00,UTC,8,1014.5,97,0.2,52,-1,-1.4,2470,198,12.7,8.5
2019,2,5,19:00,UTC,7,1014.1,97,0.3,53,-0.9,-1.4,1780,198,12.7,7.5
2019,2,5,20:00,UTC,7,1013.7,97,0.3,53,-0.7,-1,3520,199,10.7,6.6
2019,2,5,21:00,UTC,7,1013.6,96,0,53,-0.7,-1.2,6190,200,11.8,7.1
2019,2,5,22:00,UTC,7,1013.5,96,0.3,53,-0.8,-1.3,6630,192,11.6,6.6
2019,2,5,23:00,UTC,8,1013.2,96,0,53,-1,-1.6,4490,198,9.9,6.6
2019,2,6,00:00,UTC,8,1012.9,95,0.3,60,-1,-1.7,2240,189,7.6,4.4
2019,2,6,01:00,UTC,7,1012.6,96,0.3,54,-1.3,-1.8,3700,194,8.1,5.4
2019,2,6,02:00,UTC,8,1012.3,96,0.5,53,-1.4,-1.9,1490,197,7.4,4.2
2019,2,6,03:00,UTC,8,1012,97,0.5,55,-1.4,-1.7,2050,203,4.8,2.8
2019,2,6,04:00,UTC,9,1011.9,97,0.4,56,-1.5,-1.9,1690,218,4.4,2.8
2019,2,6,05:00,UTC,8,1011.9,98,0.2,56,-1.5,-1.8,2730,223,3.7,2.6
2019,2,6,06:00,UTC,8,1012.5,97,0.8,56,-1.3,-1.7,1550,259,3.9,2.7
2019,2,6,07:00,UTC,7,1013.5,92,0,56,-3,-4.1,6620,323,7,4.4
2019,2,6,08:00,UTC,3,1014.8,89,0,55,-5.7,-7.3,26960,311,8.1,4.5
2019,2,6,09:00,UTC,0,1015.7,84,0,56,-6.7,-8.9,20380,316,8.1,4.7
2019,2,6,10:00,UTC,0,1016.5,86,0,56,-7.2,-9.2,33760,308,8.7,4.6
2019,2,6,11:00,UTC,0,1017,82,0,56,-6.5,-9,38930,318,8.1,4.2
2019,2,6,12:00,UTC,0,1017.8,81,0,57,-6.1,-8.9,50000,302,5,3
2019,2,6,13:00,UTC,0,1018.4,79,0,57,-6,-9.1,47400,300,6.6,4.5
2019,2,6,14:00,UTC,0,1018.9,81,0,57,-6.5,-9.2,50000,277,3,2
2019,2,6,15:00,UTC,0,1019.4,84,0,56,-8,-10.2,50000,287,5.3,3.5
2019,2,6,16:00,UTC,3,1019.6,93,0,56,-7.9,-8.9,26310,298,6.1,2.8
2019,2,6,17:00,UTC,8,1019.4,95,0,56,-7.1,-7.7,7210,255,3,1.7
2019,2,6,18:00,UTC,8,1019.5,96,0,56,-6.2,-6.8,5900,219,4.3,2.8
2019,2,6,19:00,UTC,8,1019.3,96,0,56,-6.4,-7,7050,216,6.5,4.1
2019,2,6,20:00,UTC,7,1019.2,96,0,56,-5.4,-5.8,15260,210,3.5,2.5
2019,2,6,21:00,UTC,8,1018.5,95,0,56,-3.3,-3.9,46070,204,5.1,3.1
2019,2,6,22:00,UTC,7,1018.2,92,0,56,-2.7,-3.8,50000,219,5.6,3.4
2019,2,6,23:00,UTC,7,1017.8,94,0,56,-2.2,-3.1,1800,207,7.2,4.6
2019,2,7,00:00,UTC,7,1017,93,0,61,-2.3,-3.3,9200,197,8.9,5.7
2019,2,7,01:00,UTC,7,1016.3,91,0,55,-2.9,-4.2,50000,161,8.2,5
2019,2,7,02:00,UTC,7,1015.4,92,0,55,-2.5,-3.6,49300,163,9.7,5.3
2019,2,7,03:00,UTC,7,1014.1,91,0,55,-2.3,-3.6,48120,159,9.3,6.3
2019,2,7,04:00,UTC,7,1012.8,95,0.5,55,-2,-2.8,1360,169,11.5,5.6
2019,2,7,05:00,UTC,7,1011.3,96,1.6,58,-2,-2.5,1270,163,10.2,5.1
2019,2,7,06:00,UTC,7,1010,97,1,59,-1.4,-1.9,1300,169,12.8,8.1
2019,2,7,07:00,UTC,7,1009.2,97,0,59,-1.1,-1.6,5510,173,12.9,8
2019,2,7,08:00,UTC,7,1008.9,96,0.8,58,-0.8,-1.4,1110,192,14,8
2019,2,7,09:00,UTC,7,1008.7,97,0.5,59,-0.5,-0.9,1640,195,12.7,7.9
2019,2,7,10:00,UTC,7,1008.1,98,0,59,0.1,-0.2,8490,209,10.2,6.9
2019,2,7,11:00,UTC,7,1007.9,98,0,59,0.6,0.4,5120,220,9.4,6.3
2019,2,7,12:00,UTC,7,1008.2,99,1.1,59,1,0.9,4570,224,8.8,5.6
2019,2,7,13:00,UTC,7,1008.3,96,0,58,1.3,0.7,11280,235,7.9,4.9
2019,2,7,14:00,UTC,7,1008.9,95,0,58,1.3,0.6,12940,226,6.4,3.9
2019,2,7,15:00,UTC,7,1009.4,94,0,58,1.2,0.3,32660,220,6.5,4.6
2019,2,7,16:00,UTC,7,1009.8,93,0,57,1.2,0.2,37100,234,6,3.7
2019,2,7,17:00,UTC,7,1009.9,91,0,57,1.2,-0.1,49710,229,7.1,4.5
2019,2,7,18:00,UTC,7,1009.9,94,0,57,0.9,0.1,36180,229,4.1,2.5
2019,2,7,19:00,UTC,7,1010,92,0,57,1.2,0,50000,216,5.7,3.7
2019,2,7,20:00,UTC,7,1010.4,95,0,57,1,0.3,16210,193,7.6,4.1
2019,2,7,21:00,UTC,7,1010.5,96,0,56,1.2,0.7,9700,195,8,5.3
2019,2,7,22:00,UTC,7,1010.4,97,0,56,1.2,0.8,9980,181,6.6,4.1
2019,2,7,23:00,UTC,7,1009.8,97,0,56,1,0.5,8320,155,7.2,3.8
2019,2,8,00:00,UTC,7,1009.3,97,0,56,0.9,0.5,7180,144,7.2,4.5
2019,2,8,01:00,UTC,7,1008.4,97,0,56,0.8,0.4,4960,131,8.8,5.8
2019,2,8,02:00,UTC,7,1007.6,97,0,56,0.7,0.3,5930,124,8.5,6
2019,2,8,03:00,UTC,8,1006.2,97,0,56,0.8,0.5,4750,119,9.4,6.8
2019,2,8,04:00,UTC,7,1005.9,98,0,55,0.8,0.4,2850,135,7.7,5.6
2019,2,8,05:00,UTC,7,1004.9,96,0,55,0.8,0.3,5350,131,7.1,4.2
2019,2,8,06:00,UTC,7,1004.5,91,0,55,0.8,-0.5,8310,155,8,4.7
2019,2,8,07:00,UTC,7,1004.2,90,0,55,0.7,-0.7,8940,157,9.8,4.8
2019,2,8,08:00,UTC,8,1004,89,0,55,0.9,-0.8,5910,164,9.4,6.5
2019,2,8,09:00,UTC,7,1003.7,95,0,55,0.5,-0.2,6500,171,8.8,5.5
2019,2,8,10:00,UTC,7,1003.6,92,0,55,1,-0.3,8030,177,9,5.2
2019,2,8,11:00,UTC,7,1002.8,92,0,54,1,-0.1,7450,166,11.3,5.9
2019,2,8,12:00,UTC,7,1002.1,95,0,54,1.2,0.4,4490,170,12.5,7.6
2019,2,8,13:00,UTC,7,1001.5,95,0,54,1.4,0.6,4320,174,13.5,8.3
2019,2,8,14:00,UTC,7,1001.2,94,0,53,1.6,0.7,5440,175,12.7,8
2019,2,8,15:00,UTC,8,1001,97,0,53,1.5,1,3790,170,15,8.4
2019,2,8,16:00,UTC,8,1000.8,96,0.8,53,2,1.4,5640,189,12.6,7.4
2019,2,8,17:00,UTC,8,1000.9,97,0.5,52,1.8,1.4,5480,202,13.7,8.7
2019,2,8,18:00,UTC,8,1000.8,96,0.3,52,1.9,1.4,7460,207,13.8,9.1
2019,2,8,19:00,UTC,8,1001,96,0,52,1.7,1.2,9180,206,12.9,8.2
2019,2,8,20:00,UTC,8,1001.1,95,0.3,51,1.8,1.1,11330,207,12.6,8.3
2019,2,8,21:00,UTC,7,1001.5,91,0,51,2,0.7,40290,216,11.3,7.8
2019,2,8,22:00,UTC,8,1002.1,87,0,50,2,0.1,45420,233,11.9,7.7
2019,2,8,23:00,UTC,8,1002.8,88,0,50,1.8,0,50000,222,9,5.1
2019,2,9,00:00,UTC,8,1003.3,92,0,49,2.1,1,34660,215,10.8,7.5
2019,2,9,01:00,UTC,8,1003.5,92,0,50,2,0.8,28700,213,10,6.7
2019,2,9,02:00,UTC,8,1003.5,93,0,49,2.2,1.2,19530,217,10.3,7.1
2019,2,9,03:00,UTC,8,1003.7,94,0,48,1.7,0.8,13010,208,13.4,7.7
2019,2,9,04:00,UTC,8,1003.5,96,0,48,1.6,1,6090,210,12.2,8.2
2019,2,9,05:00,UTC,8,1003,97,0,48,1.4,1.1,5510,203,6.9,4.5
2019,2,9,06:00,UTC,8,1002.9,94,0,47,2.1,1.2,9110,200,11.2,7.1
2019,2,9,07:00,UTC,8,1002.8,94,0,47,1.9,1,7600,182,12.8,7.1
2019,2,9,08:00,UTC,7,1002.7,95,0,46,1.7,0.9,5750,174,12.7,7.6
2019,2,9,09:00,UTC,8,1002.2,95,0,46,1.5,0.8,4710,171,12.1,7.1
2019,2,9,10:00,UTC,8,1002,94,0,46,1.7,0.8,7740,174,7.9,4.3
2019,2,9,11:00,UTC,8,1001.4,95,0.8,45,1.5,0.8,4800,179,10.6,5.8
2019,2,9,12:00,UTC,7,1000.8,96,0.2,45,1.4,0.8,4330,184,10.4,5.7
2019,2,9,13:00,UTC,8,1000.2,96,1.3,45,1.3,0.7,3890,174,11.1,6.2
2019,2,9,14:00,UTC,7,999.8,95,0,45,1.7,0.9,6770,172,10,6.1
2019,2,9,15:00,UTC,7,999.5,94,1.1,44,1.5,0.6,5060,170,13.3,7.8
2019,2,9,16:00,UTC,7,998.8,95,0,44,1.5,0.9,6990,169,10.8,6.3
2019,2,9,17:00,UTC,7,998.5,94,0,44,1.8,1,10360,168,10.3,6.2
2019,2,9,18:00,UTC,8,997.9,92,0,44,2,0.8,12390,169,11.1,6.9
2019,2,9,19:00,UTC,8,997.4,88,0,43,2.3,0.6,13710,173,10.9,6.5
2019,2,9,20:00,UTC,8,997,90,0.3,43,1.8,0.4,8390,175,10.9,7
2019,2,9,21:00,UTC,7,996.4,89,0,43,1.9,0.2,10370,169,10.9,6.9
2019,2,9,22:00,UTC,8,995.8,92,1.6,43,1.4,0.2,4480,169,11.7,7
2019,2,9,23:00,UTC,8,995.4,93,0.5,43,1.4,0.4,4750,169,12.4,6.9
2019,2,10,00:00,UTC,8,995.1,97,0.8,43,0.4,0,1450,172,12.3,6.6
2019,2,10,01:00,UTC,8,994.6,98,0.6,43,0.3,0.1,2500,177,9.8,5.7
2019,2,10,02:00,UTC,8,994.3,98,1.4,43,1.3,1,6740,195,12.9,7.8
2019,2,10,03:00,UTC,8,993.7,98,0,43,1.4,1.1,6390,170,11.9,7.9
2019,2,10,04:00,UTC,8,993.2,97,0.3,43,1.6,1.2,3020,159,12.4,7.6
2019,2,10,05:00,UTC,8,992.5,98,0.6,42,1.6,1.2,5390,158,12.6,7.8
2019,2,10,06:00,UTC,8,992.4,96,0.8,43,1.5,0.9,7670,168,14.7,9.4
2019,2,10,07:00,UTC,8,992.2,97,0,43,1.5,1,9790,166,14.4,8.6
2019,2,10,08:00,UTC,8,992.2,97,0.9,42,1.9,1.5,4780,175,13.2,8.3
2019,2,10,09:00,UTC,8,992.2,98,0.3,42,2.3,2,2760,174,12.9,7.9
2019,2,10,10:00,UTC,8,992.3,97,0.3,41,2.5,2.1,3470,181,16.3,8.2
2019,2,10,11:00,UTC,8,992.3,98,0.3,41,2.5,2.2,3790,194,15.8,9.8
2019,2,10,12:00,UTC,8,992.7,96,0,40,2.4,1.8,9900,207,13.6,8
2019,2,10,13:00,UTC,8,993.3,94,0,40,2.3,1.4,10580,207,14.9,9
2019,2,10,14:00,UTC,8,993.7,91,0,39,2.5,1.2,11360,209,14.2,8.4
2019,2,10,15:00,UTC,8,994.4,91,0,40,2.3,0.9,12330,209,12.9,7.8
2019,2,10,16:00,UTC,8,994.8,90,0,39,2.5,1,12560,201,12.3,7
2019,2,10,17:00,UTC,7,994.9,91,0,39,2.2,1,12100,200,14,8.3
2019,2,10,18:00,UTC,8,995.1,88,0,39,2.2,0.5,14020,194,12.2,7.6
2019,2,10,19:00,UTC,8,995.4,88,0,39,2.3,0.5,15830,201,11.4,6.7
2019,2,10,20:00,UTC,8,995.6,88,0,39,2.6,0.8,16220,190,11.9,7.2
2019,2,10,21:00,UTC,8,995.8,93,0,39,2.1,1.1,12150,184,10.4,5.8
2019,2,10,22:00,UTC,8,995.8,93,0,38,2,1,14680,176,11.1,5.9
2019,2,10,23:00,UTC,7,996.1,95,0,38,1.9,1.2,12180,173,8.2,4.5
2019,2,11,00:00,UTC,7,996,94,0,38,1.9,1.1,14610,168,10.4,6
2019,2,11,01:00,UTC,8,995.7,96,0,38,1.7,1.1,13380,144,6.3,4.1
2019,2,11,02:00,UTC,8,995.5,95,0,38,1.6,0.9,15080,149,8.2,4.8
2019,2,11,03:00,UTC,8,995.1,94,0,38,1.6,0.7,14020,136,6.4,4.3
2019,2,11,04:00,UTC,7,994.6,96,0,38,1.5,0.9,7710,131,6.6,4.4
2019,2,11,05:00,UTC,7,994.2,97,0.8,37,1.4,1,3820,115,7.1,4.2
2019,2,11,06:00,UTC,7,994,98,0.6,37,1.5,1.2,6000,112,6.8,4.8
2019,2,11,07:00,UTC,8,993.9,97,0.8,37,0.7,0.4,2390,86,5.6,3.7
2019,2,11,08:00,UTC,8,993.5,98,0.8,37,0.5,0.2,2160,75,4.1,3
2019,2,11,09:00,UTC,8,993.6,98,0,38,0.6,0.4,5030,105,4,2.4
2019,2,11,10:00,UTC,8,993.1,98,0,37,0.9,0.6,5980,91,3.7,2.2
2019,2,11,11:00,UTC,8,993.4,97,0,37,1.1,0.7,9130,144,3.5,2.1
2019,2,11,12:00,UTC,8,993.4,97,0.3,37,1.2,0.8,4960,174,4.5,2.6
2019,2,11,13:00,UTC,7,993.3,98,0,37,1.2,0.9,4390,137,3.3,2
2019,2,11,14:00,UTC,8,993.4,98,0,37,1.1,0.8,6610,193,2.7,1.4
2019,2,11,15:00,UTC,8,993.7,98,0,37,1.1,0.8,4200,201,1.7,0.9
2019,2,11,16:00,UTC,9,994,99,0,37,0.8,0.7,1330,240,1.2,0.9
2019,2,11,17:00,UTC,8,994,99,0.2,37,0.8,0.7,2760,348,2.2,1.5
2019,2,11,18:00,UTC,8,994.1,99,0.8,36,0.5,0.3,1790,339,3.1,2.5
2019,2,11,19:00,UTC,8,994.3,99,0.3,37,0.3,0.2,2060,327,3.5,1.9
2019,2,11,20:00,UTC,7,994.6,98,0.2,36,0.5,0.2,2720,331,4.9,2.7
2019,2,11,21:00,UTC,7,995,98,0.5,37,0.5,0.2,3480,336,5.3,3.2
2019,2,11,22:00,UTC,7,995.3,97,0.3,37,0.6,0.2,5600,329,5.6,3.1
2019,2,11,23:00,UTC,7,996,97,0.5,37,0.5,0.1,2590,330,6.5,3.5
2019,2,12,00:00,UTC,7,996.3,98,0.6,37,0.5,0.2,2350,324,7.8,4.3
2019,2,12,01:00,UTC,7,996.8,97,0.5,36,0.5,0.1,3000,322,7.6,5.2
2019,2,12,02:00,UTC,7,997.5,95,0.5,37,0.2,-0.5,2370,320,10.8,5.8
2019,2,12,03:00,UTC,7,998.6,88,0,37,-0.4,-2.2,47970,327,10.1,6.3
2019,2,12,04:00,UTC,7,999.7,88,0,37,-0.9,-2.6,50000,321,10.8,6.1
2019,2,12,05:00,UTC,7,1000.7,86,0,37,-1.1,-3.2,50000,322,9.9,5.5
2019,2,12,06:00,UTC,7,1001.8,86,0,37,-1.3,-3.4,50000,313,9.6,5.4
2019,2,12,07:00,UTC,7,1003,84,0,37,-1.8,-4.1,50000,305,10.2,6
2019,2,12,08:00,UTC,1,1003.8,83,0,37,-2.5,-5,50000,308,9.1,5.9
2019,2,12,09:00,UTC,0,1004.5,77,0,37,-1.9,-5.4,42370,302,9.9,5.6
2019,2,12,10:00,UTC,0,1004.9,74,0,37,-1.7,-5.7,46480,301,9.8,6
2019,2,12,11:00,UTC,0,1005.3,68,0,37,-0.9,-6,40970,302,9.2,5.1
2019,2,12,12:00,UTC,0,1006.2,70,0,37,-0.4,-5.1,41200,285,9.5,5.6
2019,2,12,13:00,UTC,0,1007,71,0,37,-0.2,-4.9,40370,295,10.6,5.8
2019,2,12,14:00,UTC,0,1007.8,73,0,37,-0.6,-4.8,48920,293,8.5,5.5
2019,2,12,15:00,UTC,0,1008.5,79,0,37,-1.5,-4.7,50000,278,6.4,4.3
2019,2,12,16:00,UTC,0,1009.4,81,0,37,-1.7,-4.5,50000,281,7.5,4.5
2019,2,12,17:00,UTC,0,1010.1,86,0,37,-2.3,-4.4,50000,285,7.7,4.2
2019,2,12,18:00,UTC,0,1010.7,85,0,37,-2.8,-5,50000,281,6.9,4.3
2019,2,12,19:00,UTC,0,1011.2,87,0,37,-3.1,-4.9,50000,281,6.8,4.6
2019,2,12,20:00,UTC,0,1011.8,86,0,37,-3.6,-5.5,50000,283,6.8,4.1
2019,2,12,21:00,UTC,0,1012.2,87,0,37,-4.1,-6,47930,278,6,3.9
2019,2,12,22:00,UTC,0,1012.5,89,0,37,-4.4,-5.9,46720,266,6.2,4.3
2019,2,12,23:00,UTC,0,1012.5,90,0,37,-4.5,-5.9,45470,251,6.4,4.4
2019,2,13,00:00,UTC,0,1012.1,90,0,37,-4.6,-6,39300,249,5.4,3.5
2019,2,13,01:00,UTC,0,1011.4,92,0,36,-4.7,-5.7,36310,222,5,4
2019,2,13,02:00,UTC,1,1010.8,94,0,36,-4.9,-5.7,36170,226,5.8,4.2
2019,2,13,03:00,UTC,1,1009.7,95,0,36,-4.1,-4.8,36760,203,3.9,3
2019,2,13,04:00,UTC,0,1008.6,94,0,36,-1.7,-2.5,50000,191,6.7,4.6
2019,2,13,05:00,UTC,7,1007.8,92,0,36,-0.9,-2.1,44290,193,8.8,4.8
2019,2,13,06:00,UTC,7,1007,90,0,36,-0.4,-1.8,45990,190,9.8,5.5
2019,2,13,07:00,UTC,8,1006.8,96,1.1,37,-0.6,-1.2,1660,181,7.6,4.3
2019,2,13,08:00,UTC,8,1006.4,96,0.9,37,-0.2,-0.7,1260,169,8.6,5.3
2019,2,13,09:00,UTC,8,1006.3,96,0.5,38,0,-0.5,3460,157,8.4,5.3
2019,2,13,10:00,UTC,8,1006.3,95,0,38,0.1,-0.5,6940,159,7.7,4.2
2019,2,13,11:00,UTC,8,1006.6,95,0.5,38,0.2,-0.5,2200,175,9.2,5.4
2019,2,13,12:00,UTC,7,1007.3,94,0,38,0.5,-0.4,16460,204,7.3,4.8
2019,2,13,13:00,UTC,8,1007.3,96,0,39,0.5,0,8010,188,6.4,3.9
2019,2,13,14:00,UTC,8,1007.9,96,0,39,0.5,-0.1,11720,216,5.6,4.2
2019,2,13,15:00,UTC,8,1008.9,96,0,39,0.4,-0.1,21070,248,6.3,4.1
2019,2,13,16:00,UTC,8,1008.9,97,0,39,0.5,0.1,11940,224,3.7,2.4
2019,2,13,17:00,UTC,8,1009.5,96,0,39,0.6,0,36540,243,6.7,4.6
2019,2,13,18:00,UTC,8,1009.9,94,0,39,0.8,-0.1,42800,242,7,4.6
2019,2,13,19:00,UTC,7,1010.3,94,0,39,0.7,-0.1,31680,237,7.2,5.1
2019,2,13,20:00,UTC,1,1010.5,95,0,39,0.7,-0.1,25890,246,8,5.3
2019,2,13,21:00,UTC,7,1010.3,91,0,39,1.3,-0.1,44480,244,6.8,5
2019,2,13,22:00,UTC,7,1010.4,90,0,39,1.8,0.3,48150,247,7.3,5.3
2019,2,13,23:00,UTC,8,1010.8,90,0,39,2,0.5,50000,247,6.7,5.1
2019,2,14,00:00,UTC,8,1011.4,93,0,38,2.4,1.3,15190,281,8.9,5.3
2019,2,14,01:00,UTC,7,1012,90,0,38,2.5,1,50000,296,8.5,5.2
2019,2,14,02:00,UTC,7,1013.3,91,0,38,2.3,1,25300,295,9.4,6.1
2019,2,14,03:00,UTC,8,1014.6,88,0,38,2.4,0.6,46800,299,10.8,6.3
2019,2,14,04:00,UTC,8,1015.8,88,0,38,2,0.2,50000,290,8.1,4.3
2019,2,14,05:00,UTC,7,1016.9,87,0,38,1.5,-0.4,50000,290,6.2,3.7
2019,2,14,06:00,UTC,0,1017.8,89,0,38,0.3,-1.4,50000,286,5.6,3.6
2019,2,14,07:00,UTC,0,1019.3,87,0,38,0.3,-1.5,50000,281,6.1,3.7
2019,2,14,08:00,UTC,0,1019.9,83,0,38,0.6,-2.1,50000,272,5.8,3.8
2019,2,14,09:00,UTC,0,1020.4,77,0,38,1.2,-2.5,50000,259,6.8,4.3
2019,2,14,10:00,UTC,0,1020.6,73,0,38,1.7,-2.6,49370,240,6.1,4.6
2019,2,14,11:00,UTC,1,1020.3,70,0,38,2.6,-2.4,48960,226,4.2,2.8
2019,2,14,12:00,UTC,0,1019.5,75,0,38,2.3,-1.7,50000,200,6.8,4
2019,2,14,13:00,UTC,0,1018.1,79,0,38,2.8,-0.6,17260,212,9.5,6.1
2019,2,14,14:00,UTC,0,1016.9,85,0,38,2.2,-0.1,21600,209,11.8,6.9
2019,2,14,15:00,UTC,3,1016.3,86,0,38,2,0,18080,215,12.5,7.9
2019,2,14,16:00,UTC,8,1015.1,96,0,38,1,0.3,10040,213,14,9.7
2019,2,14,17:00,UTC,8,1014.5,98,0,38,1.1,0.8,6850,228,12.6,7.7
2019,2,14,18:00,UTC,8,1014.7,99,0,37,1.6,1.4,2880,240,9.1,5.7
2019,2,14,19:00,UTC,8,1013.9,99,0,37,2.7,2.5,12380,241,10.1,6.9
2019,2,14,20:00,UTC,8,1014.2,92,0,37,3.3,2.2,27970,261,10.9,5.8
2019,2,14,21:00,UTC,7,1013.9,91,0,37,3.3,1.9,44590,249,9.5,6.7
2019,2,14,22:00,UTC,5,1013.8,91,0,37,3,1.7,46890,244,9.8,7.5
2019,2,14,23:00,UTC,5,1013.6,90,0,37,3.1,1.7,50000,247,8.2,6.2
2019,2,15,00:00,UTC,1,1013.7,86,0,37,3.7,1.5,50000,253,10.6,7.1
2019,2,15,01:00,UTC,1,1014.2,86,0,37,3.4,1.2,50000,258,9.1,6
2019,2,15,02:00,UTC,3,1013.9,81,0,36,3.6,0.7,50000,264,8.2,5
2019,2,15,03:00,UTC,0,1014,70,0,36,4.4,-0.5,41240,255,6.6,5
2019,2,15,04:00,UTC,1,1014.4,80,0,36,3.4,0.2,50000,249,8.8,6.6
2019,2,15,05:00,UTC,1,1014.7,79,0,36,3.3,0.1,43650,258,8.8,6
2019,2,15,06:00,UTC,5,1015.3,75,0,36,3.9,-0.1,47960,266,10.1,6.2
2019,2,15,07:00,UTC,0,1015.5,66,0,36,5.2,-0.7,48390,262,11.4,7.4
2019,2,15,08:00,UTC,1,1015.7,66,0,36,5,-0.8,50000,261,9.7,6.5
2019,2,15,09:00,UTC,0,1015.7,63,0,36,5.7,-0.8,48900,256,14.1,7.7
2019,2,15,10:00,UTC,0,1015.8,60,0,36,6.4,-0.9,42360,263,11,7.4
2019,2,15,11:00,UTC,0,1015.3,58,0,36,6.9,-0.7,42840,256,11.1,7.2
2019,2,15,12:00,UTC,0,1014.8,56,0,36,7.1,-1.1,50000,249,11.9,7.6
2019,2,15,13:00,UTC,0,1014.2,61,0,36,6.2,-0.8,50000,250,10.5,7
2019,2,15,14:00,UTC,0,1014.5,68,0,35,6,0.5,50000,261,10.7,6.7
2019,2,15,15:00,UTC,0,1014.4,74,0,35,5,0.7,50000,256,6.6,4.3
2019,2,15,16:00,UTC,0,1014.6,79,0,35,4.6,1.3,50000,241,9.9,6.3
2019,2,15,17:00,UTC,0,1015.2,85,0,35,3.4,1.1,50000,250,7.9,5.2
2019,2,15,18:00,UTC,0,1015.4,86,0,35,3.2,1.2,47580,243,6.9,4.9
2019,2,15,19:00,UTC,0,1015.9,87,0,35,3.4,1.4,50000,244,8.1,5.6
2019,2,15,20:00,UTC,0,1016.1,89,0,35,2.5,0.9,49080,240,5.6,3.8
2019,2,15,21:00,UTC,1,1016,94,0,35,1.6,0.7,43260,229,6.2,3.7
2019,2,15,22:00,UTC,0,1015.8,95,0,35,1.1,0.4,30410,217,4.3,2.9
2019,2,15,23:00,UTC,0,1015,97,0,35,0.8,0.3,18490,201,3.5,2.3
2019,2,16,00:00,UTC,9,1014.2,98,0,35,0.7,0.5,830,210,5,3
2019,2,16,01:00,UTC,9,1013.4,99,0,35,1,0.9,290,212,6.3,4
2019,2,16,02:00,UTC,9,1012.5,100,0,35,1.2,1.1,370,208,8.6,4.2
2019,2,16,03:00,UTC,9,1011.7,100,0,35,0.9,0.9,850,226,8.9,5
2019,2,16,04:00,UTC,7,1010.7,100,0,35,1.1,1,7830,217,6.5,4.3
2019,2,16,05:00,UTC,5,1009.8,100,0,35,0.8,0.8,9780,207,7,4
2019,2,16,06:00,UTC,0,1009.1,99,0,35,0.4,0.3,15350,217,6.9,4.6
2019,2,16,07:00,UTC,0,1008.3,94,0,35,1.2,0.2,30260,224,8.5,5.7
2019,2,16,08:00,UTC,0,1007.5,82,0,35,2.8,0.1,32250,223,9.8,6.2
2019,2,16,09:00,UTC,0,1006.7,73,0,35,4.2,-0.2,32270,233,8.9,5.4
2019,2,16,10:00,UTC,0,1005.9,65,0,35,5.4,-0.7,35030,230,7.4,4.8
2019,2,16,11:00,UTC,0,1005.2,60,0,35,5.9,-1.3,46010,239,11.7,6.7
2019,2,16,12:00,UTC,0,1004.6,58,0,35,6.1,-1.4,39420,242,9.8,7
2019,2,16,13:00,UTC,0,1003.8,55,0,34,6.4,-1.9,44610,242,12.4,8.7
2019,2,16,14:00,UTC,0,1003.2,59,0,34,5.7,-1.7,46940,237,11.1,6.6
2019,2,16,15:00,UTC,0,1002.8,69,0,34,4.1,-1.1,48290,224,7.4,5.1
2019,2,16,16:00,UTC,7,1002.5,81,0,34,2.3,-0.6,33940,225,7.3,5.1
2019,2,16,17:00,UTC,7,1002.1,78,0,34,3,-0.5,34580,244,7,4.8
2019,2,16,18:00,UTC,1,1002.4,81,0,34,2.6,-0.4,25600,244,9.2,6.4
2019,2,16,19:00,UTC,0,1003,82,0,34,2.2,-0.5,28080,259,8.8,5.9
2019,2,16,20:00,UTC,7,1002.6,81,0,34,2.4,-0.6,27400,263,7.2,4.9
2019,2,16,21:00,UTC,1,1003.4,80,0,34,2.1,-1,34240,254,7.5,5
2019,2,16,22:00,UTC,0,1004,76,0,34,1.9,-1.9,50000,282,9,5.5
2019,2,16,23:00,UTC,0,1004.6,78,0,34,1.6,-1.9,50000,270,8.4,4.6
2019,2,17,00:00,UTC,0,1004.9,71,0,34,1.5,-3.3,50000,274,11.2,6.8
2019,2,17,01:00,UTC,0,1005.1,64,0,34,1.9,-4.1,50000,273,14,7.5
2019,2,17,02:00,UTC,0,1005.7,66,0,34,1.3,-4.2,50000,267,11.9,7.2
2019,2,17,03:00,UTC,0,1006,68,0,34,0.9,-4.3,49120,263,11.4,7
2019,2,17,04:00,UTC,0,1006.5,69,0,34,0.8,-4.3,50000,272,13.2,6.5
2019,2,17,05:00,UTC,0,1007.3,71,0,34,0.2,-4.5,50000,280,9.4,5.7
2019,2,17,06:00,UTC,0,1008.4,71,0,34,0.1,-4.5,50000,275,8.5,5.5
2019,2,17,07:00,UTC,0,1009.6,69,0,34,0.3,-4.6,50000,273,9.4,5.8
2019,2,17,08:00,UTC,0,1010.6,65,0,34,1.3,-4.5,48700,283,9.1,5.8
2019,2,17,09:00,UTC,0,1011.6,61,0,34,2.3,-4.5,45750,290,10.6,6.2
2019,2,17,10:00,UTC,0,1012.4,59,0,34,3,-4.2,50000,286,9.5,5.5
2019,2,17,11:00,UTC,0,1013.6,56,0,34,3.6,-4.4,45990,281,10.1,5.6
2019,2,17,12:00,UTC,0,1014.5,55,0,34,3.7,-4.5,50000,284,9.4,5.4
2019,2,17,13:00,UTC,0,1015.3,52,0,34,4.1,-4.8,50000,293,7.9,4.5
2019,2,17,14:00,UTC,0,1016.2,52,0,34,3.8,-5.1,49510,296,8.3,5
2019,2,17,15:00,UTC,0,1017.3,60,0,34,2.1,-4.9,50000,291,5.6,3.7
2019,2,17,16:00,UTC,0,1018.3,65,0,34,0.6,-5.1,50000,282,5.5,4.1
2019,2,17,17:00,UTC,0,1019.1,71,0,34,-0.7,-5.3,50000,284,6.2,3.9
2019,2,17,18:00,UTC,0,1019.9,72,0,34,-1.2,-5.6,50000,293,5.7,3.8
2019,2,17,19:00,UTC,0,1020.3,73,0,34,-1.7,-5.9,50000,302,5,3.1
2019,2,17,20:00,UTC,1,1020.8,69,0,34,-1.4,-6.3,50000,324,4.3,3.2
2019,2,17,21:00,UTC,7,1021.4,73,0,34,-2.4,-6.6,50000,327,4.1,2.8
2019,2,17,22:00,UTC,5,1021.9,73,0,34,-2.5,-6.6,50000,316,2.8,1.7
2019,2,17,23:00,UTC,7,1022.1,71,0,34,-2,-6.6,50000,344,3.3,2.5
2019,2,18,00:00,UTC,5,1022,69,0,34,-1.9,-6.8,50000,26,3.8,2.8
2019,2,18,01:00,UTC,1,1022.4,77,0,34,-3.3,-6.9,50000,47,2.9,2
2019,2,18,02:00,UTC,5,1022.2,75,0,34,-3.2,-7.1,50000,79,3.5,2.2
2019,2,18,03:00,UTC,7,1022.4,73,0,34,-2.7,-6.8,50000,125,3.9,2.9
2019,2,18,04:00,UTC,7,1022.4,77,0,34,-2.4,-5.9,50000,130,3.3,2.6
2019,2,18,05:00,UTC,8,1022,77,0,34,-0.9,-4.4,50000,143,5.7,3.8
2019,2,18,06:00,UTC,8,1021.9,76,0,34,-0.4,-4.1,50000,159,6.9,4
2019,2,18,07:00,UTC,8,1021.5,76,0,34,-0.2,-3.8,50000,153,7.2,4.4
2019,2,18,08:00,UTC,8,1021,72,0,34,0.2,-4.3,50000,172,8.7,4.8
2019,2,18,09:00,UTC,7,1019.9,79,0,34,0.5,-2.8,43770,166,8.4,5.2
2019,2,18,10:00,UTC,7,1018.9,77,0,34,1.1,-2.6,43540,172,11.2,7.3
2019,2,18,11:00,UTC,3,1018.1,80,0,34,1,-2.1,37520,194,11.1,7.4
2019,2,18,12:00,UTC,7,1017.2,81,0,34,0.8,-2,37330,199,10.5,7.2
2019,2,18,13:00,UTC,7,1016,81,0,34,1.3,-1.6,50000,205,9.7,5.7
2019,2,18,14:00,UTC,8,1014.8,81,0,34,1.4,-1.5,44150,188,9.8,5.8
2019,2,18,15:00,UTC,8,1013.8,80,0,34,1.8,-1.4,50000,199,9.5,5.4
2019,2,18,16:00,UTC,8,1012.9,80,0,34,1.8,-1.3,48890,208,12.8,8.4
2019,2,18,17:00,UTC,8,1011.5,88,0,34,1.8,0.1,40530,206,12.9,8
2019,2,18,18:00,UTC,8,1010.5,93,0,34,1.8,0.8,24290,207,14.1,9.6
2019,2,18,19:00,UTC,8,1009.3,94,0,34,1.8,1,19590,211,14.5,9.2
2019,2,18,20:00,UTC,8,1008.6,96,0,34,1.7,1.1,3730,216,13.8,9.1
2019,2,18,21:00,UTC,8,1008,98,0,34,1.5,1.2,3160,217,13.4,8.9
2019,2,18,22:00,UTC,8,1007.6,98,0,33,1.6,1.4,2080,222,12.6,7.5
2019,2,18,23:00,UTC,8,1007,99,0,33,1.7,1.6,1950,224,12.9,8.2
2019,2,19,00:00,UTC,8,1006.5,99,0,33,1.7,1.7,920,221,11.7,7
2019,2,19,01:00,UTC,9,1005.9,100,0,33,1.8,1.7,610,220,13.8,7.5
2019,2,19,02:00,UTC,9,1005.5,100,0,33,1.6,1.5,600,219,9.9,6.3
2019,2,19,03:00,UTC,9,1004.8,100,0,33,1.6,1.6,480,216,10.7,7
2019,2,19,04:00,UTC,9,1004.1,100,0,32,1.7,1.7,460,217,10.3,7.2
2019,2,19,05:00,UTC,9,1003.5,100,0,32,1.6,1.6,730,213,8.8,6
2019,2,19,06:00,UTC,9,1003.1,100,0,32,1.6,1.6,700,209,11.2,6.8
2019,2,19,07:00,UTC,9,1002.9,100,0,32,1.5,1.5,560,208,8.5,5.6
2019,2,19,08:00,UTC,9,1002.1,100,0,32,1.4,1.4,420,206,11,7.1
2019,2,19,09:00,UTC,9,1001.1,100,0,32,1.5,1.5,320,199,9.8,6
2019,2,19,10:00,UTC,8,1000.1,100,0,32,1.7,1.7,1390,201,9.7,6.5
2019,2,19,11:00,UTC,8,999.2,100,0,31,1.6,1.6,1910,213,9.5,6.3
2019,2,19,12:00,UTC,7,998.2,100,0.5,31,1.5,1.5,2180,206,10.3,6
2019,2,19,13:00,UTC,9,997,100,0,31,1.6,1.6,910,204,10.7,6.4
2019,2,19,14:00,UTC,8,996.1,100,1.1,31,1.7,1.7,2120,209,10.3,6.8
2019,2,19,15:00,UTC,8,995.1,100,1.4,31,1.6,1.6,2500,207,10.8,7
2019,2,19,16:00,UTC,7,994.3,100,0.5,31,1.5,1.5,1820,208,9.1,6
2019,2,19,17:00,UTC,8,993.8,100,1.4,31,1.7,1.6,4920,229,8.5,5.2
2019,2,19,18:00,UTC,8,993.2,100,0,31,1.5,1.4,3490,212,6.2,4.3
2019,2,19,19:00,UTC,8,992.6,100,0,31,1.7,1.6,4280,218,8.2,5.5
2019,2,19,20:00,UTC,7,992.3,100,0,31,1.8,1.8,3470,220,7.7,4.8
2019,2,19,21:00,UTC,7,992,100,0,31,1.9,1.9,1960,222,6.2,4.2
2019,2,19,22:00,UTC,8,991.6,99,0,31,2.1,2,3810,222,6.7,4.2
2019,2,19,23:00,UTC,8,991.1,99,0,31,2.2,2.1,3840,228,5.3,3.7
2019,2,20,00:00,UTC,7,990.9,99,0,31,2.1,2,3800,231,6.2,4.4
2019,2,20,01:00,UTC,8,990.6,98,0,30,2.5,2.2,8980,238,6.7,4.5
2019,2,20,02:00,UTC,8,990.4,97,0,30,2.4,1.9,18630,240,7.8,4.9
2019,2,20,03:00,UTC,7,990.3,96,0,30,2.4,1.8,24420,242,8.1,5.6
2019,2,20,04:00,UTC,8,990.2,95,0,30,2.3,1.5,28370,248,9.2,6.7
2019,2,20,05:00,UTC,8,990.1,92,0,30,2.2,1.1,39790,243,8.4,6.1
2019,2,20,06:00,UTC,7,990,91,0,30,2,0.7,43110,252,7.8,5.2
2019,2,20,07:00,UTC,8,990.1,92,0,30,1.8,0.6,16170,262,8.3,5.7
2019,2,20,08:00,UTC,7,990.5,88,0,30,1.9,0.2,36190,264,10.1,6
2019,2,20,09:00,UTC,7,991.6,86,0,30,0.8,-1.2,7960,276,12.8,8
2019,2,20,10:00,UTC,8,993.5,74,0,30,-1.1,-5.2,12200,298,16.7,8.5
2019,2,20,11:00,UTC,7,994.9,72,0,30,-2.1,-6.4,13700,303,14.7,9.2
2019,2,20,12:00,UTC,7,996.3,70,0,29,-2.4,-7.1,14070,299,14.8,8.8
2019,2,20,13:00,UTC,7,997.9,71,0,29,-2.8,-7.4,12930,298,15.3,7.9
2019,2,20,14:00,UTC,7,999.3,69,0,29,-3,-7.8,36470,297,13.9,8
2019,2,20,15:00,UTC,7,1000.7,65,0,29,-3.2,-8.8,39770,304,14.5,8.4
2019,2,20,16:00,UTC,7,1002.3,68,0,29,-3.6,-8.7,25540,307,17.1,10.8
2019,2,20,17:00,UTC,7,1003.7,64,0,29,-3.6,-9.4,47190,313,13,7.5
2019,2,20,18:00,UTC,1,1005.3,60,0,29,-4.1,-10.6,50000,318,16.7,9
2019,2,20,19:00,UTC,5,1007.3,61,0,29,-4.5,-10.9,50000,314,14.9,7.5
2019,2,20,20:00,UTC,5,1008.6,63,0,29,-4.8,-10.9,47510,311,12.1,6.7
2019,2,20,21:00,UTC,5,1009.9,64,0,29,-5.1,-10.8,50000,310,13.6,6.6
2019,2,20,22:00,UTC,5,1011.3,64,0,29,-5.1,-11,50000,318,11.4,6.9
2019,2,20,23:00,UTC,0,1012.7,65,0,29,-5.5,-11,50000,307,9.9,5.8
2019,2,21,00:00,UTC,0,1013.9,67,0,29,-6,-11.2,50000,313,11.4,6.8
2019,2,21,01:00,UTC,0,1015.1,69,0,29,-6.7,-11.4,50000,304,8.4,5
2019,2,21,02:00,UTC,0,1016.2,69,0,29,-7,-11.8,50000,309,8.9,4.5
2019,2,21,03:00,UTC,0,1017,68,0,29,-7.4,-12.3,50000,310,7.8,4.6
2019,2,21,04:00,UTC,0,1018,68,0,29,-8,-12.7,50000,308,7.1,4.2
2019,2,21,05:00,UTC,0,1019,68,0,29,-8.3,-13.1,50000,318,7.2,3.7
2019,2,21,06:00,UTC,0,1019.8,69,0,29,-8.9,-13.4,50000,310,7.7,4.1
2019,2,21,07:00,UTC,0,1020.6,66,0,29,-8.3,-13.6,50000,325,7.8,4.4
2019,2,21,08:00,UTC,0,1021.6,61,0,28,-7.3,-13.6,50000,332,8.2,5.3
2019,2,21,09:00,UTC,0,1022.4,56,0,28,-6.2,-13.5,43820,332,7.3,3.9
2019,2,21,10:00,UTC,0,1023,53,0,28,-5.5,-13.4,46770,335,6.8,3.4
2019,2,21,11:00,UTC,0,1023.7,45,0,29,-4.9,-15,44380,340,9.2,4.2
2019,2,21,12:00,UTC,0,1024.1,41,0,28,-4.3,-15.5,47420,341,7.6,4.4
2019,2,21,13:00,UTC,0,1024.8,42,0,28,-4.2,-15.3,50000,341,6.4,4.2
2019,2,21,14:00,UTC,0,1025.5,40,0,28,-4.4,-15.8,50000,321,6.9,3.8
2019,2,21,15:00,UTC,0,1026.2,45,0,29,-5,-15.2,50000,326,6,3.4
2019,2,21,16:00,UTC,0,1027.2,50,0,29,-6,-14.7,50000,327,5.2,3.4
2019,2,21,17:00,UTC,0,1028.3,53,0,28,-6.7,-14.6,50000,337,5,3.1
2019,2,21,18:00,UTC,0,1029.1,54,0,28,-7.1,-14.9,50000,335,6,3.8
2019,2,21,19:00,UTC,0,1029.9,57,0,28,-7.8,-14.8,50000,334,6.7,3.9
2019,2,21,20:00,UTC,0,1030.8,59,0,28,-8.2,-14.9,50000,338,7.1,4.2
2019,2,21,21:00,UTC,0,1032,61,0,28,-8.7,-14.9,50000,337,7.3,4
2019,2,21,22:00,UTC,0,1033.1,62,0,28,-9,-14.8,50000,341,6.7,4.2
2019,2,21,23:00,UTC,0,1033.6,65,0,28,-9.4,-14.8,50000,341,6.3,3.8
2019,2,22,00:00,UTC,0,1034.5,69,0,28,-10.1,-14.7,50000,332,6.2,3.3
2019,2,22,01:00,UTC,0,1035.4,71,0,28,-10.5,-14.7,50000,330,4.3,2.7
2019,2,22,02:00,UTC,0,1036.1,73,0,28,-10.9,-14.8,50000,334,4.4,2.9
2019,2,22,03:00,UTC,0,1037.1,76,0,28,-11.4,-14.8,50000,325,6.4,3.6
2019,2,22,04:00,UTC,0,1037.9,76,0,28,-11.5,-14.9,50000,336,5.5,3.2
2019,2,22,05:00,UTC,0,1038.6,76,0,28,-11.6,-14.9,48600,346,5.5,3.9
2019,2,22,06:00,UTC,0,1039.6,78,0,28,-11.9,-15,50000,328,6.5,3.6
2019,2,22,07:00,UTC,0,1040.3,73,0,28,-11,-14.8,49620,338,4.4,2.4
2019,2,22,08:00,UTC,0,1041.3,64,0,28,-9.4,-14.9,34270,340,4.2,2.4
2019,2,22,09:00,UTC,0,1041.8,56,0,28,-7.2,-14.6,40430,329,3.1,1.5
2019,2,22,10:00,UTC,0,1042.1,50,0,28,-5.5,-14.4,30930,324,3.4,1.8
2019,2,22,11:00,UTC,0,1041.9,42,0,28,-4.1,-15.2,42440,339,2.6,1.1
2019,2,22,12:00,UTC,0,1042.2,38,0,28,-3.2,-15.4,35480,265,3.3,1.8
2019,2,22,13:00,UTC,0,1041.7,33,0,28,-2.3,-16.4,35010,234,3.2,2.1
2019,2,22,14:00,UTC,0,1041.4,40,0,28,-2.7,-14.6,44680,227,5,3.3
2019,2,22,15:00,UTC,0,1040.9,47,0,28,-4.1,-13.9,50000,238,4.7,3.2
2019,2,22,16:00,UTC,3,1040.4,47,0,28,-4.6,-14.3,50000,224,5.7,4.1
2019,2,22,17:00,UTC,5,1039.9,55,0,28,-5.1,-12.7,50000,219,6.4,4.5
2019,2,22,18:00,UTC,7,1039.5,51,0,28,-4.8,-13.4,50000,231,8,5.4
2019,2,22,19:00,UTC,7,1038.9,58,0,28,-5,-12.1,50000,225,8,4.5
2019,2,22,20:00,UTC,5,1037.8,66,0,29,-4.8,-10.2,50000,227,7.9,5.1
2019,2,22,21:00,UTC,7,1037,73,0,29,-3.8,-7.8,50000,221,8.4,5.2
2019,2,22,22:00,UTC,7,1035.8,76,0,29,-2.4,-6.2,50000,222,9.6,5.9
2019,2,22,23:00,UTC,7,1034.7,75,0,29,-1.5,-5.3,50000,224,11.4,6.9
2019,2,23,00:00,UTC,7,1033.7,77,0,29,-0.9,-4.4,28390,229,13.4,8.4
2019,2,23,01:00,UTC,9,1032.6,91,1.4,29,-1.7,-3,1160,229,10.4,6.2
2019,2,23,02:00,UTC,7,1030.9,92,0.4,29,-1,-2.2,5800,225,10.2,7
2019,2,23,03:00,UTC,7,1030.2,93,0.5,30,-0.5,-1.5,7160,238,10.3,6.7
2019,2,23,04:00,UTC,7,1028.8,92,0,30,-0.4,-1.6,50000,243,11.8,6.7
2019,2,23,05:00,UTC,7,1028.7,91,0,30,-0.3,-1.6,50000,253,10.2,6.3
2019,2,23,06:00,UTC,7,1028.7,89,0,30,-0.2,-1.8,50000,257,13.7,8.1
2019,2,23,07:00,UTC,8,1028.6,90,0,30,-0.3,-1.7,50000,265,10.6,6.3
2019,2,23,08:00,UTC,8,1027.9,90,0,30,0,-1.6,50000,258,9,6.1
2019,2,23,09:00,UTC,8,1027.6,90,0.7,30,0.3,-1.2,47830,256,10.1,7.3
2019,2,23,10:00,UTC,8,1027,88,0,30,1,-0.7,43570,261,9.5,6
2019,2,23,11:00,UTC,7,1027.1,85,0,30,2.2,-0.1,49800,269,8,5.3
2019,2,23,12:00,UTC,1,1026.5,82,0,30,3.3,0.5,45370,273,11.4,6.8
2019,2,23,13:00,UTC,0,1026.2,77,0,30,4.6,0.8,50000,269,7,4.7
2019,2,23,14:00,UTC,0,1025.7,78,0,30,4.6,1,50000,261,7.7,4.7
2019,2,23,15:00,UTC,0,1025.6,81,0,30,4.2,1.2,50000,257,6.5,4.7
2019,2,23,16:00,UTC,0,1026.2,83,0,30,3.3,0.8,50000,250,8.2,5.8
2019,2,23,17:00,UTC,0,1026.3,86,0,30,2.8,0.7,50000,258,6.8,4.5
2019,2,23,18:00,UTC,0,1026.3,88,0,30,2.3,0.5,50000,253,5.8,4.6
2019,2,23,19:00,UTC,7,1026.1,89,0,30,2.2,0.6,49710,265,5.8,4.1
2019,2,23,20:00,UTC,8,1025.9,90,0,30,2.1,0.6,42060,262,4.8,3.3
2019,2,23,21:00,UTC,7,1025.8,90,0,30,2.1,0.6,48890,234,4.1,2.9
2019,2,23,22:00,UTC,5,1025.9,90,0,30,2,0.5,48430,247,7.2,5.1
2019,2,23,23:00,UTC,7,1025.7,91,0,30,1.4,0.1,41760,253,5.3,3.9
2019,2,24,00:00,UTC,7,1025.2,90,0,30,1.4,-0.1,45620,258,5.3,3.7
2019,2,24,01:00,UTC,5,1024.7,90,0,30,1.4,-0.1,50000,245,7.2,4.7
2019,2,24,02:00,UTC,7,1024.5,92,0,30,0.9,-0.2,50000,234,6.2,3.9
2019,2,24,03:00,UTC,7,1024.2,92,0,30,0.9,-0.2,50000,247,5.6,4.4
2019,2,24,04:00,UTC,5,1023.5,93,0,30,0.7,-0.4,50000,218,4.5,3
2019,2,24,05:00,UTC,5,1023.1,94,0,30,0.5,-0.3,50000,214,5.8,3.7
2019,2,24,06:00,UTC,7,1022.8,95,0,30,1,0.3,47300,225,7.9,5.1
2019,2,24,07:00,UTC,5,1021.6,94,0,30,1.4,0.6,29500,212,5.3,3.8
2019,2,24,08:00,UTC,8,1020.9,99,0,30,1.2,1,2460,216,11.3,7.5
2019,2,24,09:00,UTC,8,1020.4,98,0,30,1.4,1.1,4600,226,10.2,6.7
2019,2,24,10:00,UTC,8,1018.9,98,0,30,1.3,1,3140,220,10.2,7.2
2019,2,24,11:00,UTC,8,1018.2,98,0,30,1.6,1.3,4990,229,7.5,5.1
2019,2,24,12:00,UTC,8,1017.2,95,0,29,2.3,1.6,15040,234,8.5,5.6
2019,2,24,13:00,UTC,8,1017,93,0,29,2.7,1.7,20110,249,11.4,7.7
2019,2,24,14:00,UTC,7,1016.8,89,0,29,3.2,1.7,29150,263,11,6
2019,2,24,15:00,UTC,1,1017.2,86,0,29,3.7,1.6,45770,278,9.1,4.4
2019,2,24,16:00,UTC,1,1017.6,85,0,29,3.5,1.2,50000,287,7,4.6
2019,2,24,17:00,UTC,1,1018,85,0,29,3.5,1.2,50000,268,7.5,5.2
2019,2,24,18:00,UTC,0,1017.8,79,0,29,3.7,0.4,50000,269,10.7,6.7
2019,2,24,19:00,UTC,0,1018,72,0,29,3.9,-0.7,48590,274,10.3,5.3
2019,2,24,20:00,UTC,0,1017.7,66,0,29,4.4,-1.4,48530,272,11.8,7.2
2019,2,24,21:00,UTC,0,1017.1,65,0,29,4.3,-1.7,50000,276,11.8,7.2
2019,2,24,22:00,UTC,0,1016.5,61,0,29,4.8,-2,50000,273,12.7,8
2019,2,24,23:00,UTC,0,1015.6,60,0,29,4.8,-2.3,50000,274,14,8.4
2019,2,25,00:00,UTC,0,1014.9,62,0,29,4.7,-2,50000,274,14,8.1
2019,2,25,01:00,UTC,0,1014.4,59,0,29,5.1,-2.1,44540,282,16.5,10.1
2019,2,25,02:00,UTC,0,1014.4,61,0,29,4.9,-1.9,44800,287,16.6,9.7
2019,2,25,03:00,UTC,0,1014.3,64,0,29,4.4,-1.8,41020,287,15.3,8.1
2019,2,25,04:00,UTC,0,1014.1,63,0,29,4.8,-1.8,40500,287,16.1,9.9
2019,2,25,05:00,UTC,0,1014,64,0,29,4.3,-1.8,31360,285,15.8,10
2019,2,25,06:00,UTC,0,1014.4,63,0,28,4.5,-1.9,35480,290,13.7,8.9
2019,2,25,07:00,UTC,1,1014.1,60,0,29,5.1,-1.9,33860,292,16.2,10.2
2019,2,25,08:00,UTC,0,1014.2,58,0,28,5.7,-1.8,31300,298,14.3,8.6
2019,2,25,09:00,UTC,0,1014,54,0,29,6.6,-1.9,38480,299,13.9,7.1
2019,2,25,10:00,UTC,0,1014.5,51,0,29,7.2,-2.2,38260,306,14.3,7.2
2019,2,25,11:00,UTC,0,1014.9,49,0,29,7.6,-2.3,47690,308,13.7,7.5
2019,2,25,12:00,UTC,0,1015.9,49,0,29,7.9,-2.1,46010,304,13,8.1
2019,2,25,13:00,UTC,0,1015.3,49,0,28,7.8,-2.2,50000,301,11.5,7.1
2019,2,25,14:00,UTC,0,1015.9,54,0,29,6.7,-2,50000,297,9.7,4.5
2019,2,25,15:00,UTC,1,1016,60,0,29,5.5,-1.8,48860,290,7.7,4.9
2019,2,25,16:00,UTC,7,1015.9,64,0,28,4.4,-1.9,50000,273,6.2,4.1
2019,2,25,17:00,UTC,7,1016.3,67,0,29,3.9,-1.7,50000,275,7.9,4.8
2019,2,25,18:00,UTC,8,1015.8,68,0,29,3.6,-1.7,50000,280,5.9,3.9
2019,2,25,19:00,UTC,8,1015.4,70,0,29,3.2,-1.7,46020,273,7.8,4.7
2019,2,25,20:00,UTC,8,1014.7,72,0,29,3,-1.6,48070,278,10.4,5.4
2019,2,25,21:00,UTC,7,1014.5,70,0,29,3,-1.9,47640,286,8.5,5.1
2019,2,25,22:00,UTC,8,1014,77,0,29,2.9,-0.7,41620,281,12.3,7.5
2019,2,25,23:00,UTC,8,1013.5,85,0,29,2.3,0,35760,276,8.7,5.3
2019,2,26,00:00,UTC,9,1013.3,93,1,28,1.3,0.3,9420,269,7.4,4.7
2019,2,26,01:00,UTC,7,1012.8,96,0,28,1,0.5,16790,268,6.7,4.6
2019,2,26,02:00,UTC,8,1012.9,97,0,28,0.9,0.5,45000,281,5.1,3.3
2019,2,26,03:00,UTC,8,1013.4,95,0,29,1.6,0.9,50000,307,8.2,5.3
2019,2,26,04:00,UTC,8,1014.3,93,0,28,1.8,0.8,34370,320,7.5,4.2
2019,2,26,05:00,UTC,8,1015,91,0,28,1.9,0.6,50000,327,6.1,3.7
2019,2,26,06:00,UTC,8,1016.1,89,0,28,1.8,0.2,50000,333,8.2,4.9
2019,2,26,07:00,UTC,8,1016.9,88,0,28,2,0.2,50000,312,6.3,3.3
2019,2,26,08:00,UTC,7,1017.6,84,0,28,2.4,0.1,50000,321,7.3,4.3
2019,2,26,09:00,UTC,8,1018,82,0,28,2.7,0,50000,326,8.1,3.6
2019,2,26,10:00,UTC,7,1019,78,0,28,3.2,-0.3,48990,317,8.6,5.2
2019,2,26,11:00,UTC,3,1019.9,73,0,28,4,-0.5,50000,314,9,4.7
2019,2,26,12:00,UTC,0,1020.5,70,0,28,4.5,-0.4,50000,327,8,4
2019,2,26,13:00,UTC,1,1020.6,67,0,28,5,-0.5,50000,322,8,4.6
2019,2,26,14:00,UTC,1,1021.4,69,0,28,4.9,-0.2,50000,320,6,2.7
2019,2,26,15:00,UTC,0,1022.2,75,0,28,3.8,-0.2,50000,335,6.6,4.3
2019,2,26,16:00,UTC,0,1022.4,80,0,28,2.7,-0.3,50000,320,5.6,2.7
2019,2,26,17:00,UTC,0,1022.9,86,0,28,1.7,-0.4,50000,304,5.4,3.3
2019,2,26,18:00,UTC,0,1022.9,88,0,28,1.1,-0.7,50000,304,4.3,2.9
2019,2,26,19:00,UTC,0,1023,90,0,28,0.5,-0.9,50000,295,3.7,2.9
2019,2,26,20:00,UTC,3,1023.3,93,0,28,0,-1,50000,286,3.7,2.7
2019,2,26,21:00,UTC,1,1022.7,93,0,28,-0.2,-1.2,50000,296,3.6,2.7
2019,2,26,22:00,UTC,5,1022.6,94,0,28,-0.1,-1,50000,279,4.1,3.2
2019,2,26,23:00,UTC,7,1021.9,92,0,28,0.2,-1,50000,255,3.4,2.8
2019,2,27,00:00,UTC,7,1021,92,0,28,0.3,-0.8,50000,221,4,2.7
2019,2,27,01:00,UTC,7,1019.9,92,0,28,0.7,-0.5,50000,224,4.6,3.3
2019,2,27,02:00,UTC,7,1018.5,91,0,28,1.1,-0.2,50000,220,7.3,5.2
2019,2,27,03:00,UTC,7,1017.3,90,0,28,1.4,0,50000,223,6.7,4
2019,2,27,04:00,UTC,7,1015.4,90,0,28,1.6,0.2,50000,210,5.9,4
2019,2,27,05:00,UTC,7,1014.3,91,0,28,1.7,0.4,50000,225,6.1,4.2
2019,2,27,06:00,UTC,7,1013.1,88,0,28,1.9,0.2,50000,232,5.7,3.4
2019,2,27,07:00,UTC,7,1011.1,90,0,28,1.8,0.4,50000,221,9.6,7.1
2019,2,27,08:00,UTC,7,1009.8,86,0,28,2.4,0.3,50000,232,8.7,6
2019,2,27,09:00,UTC,5,1009.2,84,0,28,2.9,0.4,50000,250,7.9,5.9
2019,2,27,10:00,UTC,5,1007.5,80,0,28,3.4,0.3,44830,246,6.5,4.2
2019,2,27,11:00,UTC,1,1006.7,74,0,28,4.4,0.1,45960,247,5.2,3.6
2019,2,27,12:00,UTC,0,1004.9,69,0,28,4.9,-0.2,45310,245,8.1,5.4
2019,2,27,13:00,UTC,0,1003.5,69,0,28,4.9,-0.3,41910,255,6.8,4.3
2019,2,27,14:00,UTC,0,1002.1,67,0,28,5.1,-0.5,48330,254,9.9,6.1
2019,2,27,15:00,UTC,0,1001,66,0,28,4.4,-1.5,48410,257,7.2,4.8
2019,2,27,16:00,UTC,1,999.8,61,0,28,4.5,-2.3,50000,260,9.5,6.3
2019,2,27,17:00,UTC,0,998.2,64,0,28,3.4,-2.7,50000,249,9.6,6.5
2019,2,27,18:00,UTC,0,996.7,61,0,28,3.5,-3.3,50000,252,9.5,6.5
2019,2,27,19:00,UTC,0,995.8,55,0,28,4.2,-4.2,50000,255,9.9,5.8
2019,2,27,20:00,UTC,0,994.9,56,0,28,3.9,-4.1,50000,268,8.2,5.5
2019,2,27,21:00,UTC,0,993.9,59,0,28,3.4,-3.8,50000,266,8.6,5.4
2019,2,27,22:00,UTC,7,993.2,60,0,28,3.6,-3.4,50000,242,6,4.2
2019,2,27,23:00,UTC,7,992.2,63,0,28,3.6,-2.8,50000,252,7.7,4.6
2019,2,28,00:00,UTC,7,991,63,0,28,4.6,-1.9,50000,266,12.4,6.8
2019,2,28,01:00,UTC,3,989.9,67,0,28,4.1,-1.5,50000,268,8.4,5.5
2019,2,28,02:00,UTC,7,988.9,71,0,28,3.6,-1.3,50000,266,9.1,5.8
2019,2,28,03:00,UTC,3,988.2,73,0,28,3.2,-1.2,50000,268,8.6,6
2019,2,28,04:00,UTC,5,987.4,75,0,28,3,-1.1,50000,273,9.3,5.5
2019,2,28,05:00,UTC,7,987.1,77,0,28,2.6,-1,50000,274,8.6,5.2
2019,2,28,06:00,UTC,7,986.5,80,0,28,2,-1,50000,266,6.7,4.1
2019,2,28,07:00,UTC,5,986.1,78,0,28,2.4,-0.9,50000,269,9,5.4
2019,2,28,08:00,UTC,3,986.2,78,0,28,2.7,-0.8,50000,276,5.8,3.7
2019,2,28,09:00,UTC,7,986.2,73,0,28,3.7,-0.6,50000,296,9.5,5.8
2019,2,28,10:00,UTC,8,986.5,85,0,27,3,0.6,22660,300,8.1,5.2
2019,2,28,11:00,UTC,8,986.9,86,0,27,3.1,0.9,14490,309,9.3,5.9
2019,2,28,12:00,UTC,7,987.3,82,0,27,3.2,0.5,46150,319,9.4,4.9
2019,2,28,13:00,UTC,7,988.5,87,0,26,2.8,0.8,11970,329,10.2,5.5
2019,2,28,14:00,UTC,8,989.7,90,0,27,2.4,1,13680,329,9.7,6.1
2019,2,28,15:00,UTC,5,991,82,0,27,1.9,-0.7,50000,337,11.5,6.4
2019,2,28,16:00,UTC,7,993,73,0,27,0.6,-3.8,50000,341,15.9,9.7
2019,2,28,17:00,UTC,8,994.7,75,0,27,-0.7,-4.5,50000,338,15.3,9.6
2019,2,28,18:00,UTC,5,996.2,63,0,26,-1.4,-7.5,50000,353,13.5,7.8
2019,2,28,19:00,UTC,7,997.3,64,0,26,-1.8,-7.6,50000,345,14.3,8.2
2019,2,28,20:00,UTC,7,998.4,54,0,26,-2.6,-10.7,50000,352,13.8,8.7
2019,2,28,21:00,UTC,5,999.5,52,0,26,-3.3,-11.8,50000,1,15.2,8.7
2019,2,28,22:00,UTC,8,1000.5,52,0,26,-3.4,-11.9,50000,357,11.7,6.7
2019,2,28,23:00,UTC,7,1001.3,57,0,26,-3.8,-11,28720,354,9.5,5.8
2019,3,1,00:00,UTC,7,1002.2,64,0,26,-4.6,-10.3,9800,4,11.8,6.4
2019,3,1,01:00,UTC,7,1003,78,0,26,-5.4,-8.7,15760,6,6.4,3.5
2019,3,1,02:00,UTC,0,1003.7,64,0,26,-6.3,-11.9,50000,346,11.7,5.7
2019,3,1,03:00,UTC,0,1004.5,67,0,26,-6.9,-12,50000,341,7.9,4.4
2019,3,1,04:00,UTC,0,1004.9,72,0,26,-7.3,-11.5,50000,333,7.1,4.4
2019,3,1,05:00,UTC,0,1005.7,72,0,26,-7.6,-11.8,50000,331,8.2,4.4
2019,3,1,06:00,UTC,0,1006.2,73,0,26,-7.8,-11.9,50000,333,8.4,5.1
2019,3,1,07:00,UTC,0,1006.9,69,0,26,-7.3,-12.1,43840,339,7.5,5.1
2019,3,1,08:00,UTC,0,1007.3,64,0,26,-6.4,-12.2,44230,336,7.9,4.8
2019,3,1,09:00,UTC,0,1007.9,58,0,26,-5,-12,41100,325,7.8,5.1
2019,3,1,10:00,UTC,0,1008.2,55,0,26,-4.1,-11.8,36660,322,6.6,3.7
2019,3,1,11:00,UTC,0,1008.4,50,0,26,-3.6,-12.4,43100,316,7.4,4.3
2019,3,1,12:00,UTC,0,1008.5,48,0,26,-2.8,-12.4,48290,334,6,3
2019,3,1,13:00,UTC,0,1008.5,46,0,26,-2.6,-12.5,45160,320,5.9,3.3
2019,3,1,14:00,UTC,0,1008.5,43,0,26,-2.5,-13.3,43400,313,6.2,3.9
2019,3,1,15:00,UTC,0,1008.7,43,0,26,-3,-13.9,50000,311,5.6,3.3
2019,3,1,16:00,UTC,0,1009.2,45,0,26,-4.3,-14.5,50000,304,5,3
2019,3,1,17:00,UTC,0,1009.2,51,0,26,-5.4,-14,45350,283,4.4,2.8
2019,3,1,18:00,UTC,0,1009,53,0,26,-6.2,-14.1,50000,267,4.6,3.2
2019,3,1,19:00,UTC,5,1008.8,56,0,26,-6.1,-13.5,50000,257,4.8,3.2
2019,3,1,20:00,UTC,5,1008.7,56,0,26,-6,-13.3,50000,245,5.8,4.4
2019,3,1,21:00,UTC,7,1008.4,55,0,26,-6,-13.5,50000,250,7.8,5.8
2019,3,1,22:00,UTC,7,1007.9,62,0,26,-5.7,-11.8,50000,249,6.9,5.1
2019,3,1,23:00,UTC,5,1007.2,71,0,26,-5.1,-9.5,50000,232,8.1,5.8
2019,3,2,00:00,UTC,8,1006.3,73,0,26,-4.3,-8.4,50000,220,8.4,6.4
2019,3,2,01:00,UTC,8,1005.3,77,0,26,-3.1,-6.5,50000,220,8.7,5.4
2019,3,2,02:00,UTC,7,1004.1,79,0,26,-2,-5.1,21370,223,7.4,4.9
2019,3,2,03:00,UTC,7,1003.4,80,0,26,-1.5,-4.6,50000,236,9,5.6
2019,3,2,04:00,UTC,7,1002.8,81,0,26,-1.5,-4.3,50000,242,8.6,5.5
2019,3,2,05:00,UTC,3,1002,83,0,26,-1.8,-4.2,50000,233,7.8,5
2019,3,2,06:00,UTC,0,1001.4,84,0,26,-1.7,-4,50000,237,8.2,5.3
2019,3,2,07:00,UTC,0,1001,80,0,26,-0.8,-3.9,50000,236,6.1,4.1
2019,3,2,08:00,UTC,0,1000.3,73,0,26,0.2,-4.1,50000,215,7.5,5.5
2019,3,2,09:00,UTC,0,999.3,64,0,26,1.6,-4.5,50000,219,10.9,7.6
2019,3,2,10:00,UTC,1,998.1,69,0,26,2.4,-2.8,44620,214,12.2,8.5
2019,3,2,11:00,UTC,5,996.7,71,0,26,2.4,-2.2,44740,208,11.3,7.3
2019,3,2,12:00,UTC,3,995.2,75,0,26,1.9,-2.1,32590,215,16.5,10.9
2019,3,2,13:00,UTC,7,993.8,72,0,26,2.6,-1.9,37590,222,16.2,9.8
2019,3,2,14:00,UTC,7,993.4,66,0,26,2.8,-2.9,50000,240,13,8.3
2019,3,2,15:00,UTC,7,993.3,69,0,26,2.1,-3,50000,245,13.3,8.6
2019,3,2,16:00,UTC,7,993,72,0,26,1.8,-2.7,50000,251,12.2,7.2
2019,3,2,17:00,UTC,8,993.1,77,0,26,1.6,-2.1,20340,251,12.7,8.2
2019,3,2,18:00,UTC,7,993.9,79,0,26,1.1,-2.2,50000,261,12.7,7.3
2019,3,2,19:00,UTC,7,994.3,75,0,26,1.1,-2.8,50000,269,10.1,6.4
2019,3,2,20:00,UTC,7,994.9,70,0,26,0.8,-4,50000,282,12.3,6.2
2019,3,2,21:00,UTC,3,996.1,59,0,26,-0.6,-7.6,50000,296,10.6,5.9
2019,3,2,22:00,UTC,0,996.6,60,0,26,-1.7,-8.4,50000,298,8.6,5.2
2019,3,2,23:00,UTC,3,997.2,67,0,26,-2.8,-8.1,50000,304,9.4,5.8
2019,3,3,00:00,UTC,0,997.5,73,0,26,-3.8,-7.9,50000,307,8.4,4.2
2019,3,3,01:00,UTC,0,998.1,75,0,26,-5.1,-8.9,50000,309,7.6,3.9
2019,3,3,02:00,UTC,1,998.4,75,0,26,-6.1,-9.8,50000,305,7,4.5
2019,3,3,03:00,UTC,1,998.9,77,0,26,-6.8,-10.2,50000,301,7.3,4.1
2019,3,3,04:00,UTC,0,998.8,78,0,26,-7.5,-10.7,50000,306,7.3,4.7
2019,3,3,05:00,UTC,0,999,78,0,26,-8.3,-11.4,50000,309,7.4,3.9
2019,3,3,06:00,UTC,5,999.3,76,0,26,-8.4,-11.8,50000,314,6.7,3.7
2019,3,3,07:00,UTC,1,999.4,73,0,26,-7.9,-12,50000,339,6.9,2.9
2019,3,3,08:00,UTC,0,999.3,67,0,26,-7,-12.1,45440,326,4.3,2.2
2019,3,3,09:00,UTC,0,999.1,64,0,26,-6.4,-12.1,39630,342,4,2.1
2019,3,3,10:00,UTC,3,998.9,61,0,26,-5,-11.3,41080,76,4,2.3
2019,3,3,11:00,UTC,1,999,59,0,26,-4.3,-11.2,44610,162,2.9,1.8
2019,3,3,12:00,UTC,1,998.4,58,0,26,-3.8,-10.8,42100,99,3.1,1.8
2019,3,3,13:00,UTC,5,997.8,67,0,26,-4.3,-9.5,50000,109,4.4,2.8
2019,3,3,14:00,UTC,7,997.1,68,0,26,-4.6,-9.7,50000,100,4.8,3.2
2019,3,3,15:00,UTC,7,996.4,73,0,26,-4.7,-8.8,50000,80,5.8,3.7
2019,3,3,16:00,UTC,5,995.8,74,0,26,-4.8,-8.7,50000,76,6.6,4.6
2019,3,3,17:00,UTC,7,995.4,73,0,26,-4.7,-8.8,50000,72,7.9,5.4
2019,3,3,18:00,UTC,7,994.6,78,0,26,-4.5,-7.9,50000,71,7.4,4.7
2019,3,3,19:00,UTC,7,994,79,0,26,-4.4,-7.5,50000,69,9,5.7
2019,3,3,20:00,UTC,7,993.7,80,0,26,-4.1,-7,50000,71,9,6.1
2019,3,3,21:00,UTC,7,993.2,81,0,26,-3.8,-6.6,50000,80,11.1,6.1
2019,3,3,22:00,UTC,8,992.7,79,0,26,-3.6,-6.7,50000,81,10.2,6.6
2019,3,3,23:00,UTC,7,992.5,80,0,26,-3.6,-6.6,50000,79,10.2,6.2
2019,3,4,00:00,UTC,7,992.5,79,0,27,-5.1,-8.2,50000,28,5.6,4.5
2019,3,4,01:00,UTC,7,992.5,79,0,26,-5.2,-8.3,50000,27,5.8,3.9
2019,3,4,02:00,UTC,8,992,81,0,26,-5.3,-8.1,50000,45,5.6,3.6
2019,3,4,03:00,UTC,7,991.8,82,0,26,-5,-7.7,50000,38,5.8,3.6
2019,3,4,04:00,UTC,7,991.5,82,0,26,-5.2,-7.8,50000,31,5,3.7
2019,3,4,05:00,UTC,7,991.3,82,0,26,-5.2,-7.8,40400,23,5.9,3.7
2019,3,4,06:00,UTC,7,991.3,82,0,26,-5.1,-7.7,33100,31,4.5,3.3
2019,3,4,07:00,UTC,7,991.3,80,0,26,-4.4,-7.4,31790,36,3.4,2.2
2019,3,4,08:00,UTC,7,991,78,0,26,-3.7,-7,36400,58,4.3,2.9
2019,3,4,09:00,UTC,7,990.6,78,0,26,-2.7,-6,35230,75,5,2.9
2019,3,4,10:00,UTC,7,990.4,80,0,26,-2.3,-5.2,29960,75,5,2.9
2019,3,4,11:00,UTC,7,990.2,81,0,26,-1.9,-4.7,21430,74,3.8,2.5
2019,3,4,12:00,UTC,7,989.4,82,0,26,-2,-4.7,19350,73,4.9,2.8
2019,3,4,13:00,UTC,7,989,82,0,26,-1.9,-4.6,36140,67,5.9,3.7
2019,3,4,14:00,UTC,7,988.3,84,0,26,-2,-4.4,36490,73,6.1,4.5
2019,3,4,15:00,UTC,7,987.9,86,0,26,-2.1,-4.1,30020,75,5.7,3.5
2019,3,4,16:00,UTC,7,987.4,86,0,26,-2,-4,32000,90,6.9,4.6
2019,3,4,17:00,UTC,7,986.7,88,0,26,-1.9,-3.6,31060,94,5.8,3.8
2019,3,4,18:00,UTC,7,986.1,89,0,26,-1.7,-3.3,21200,95,4.9,3.2
2019,3,4,19:00,UTC,7,985,87,0,26,-1.7,-3.5,25070,78,6.4,3.9
2019,3,4,20:00,UTC,7,984.5,88,0,26,-1.7,-3.4,19530,75,4.4,2.9
2019,3,4,21:00,UTC,7,983.2,88,0,26,-1.7,-3.5,20200,65,6.7,4.1
2019,3,4,22:00,UTC,7,982.1,89,0,26,-2,-3.6,18750,46,8.2,5.9
2019,3,4,23:00,UTC,7,981.3,89,0,26,-2.2,-3.7,16060,42,7.2,5
2019,3,5,00:00,UTC,7,981,90,0,28,-2.6,-4.1,14290,25,6.7,4.8
2019,3,5,01:00,UTC,9,980.3,93,0.8,26,-3.3,-4.2,1370,29,8.9,5.6
2019,3,5,02:00,UTC,9,979.7,93,1.2,27,-3.4,-4.4,1390,22,9.8,5.2
2019,3,5,03:00,UTC,9,979.5,92,0.3,28,-3.6,-4.7,1650,17,8.7,5.3
2019,3,5,04:00,UTC,9,979.6,91,0.6,29,-3.7,-5,1870,13,8.9,5.7
2019,3,5,05:00,UTC,7,980.1,87,0,29,-4.2,-6,2790,12,10.4,6.5
2019,3,5,06:00,UTC,7,980.7,85,0,30,-4.1,-6.2,6550,2,9.5,5.7
2019,3,5,07:00,UTC,7,981.4,77,0,30,-3.7,-7.1,9860,360,10.2,6.1
2019,3,5,08:00,UTC,7,982.1,72,0,30,-3.5,-7.9,17780,2,11.3,6.8
2019,3,5,09:00,UTC,5,983.1,73,0,29,-3.4,-7.6,9370,351,12.1,7.2
2019,3,5,10:00,UTC,3,984.3,70,0,29,-3.4,-8.2,18630,343,12.2,7.1
2019,3,5,11:00,UTC,7,985.5,67,0,29,-3.2,-8.4,16540,339,12.7,7.9
2019,3,5,12:00,UTC,3,986.6,64,0,29,-3.2,-9.1,37320,350,11.9,7
2019,3,5,13:00,UTC,1,988,54,0,29,-3.6,-11.5,29440,350,14.7,8.8
2019,3,5,14:00,UTC,0,989.5,48,0,29,-3.5,-13,50000,342,13.3,7.3
2019,3,5,15:00,UTC,0,991.2,50,0,29,-4.3,-13.2,50000,335,11.2,6.8
2019,3,5,16:00,UTC,0,993.1,54,0,28,-5.7,-13.5,39720,337,13.6,7
2019,3,5,17:00,UTC,0,994.9,53,0,28,-6.7,-14.6,50000,334,11.8,6.3
2019,3,5,18:00,UTC,0,996.7,56,0,28,-7.7,-15,50000,336,7,4.1
2019,3,5,19:00,UTC,0,998.2,55,0,28,-8.4,-15.9,50000,329,8.1,3.8
2019,3,5,20:00,UTC,0,999.7,51,0,28,-9.1,-17.4,50000,326,7.2,4.3
2019,3,5,21:00,UTC,0,1001.5,52,0,28,-9.9,-17.9,50000,318,6.5,3.4
2019,3,5,22:00,UTC,0,1002.9,55,0,28,-10.4,-17.8,50000,320,6.6,4.2
2019,3,5,23:00,UTC,0,1004,58,0,28,-10.8,-17.4,50000,324,7.6,4.4
2019,3,6,00:00,UTC,0,1005.2,64,0,28,-12,-17.4,50000,310,5.7,3.3
2019,3,6,01:00,UTC,0,1006.1,67,0,28,-12.3,-17.1,50000,314,6.1,3
2019,3,6,02:00,UTC,0,1007,69,0,28,-12.5,-17,50000,317,4.6,2.6
2019,3,6,03:00,UTC,0,1007.9,78,0,28,-14.3,-17.3,50000,297,3.5,2.7
2019,3,6,04:00,UTC,0,1008.7,80,0,28,-15.1,-17.8,50000,290,4.2,3.2
2019,3,6,05:00,UTC,0,1009.4,82,0,28,-15.1,-17.4,50000,302,4.1,2.9
2019,3,6,06:00,UTC,0,1010,81,0,28,-14.5,-17.1,40240,278,2.9,2.1
2019,3,6,07:00,UTC,0,1010.5,59,0,28,-10.5,-17,34150,275,3.6,2.4
2019,3,6,08:00,UTC,0,1011.1,43,0,28,-7.8,-18.1,40150,256,4.3,2.8
2019,3,6,09:00,UTC,0,1011.6,31,0,28,-6.5,-20.8,45900,248,5,3.7
2019,3,6,10:00,UTC,0,1011.8,32,0,28,-5.3,-19.3,39150,214,5.7,4.5
2019,3,6,11:00,UTC,0,1011.8,30,0,28,-4.3,-19.3,44460,216,7.9,5
2019,3,6,12:00,UTC,0,1011.4,52,0,28,-3.3,-11.9,40340,218,9.6,5.5
2019,3,6,13:00,UTC,3,1011.2,48,0,28,-3.3,-12.8,46940,209,11.9,8.4
2019,3,6,14:00,UTC,7,1010.9,62,0,28,-4,-10.3,50000,209,11.5,6.8
2019,3,6,15:00,UTC,7,1010.5,62,0,28,-4,-10.3,50000,219,10,5.8
2019,3,6,16:00,UTC,7,1010.1,65,0,28,-4.1,-9.6,50000,219,8.9,5.1
2019,3,6,17:00,UTC,8,1010,73,0,28,-3.7,-7.8,50000,217,8.1,5.5
2019,3,6,18:00,UTC,8,1009.8,76,0,28,-3.2,-6.8,35180,207,9.3,6.2
2019,3,6,19:00,UTC,8,1009.7,78,0,28,-3.2,-6.5,28750,206,11,6.6
2019,3,6,20:00,UTC,8,1009.4,79,0,28,-2.8,-5.9,48880,206,9.7,6.1
2019,3,6,21:00,UTC,8,1009.2,84,0,28,-2.5,-4.8,48530,195,9.4,6.5
2019,3,6,22:00,UTC,8,1008.8,87,0,28,-1.9,-3.8,35760,195,8.6,5.3
2019,3,6,23:00,UTC,8,1008.4,93,0,28,-1.7,-2.7,2380,196,9.4,5.5
2019,3,7,00:00,UTC,7,1007.7,95,0.4,28,-1.6,-2.4,1250,194,8.9,4.8
2019,3,7,01:00,UTC,8,1007.1,90,0,28,-0.8,-2.3,31870,193,10.9,7.6
2019,3,7,02:00,UTC,8,1006.4,89,0,29,-0.4,-2,41580,209,10.4,7
2019,3,7,03:00,UTC,8,1005.8,89,0,29,-0.3,-1.9,47440,205,9.5,6.2
2019,3,7,04:00,UTC,7,1005.4,87,0,29,-0.4,-2.3,47250,194,8.2,5.3
2019,3,7,05:00,UTC,8,1004.9,86,0,29,-0.4,-2.5,40020,174,8.2,5.2
2019,3,7,06:00,UTC,8,1004.5,86,0,29,-0.6,-2.7,40960,158,7.7,4.9
2019,3,7,07:00,UTC,7,1003.8,81,0,28,-0.5,-3.3,47110,150,8.3,4.6
2019,3,7,08:00,UTC,7,1003.3,80,0,28,-0.2,-3.2,22870,126,7.3,5
2019,3,7,09:00,UTC,8,1002.5,87,0.4,29,-0.3,-2.1,3030,119,5.7,3.9
2019,3,7,10:00,UTC,8,1001.6,90,0.6,29,-0.3,-1.7,2060,118,8.3,5.7
2019,3,7,11:00,UTC,8,1000.3,95,0.5,30,-0.2,-0.9,3110,101,6.8,4.3
2019,3,7,12:00,UTC,8,998.9,94,0.8,31,0.3,-0.5,2730,106,7.6,5.2
2019,3,7,13:00,UTC,8,998,96,1.6,31,0.5,-0.1,2130,119,8.4,5.3
2019,3,7,14:00,UTC,8,997.4,98,1.1,32,0.4,0,2050,130,8.3,5.4
2019,3,7,15:00,UTC,8,996.4,98,0.8,33,0.3,0,1990,115,7.6,5.5
2019,3,7,16:00,UTC,8,995.8,98,0.9,33,0,-0.2,1710,109,7.7,5.3
2019,3,7,17:00,UTC,8,995.1,98,0.3,34,0.2,0,5180,114,6.8,5.2
2019,3,7,18:00,UTC,8,994.3,98,0,34,0.3,0.1,7040,117,6,4.2
2019,3,7,19:00,UTC,8,993.4,98,0,34,0.5,0.2,3620,117,5.8,3.7
2019,3,7,20:00,UTC,8,992.7,98,0.5,34,0.7,0.5,4020,136,7.3,4.1
2019,3,7,21:00,UTC,8,992,98,0.4,33,1,0.8,3220,147,7.7,4.2
2019,3,7,22:00,UTC,8,991.4,99,0.2,33,1.2,1,4450,151,7.2,4.7
2019,3,7,23:00,UTC,7,990.7,99,0.8,33,1.5,1.4,5440,150,8.4,5.2
2019,3,8,00:00,UTC,8,989.9,99,0.8,32,1.8,1.7,3920,148,8.4,5.5
2019,3,8,01:00,UTC,8,989.2,99,0.5,32,2.1,1.9,2630,149,8.3,5.6
2019,3,8,02:00,UTC,8,988.7,99,0,31,1.8,1.6,5020,160,8.5,5.2
2019,3,8,03:00,UTC,7,988.4,97,0,31,2.6,2.2,5450,192,10.9,7.2
2019,3,8,04:00,UTC,8,988.4,95,0,31,2.5,1.7,9520,214,12,7.6
2019,3,8,05:00,UTC,8,988.9,94,0,31,2.6,1.7,16560,208,10.1,6.5
2019,3,8,06:00,UTC,7,989.3,94,0,30,2.5,1.5,17210,206,10,6.5
2019,3,8,07:00,UTC,7,989.5,90,0,30,2.7,1.1,27380,205,11.4,7.7
2019,3,8,08:00,UTC,5,989.4,87,0,30,3.1,1.1,21270,201,11.8,6.9
2019,3,8,09:00,UTC,8,989.4,89,0,29,2.7,1.1,20280,200,13.1,6.7
2019,3,8,10:00,UTC,7,989.1,89,0,29,3.3,1.7,22290,193,10,5.9
2019,3,8,11:00,UTC,7,988.6,85,0,29,4.3,2,31150,175,12.6,7.8
2019,3,8,12:00,UTC,7,988,85,0,28,4.2,1.9,28610,175,12.9,7.6
2019,3,8,13:00,UTC,7,987.2,84,0,28,4.4,2,33090,175,12.6,8.3
2019,3,8,14:00,UTC,7,986.4,85,0,27,4.1,1.8,32430,158,13.2,7.8
2019,3,8,15:00,UTC,7,985.5,90,0.6,27,3.5,2.1,14450,157,10.9,6.3
2019,3,8,16:00,UTC,7,984.8,93,1.7,27,3,2.1,7430,185,8.5,5.5
2019,3,8,17:00,UTC,8,983.7,95,0.8,27,2.8,2.1,9080,164,9.2,4.7
2019,3,8,18:00,UTC,8,982.8,94,0,27,3.1,2.2,31850,168,12.2,6.9
2019,3,8,19:00,UTC,7,981.8,95,0,26,2.7,2,8910,165,10.8,6.2
2019,3,8,20:00,UTC,8,981.2,96,0.8,26,2.5,1.9,12020,174,11.9,7.1
2019,3,8,21:00,UTC,8,980.8,98,0,26,2.2,1.8,3940,175,11.3,6.3
2019,3,8,22:00,UTC,8,980.3,98,0,26,2.3,2,4350,193,13.5,7.6
2019,3,8,23:00,UTC,8,980,96,1.5,26,1,0.5,4800,197,12.9,7.7
2019,3,9,00:00,UTC,8,979.3,97,0,26,0.4,0.1,1840,205,11.4,8
2019,3,9,01:00,UTC,8,978.6,98,1.2,26,0.3,0.1,2110,205,10,5.9
2019,3,9,02:00,UTC,8,979.3,98,0.6,27,0.3,0.1,2610,262,16.6,9.1
2019,3,9,03:00,UTC,8,982.1,93,0,27,-1.6,-2.7,2040,269,17,9.6
2019,3,9,04:00,UTC,7,984.5,90,0.3,27,-2.1,-3.6,1570,266,17.2,11.3
2019,3,9,05:00,UTC,7,986.6,80,0,27,-2.1,-5,26370,263,19.7,10.9
2019,3,9,06:00,UTC,7,987.9,83,0,27,-2.1,-4.5,20940,249,11.4,7.8
2019,3,9,07:00,UTC,7,988.6,85,0,27,-1.3,-3.6,41720,242,14.7,7.6
2019,3,9,08:00,UTC,5,989.6,79,0,27,-0.5,-3.8,42370,244,15.5,9.3
2019,3,9,09:00,UTC,1,990.5,74,1.2,27,-0.3,-4.4,50000,247,14.8,10.8
2019,3,9,10:00,UTC,1,991.4,73,0,27,-0.2,-4.5,50000,252,11.8,7.9
2019,3,9,11:00,UTC,1,991.8,71,0,27,1.3,-3.4,42010,247,8.3,5.5
2019,3,9,12:00,UTC,3,992,65,0,27,1.9,-4,47550,217,12.4,7.2
2019,3,9,13:00,UTC,7,992,73,0,27,1.3,-3,50000,212,10.2,6.7
2019,3,9,14:00,UTC,7,991.7,69,0,27,1.5,-3.6,50000,217,9.4,6.9
2019,3,9,15:00,UTC,7,991.4,83,0,27,0.8,-1.8,3760,218,10.3,7.6
2019,3,9,16:00,UTC,7,990.9,94,0.9,27,0,-0.9,1310,218,6.4,3.5
2019,3,9,17:00,UTC,7,990.4,97,0,27,0.3,-0.1,6050,201,5.3,3.6
2019,3,9,18:00,UTC,7,989.8,97,1.2,27,0.7,0.3,4570,198,6.8,4.8
2019,3,9,19:00,UTC,7,988.9,92,0.1,28,1.3,0.2,4870,193,9.2,5
2019,3,9,20:00,UTC,7,988.1,90,0,28,1.5,0,18350,195,7.7,5.1
2019,3,9,21:00,UTC,7,987.3,95,0.4,28,0.8,0.2,3390,190,8.4,4.7
2019,3,9,22:00,UTC,7,986.5,96,0,28,1,0.4,18410,190,6.5,3.1
2019,3,9,23:00,UTC,7,985.7,94,0.3,28,1.2,0.3,14870,155,4.5,3
2019,3,10,00:00,UTC,7,984.9,95,0,28,0.9,0.3,15580,147,5.7,3.5
2019,3,10,01:00,UTC,7,984.1,98,0,28,0.4,0.1,5010,138,4,2.1
2019,3,10,02:00,UTC,7,983.4,98,0.3,28,0.7,0.5,9390,144,4.3,2.8
2019,3,10,03:00,UTC,7,982.8,98,0.4,28,0.9,0.6,6350,197,4.3,2.4
2019,3,10,04:00,UTC,7,982.6,98,0.8,28,0.2,0,1720,223,4.1,2.7
2019,3,10,05:00,UTC,7,982.7,99,0.4,28,0.2,0,2980,272,4.3,2.9
2019,3,10,06:00,UTC,7,983.3,93,0,28,-1.2,-2.1,12230,319,8,4
2019,3,10,07:00,UTC,7,983.9,91,0,28,-1.6,-3,30640,325,6.6,3.4
2019,3,10,08:00,UTC,7,984.4,87,0,28,-1,-3,20110,318,6.1,3.2
2019,3,10,09:00,UTC,3,985.4,84,0,28,-0.9,-3.3,49010,299,6.6,3
2019,3,10,10:00,UTC,8,985.8,77,0,28,-0.5,-4,50000,298,8.9,4.9
2019,3,10,11:00,UTC,1,986.5,65,0,28,-0.4,-6.3,50000,266,8.9,5.8
2019,3,10,12:00,UTC,5,987,55,0,28,0.4,-7.6,46380,262,8,4.6
2019,3,10,13:00,UTC,1,987.5,58,0,28,-1.3,-8.5,50000,271,8,5.2
2019,3,10,14:00,UTC,5,987.8,57,0,28,-1.2,-8.7,50000,256,7.8,5.1
2019,3,10,15:00,UTC,5,988.2,57,0,28,-1,-8.5,50000,252,5.2,3.4
2019,3,10,16:00,UTC,7,988.2,60,0,28,-1.5,-8.3,50000,239,5.3,3.3
2019,3,10,17:00,UTC,1,988.2,66,0,28,-2.7,-8.1,50000,252,3.8,2.7
2019,3,10,18:00,UTC,1,988.1,72,0,28,-2.9,-7.2,50000,245,5.9,3.9
2019,3,10,19:00,UTC,3,988.3,77,0,28,-3.2,-6.7,50000,243,6.5,4.6
2019,3,10,20:00,UTC,5,988.4,80,0,28,-3.6,-6.6,50000,246,5.3,3.8
2019,3,10,21:00,UTC,0,988.5,75,0,28,-4.4,-8.1,50000,248,6.5,4.3
2019,3,10,22:00,UTC,0,988.4,77,0,28,-5.1,-8.5,50000,208,4,2.9
2019,3,10,23:00,UTC,0,988.2,79,0,28,-5.5,-8.6,50000,233,5.2,3.4
2019,3,11,00:00,UTC,1,988.3,80,0,28,-5.4,-8.2,50000,247,5.6,4.1
2019,3,11,01:00,UTC,0,988.3,86,0,28,-6.3,-8.3,50000,249,4,2.9
2019,3,11,02:00,UTC,0,988.4,88,0,28,-6.3,-8,50000,246,5,3.7
2019,3,11,03:00,UTC,1,988.5,92,0,28,-7.1,-8.1,50000,260,3.6,2.5
2019,3,11,04:00,UTC,3,988.7,93,0,28,-7.1,-8,40440,4,2.4,1.4
2019,3,11,05:00,UTC,8,988.9,92,0,28,-6.6,-7.7,34110,317,2.7,1.1
2019,3,11,06:00,UTC,7,989.1,90,0,28,-6.4,-7.8,4570,333,2.1,0.8
2019,3,11,07:00,UTC,7,989.5,84,0,28,-5.9,-8.3,4520,274,4.4,2.9
2019,3,11,08:00,UTC,3,990,80,0,27,-5.6,-8.4,9070,271,5.5,3.4
2019,3,11,09:00,UTC,3,990.6,68,0,27,-4.2,-9.3,47310,290,5.9,3.8
2019,3,11,10:00,UTC,7,991.3,72,0,28,-4.1,-8.3,7590,266,7.6,5.1
2019,3,11,11:00,UTC,8,991.8,75,0,28,-3.6,-7.4,4700,289,7.5,4.6
2019,3,11,12:00,UTC,8,992.4,76,0,28,-3.6,-7.3,7130,275,7.7,4.3
2019,3,11,13:00,UTC,7,993,79,0,28,-3.5,-6.7,3920,267,6.4,4.3
2019,3,11,14:00,UTC,7,993.5,69,0,29,-3.2,-8.1,24270,289,7.3,3.1
2019,3,11,15:00,UTC,1,994,72,0,29,-4,-8.3,48430,286,5.1,3.4
2019,3,11,16:00,UTC,0,994.6,79,0,29,-4.7,-7.8,50000,281,4.7,3
2019,3,11,17:00,UTC,7,995.3,83,0,29,-4.8,-7.2,6470,282,5,3.1
2019,3,11,18:00,UTC,7,996,84,0,29,-5.1,-7.5,16840,281,4.8,3.4
2019,3,11,19:00,UTC,8,996.4,87,0,29,-5.5,-7.4,13250,286,4.8,3.4
2019,3,11,20:00,UTC,3,997,90,0,29,-6.3,-7.8,21240,300,3.9,2.5
2019,3,11,21:00,UTC,1,997.6,92,0,29,-7,-8,33530,305,4.3,2.6
2019,3,11,22:00,UTC,0,998.2,93,0,29,-7.7,-8.6,28420,305,4.3,3
2019,3,11,23:00,UTC,0,998.9,92,0,29,-7.6,-8.7,36860,309,5,3.2
2019,3,12,00:00,UTC,0,999.4,90,0,29,-8,-9.4,50000,314,5.5,3.4
2019,3,12,01:00,UTC,1,1000,91,0,29,-9,-10.2,42820,306,5,3.2
2019,3,12,02:00,UTC,0,1000.8,91,0,29,-9.6,-10.7,40350,291,4.3,3.3
2019,3,12,03:00,UTC,3,1001.4,91,0,29,-9.4,-10.6,50000,294,5.4,3.6
2019,3,12,04:00,UTC,7,1002.1,90,0,29,-9.8,-11,45250,289,5.4,3.9
2019,3,12,05:00,UTC,3,1002.7,90,0,29,-9.3,-10.6,46180,293,5.2,3.5
2019,3,12,06:00,UTC,0,1003.2,89,0,29,-8.4,-9.8,42230,288,5.4,3.7
2019,3,12,07:00,UTC,1,1003.4,83,0,29,-5.8,-8.2,38510,298,7,4.2
2019,3,12,08:00,UTC,1,1003.8,78,0,29,-4.6,-7.8,16360,292,8.1,5.1
2019,3,12,09:00,UTC,1,1004.2,72,0,28,-2.7,-7.1,38550,310,7.6,4.8
2019,3,12,10:00,UTC,3,1004.4,67,0,28,-1.9,-7.2,40560,304,8.6,5.6
2019,3,12,11:00,UTC,8,1005.1,69,0,29,-1.8,-6.8,28120,300,7.3,3.5
2019,3,12,12:00,UTC,8,1005.3,71,0,29,-2,-6.6,32970,292,7.8,5
2019,3,12,13:00,UTC,8,1005.7,67,0,29,-1.5,-6.9,46750,293,9.2,5.3
2019,3,12,14:00,UTC,8,1006.1,70,0,29,-1.8,-6.6,31750,302,8.9,6.3
2019,3,12,15:00,UTC,8,1006.3,73,0,29,-2,-6.2,46220,309,8,4.2
2019,3,12,16:00,UTC,7,1006.7,70,0,29,-2.3,-7.1,50000,287,3.8,2.2
2019,3,12,17:00,UTC,1,1007.3,76,0,29,-3.4,-7.1,50000,258,4.3,3
2019,3,12,18:00,UTC,0,1007.4,79,0,29,-4.1,-7.1,50000,251,4,3.2
2019,3,12,19:00,UTC,0,1007.6,79,0,29,-4.3,-7.3,50000,253,3,2.3
2019,3,12,20:00,UTC,0,1007.9,82,0,29,-4.9,-7.5,50000,255,4.7,3.4
2019,3,12,21:00,UTC,0,1007.7,89,0,29,-5.9,-7.5,42560,323,2.4,1.9
2019,3,12,22:00,UTC,0,1008.2,91,0,29,-7.4,-8.6,29010,301,3.2,2.6
2019,3,12,23:00,UTC,0,1008.1,92,0,29,-7.9,-8.9,31750,356,3.6,2.8
2019,3,13,00:00,UTC,0,1007.5,92,0,29,-8.8,-9.9,19700,22,3.1,2
2019,3,13,01:00,UTC,0,1007.9,91,0,29,-8.4,-9.7,31400,133,1.3,0.6
2019,3,13,02:00,UTC,0,1008,93,0,29,-9.5,-10.4,20360,37,0.6,0.5
2019,3,13,03:00,UTC,0,1007.7,93,0,29,-9.9,-10.8,22670,46,1.9,1.6
2019,3,13,04:00,UTC,0,1007.8,92,0,29,-10.4,-11.4,22980,44,2.1,1.8
2019,3,13,05:00,UTC,1,1007.6,91,0,29,-10.4,-11.6,13640,55,3,2.5
2019,3,13,06:00,UTC,7,1007.6,92,0,29,-7.9,-9,17720,72,3.9,2.6
2019,3,13,07:00,UTC,8,1007.3,87,0,29,-5.3,-7.1,18270,68,3.8,2.5
2019,3,13,08:00,UTC,7,1007.2,80,0,29,-2.6,-5.7,35840,116,6.8,4.5
2019,3,13,09:00,UTC,8,1007.2,71,0,29,-1.6,-6.1,50000,131,9,6.1
2019,3,13,10:00,UTC,8,1007,70,0,29,-1.2,-6,38550,134,9,5.7
2019,3,13,11:00,UTC,8,1007.1,66,0,29,-0.9,-6.5,40540,118,10,6.2
2019,3,13,12:00,UTC,7,1006.6,65,0,29,-0.6,-6.3,45860,112,9.2,6.4
2019,3,13,13:00,UTC,1,1006.1,66,0,29,-0.7,-6.3,43270,106,9.6,6.2
2019,3,13,14:00,UTC,5,1005.3,71,0,29,-1.3,-5.9,36820,91,11.5,8.7
2019,3,13,15:00,UTC,5,1004.9,72,0,29,-1.1,-5.6,48390,94,11.9,7.6
2019,3,13,16:00,UTC,7,1004.7,76,0,29,-1.1,-4.8,50000,92,11,7.2
2019,3,13,17:00,UTC,7,1004.8,74,0,29,-0.6,-4.6,50000,100,10,6.1
2019,3,13,18:00,UTC,8,1004.5,74,0,29,-0.7,-4.8,50000,103,10,6.6
2019,3,13,19:00,UTC,8,1004.1,74,0,29,-0.7,-4.8,50000,108,9.6,5.7
2019,3,13,20:00,UTC,8,1003.6,93,1.6,29,-1.6,-2.6,1000,121,9.3,6.3
2019,3,13,21:00,UTC,8,1003.1,96,1.1,30,-1.4,-2,1260,118,8.6,6.2
2019,3,13,22:00,UTC,8,1002.6,96,1.1,32,-1.1,-1.7,1300,117,10.1,5.9
2019,3,13,23:00,UTC,8,1002,96,0.9,32,-0.8,-1.4,1830,123,9,5.7
2019,3,14,00:00,UTC,8,1001.6,97,1.2,33,-0.7,-1.2,1420,121,8.6,5.9
2019,3,14,01:00,UTC,8,1001.2,97,0,34,-0.3,-0.8,12150,133,9.4,5.6
2019,3,14,02:00,UTC,8,1000.7,97,0.7,34,0.1,-0.3,3750,135,9.2,6.2
2019,3,14,03:00,UTC,8,1000.6,97,0,34,0.4,-0.1,10000,138,7.9,4.1
2019,3,14,04:00,UTC,8,1000.2,98,0,34,0.5,0.2,6590,142,8.3,5.1
2019,3,14,05:00,UTC,7,1000,97,0,34,0.6,0.3,7190,142,8.3,5.4
2019,3,14,06:00,UTC,7,999.9,96,0,34,0.7,0.2,9900,143,6.1,3.3
2019,3,14,07:00,UTC,7,999.8,95,0,34,0.9,0.2,10770,125,8,5.2
2019,3,14,08:00,UTC,7,999.7,94,0,33,1,0.2,7990,115,6.9,5
2019,3,14,09:00,UTC,7,999.6,93,0,33,1.3,0.3,13680,114,8.3,5.8
2019,3,14,10:00,UTC,7,998.8,91,0,33,1.4,0.1,20050,96,8,5.1
2019,3,14,11:00,UTC,7,998.5,91,0,32,1.4,0.1,19500,87,5.7,3.5
2019,3,14,12:00,UTC,7,998.2,90,0,32,1.4,0,20100,77,6.3,4.2
2019,3,14,13:00,UTC,7,997.6,87,0,32,2,0,22270,93,7.5,5
2019,3,14,14:00,UTC,7,997.2,89,0,31,1.9,0.3,21040,82,7.1,4.7
2019,3,14,15:00,UTC,7,996.6,89,0,31,1.8,0.1,23690,81,5.6,3.6
2019,3,14,16:00,UTC,7,996.6,89,0,31,1.7,0.1,31480,92,6.7,3.9
2019,3,14,17:00,UTC,7,996.5,89,0,31,1.7,0,26130,60,5.6,4.3
2019,3,14,18:00,UTC,7,996.3,89,0,31,1.7,0,25410,87,6.6,4.6
2019,3,14,19:00,UTC,7,995.9,89,0,31,1.7,0.1,21440,85,6.7,4.6
2019,3,14,20:00,UTC,7,995.5,89,0,31,1.9,0.3,16840,81,5.2,3.7
2019,3,14,21:00,UTC,7,995,88,0,31,2.1,0.3,19360,101,6.4,4.1
2019,3,14,22:00,UTC,7,994.5,88,0,30,2.2,0.5,23200,116,7.9,5.8
2019,3,14,23:00,UTC,7,994.4,91,0,30,2.1,0.7,20500,119,8,5.4
2019,3,15,00:00,UTC,7,994,92,0,30,1.9,0.8,17140,126,7.1,4.1
2019,3,15,01:00,UTC,7,993.9,93,0,30,1.9,0.9,16000,132,6.3,4.1
2019,3,15,02:00,UTC,7,993.9,94,0,30,2,1.2,17660,149,8.5,5.2
2019,3,15,03:00,UTC,7,994,97,0,30,1.7,1.2,10790,155,7.1,4
2019,3,15,04:00,UTC,7,994,97,0,30,1.7,1.3,10540,168,8.3,5
2019,3,15,05:00,UTC,7,994.3,98,0,29,1.4,1.1,3440,177,8.9,5.4
2019,3,15,06:00,UTC,7,994.4,98,0.3,29,1.3,1.1,2600,180,10,4.2
2019,3,15,07:00,UTC,7,994.6,99,0,29,1.4,1.3,5900,195,10.3,7.1
2019,3,15,08:00,UTC,7,995.1,98,0,29,1.6,1.4,8890,197,8.7,5.8
2019,3,15,09:00,UTC,7,995.5,96,0,29,1.8,1.2,6740,204,9.5,5.2
2019,3,15,10:00,UTC,8,995.6,98,0,28,1.8,1.5,2920,178,6.9,4.3
2019,3,15,11:00,UTC,8,995.6,95,0,28,2,1.3,12130,171,9,4.8
2019,3,15,12:00,UTC,8,995.6,93,0,28,1.9,0.9,38110,,,
2019,3,15,13:00,UTC,8,995.4,94,0,28,1.9,1,16000,174,7,4.1
2019,3,15,14:00,UTC,8,995.1,94,0,28,2.1,1.2,8350,157,6.4,3.5
2019,3,15,15:00,UTC,7,994.9,97,1.3,28,1.7,1.3,4230,157,6.4,3.4
2019,3,15,16:00,UTC,7,994.5,97,0,28,1.8,1.5,10210,130,5.9,3.3
2019,3,15,17:00,UTC,7,994.2,98,0.7,27,2.1,1.8,8340,123,5,3.5
2019,3,15,18:00,UTC,8,993.7,98,0,28,2.2,1.8,8590,130,5.4,3.6
2019,3,15,19:00,UTC,7,993.1,97,0,27,2.2,1.8,10960,130,5.5,3.8
2019,3,15,20:00,UTC,5,992.7,94,0,27,2.2,1.4,16100,121,6.6,3.5
2019,3,15,21:00,UTC,8,991.8,90,0,27,2.7,1.3,23370,101,6.8,4.5
2019,3,15,22:00,UTC,7,991.5,91,0.3,27,2.4,1.1,20540,113,9.4,5.9
2019,3,15,23:00,UTC,8,991,93,0.9,27,2,1,10930,111,8.3,5.6
2019,3,16,00:00,UTC,8,990.5,93,0.3,27,1.9,0.8,9690,102,8.4,4.5
2019,3,16,01:00,UTC,7,990.2,94,0,27,1.9,1,8270,105,10.1,5.3
2019,3,16,02:00,UTC,7,990,95,0.5,27,1.6,0.9,6790,106,9.3,5.4
2019,3,16,03:00,UTC,7,989.9,96,0.6,27,1.5,0.9,6040,100,7.7,4.7
2019,3,16,04:00,UTC,7,989.9,95,0.3,27,1.7,1,8170,99,9.1,4.7
2019,3,16,05:00,UTC,8,990.1,96,0,26,1.5,0.9,7080,88,7.8,5.2
2019,3,16,06:00,UTC,7,990.2,96,0.4,26,1.5,0.9,6400,92,8.2,5.6
2019,3,16,07:00,UTC,7,990.6,95,0,26,1.4,0.7,7430,101,9,4.9
2019,3,16,08:00,UTC,8,991.2,96,0.3,26,1.2,0.6,7090,85,7.3,3.9
2019,3,16,09:00,UTC,7,991.7,97,0.4,27,0.9,0.4,4850,78,5.3,3.4
2019,3,16,10:00,UTC,8,992.1,97,0,27,1.3,0.9,6970,82,5.2,3.4
2019,3,16,11:00,UTC,8,992.5,96,0,27,1.5,0.9,8440,88,4.9,3.3
2019,3,16,12:00,UTC,7,993.1,96,0,26,1.6,1,9460,82,5,3.8
2019,3,16,13:00,UTC,8,993.7,95,0,26,1.7,1,11290,87,4.7,3.4
2019,3,16,14:00,UTC,7,994,95,0,26,1.6,0.9,9520,87,4.4,2.7
2019,3,16,15:00,UTC,7,994.4,96,0,26,1.4,0.9,7580,85,3.6,2.4
2019,3,16,16:00,UTC,8,995,95,0,26,1.6,0.9,10580,90,2.9,1.6
2019,3,16,17:00,UTC,7,995.3,97,0.3,26,1.5,1,6240,89,3.6,2.2
2019,3,16,18:00,UTC,8,995.7,97,0,26,1.9,1.4,8360,115,4.5,3.1
2019,3,16,19:00,UTC,8,996.3,97,0,26,1.8,1.3,5900,135,6,3.7
2019,3,16,20:00,UTC,7,996.4,97,0.3,25,1.7,1.3,7030,125,6.1,3.6
2019,3,16,21:00,UTC,7,996.8,98,0,25,1.6,1.3,5820,133,6.5,4.7
2019,3,16,22:00,UTC,8,997.1,98,0.3,25,1.7,1.4,3180,135,6.8,4.3
2019,3,16,23:00,UTC,9,997.3,99,0.3,25,1.6,1.5,890,149,6.2,4.4
2019,3,17,00:00,UTC,7,997.5,99,0,25,1.5,1.4,2010,218,2.5,1.8
2019,3,17,01:00,UTC,8,998.1,99,0,25,1.5,1.4,3130,200,3.2,2
2019,3,17,02:00,UTC,8,998.3,99,0,25,1.5,1.4,3730,154,4.4,2
2019,3,17,03:00,UTC,9,998.2,100,0,25,1.3,1.3,610,190,4.8,3
2019,3,17,04:00,UTC,8,998.4,100,0,25,1.1,1.1,1120,192,3.5,2.4
2019,3,17,05:00,UTC,9,998.8,100,0,25,1,1,780,203,4.9,3.2
2019,3,17,06:00,UTC,7,999.2,100,0,25,1,0.9,2350,186,5.9,4
2019,3,17,07:00,UTC,7,999.6,100,0,25,1.1,1,1180,180,6.7,3.5
2019,3,17,08:00,UTC,8,999.7,100,0,25,1.4,1.3,10960,171,8.3,4.9
2019,3,17,09:00,UTC,7,1000.1,96,0,25,2,1.3,30790,156,7.5,4.9
2019,3,17,10:00,UTC,8,1000.1,91,0,25,2,0.7,39020,142,7.1,4.1
2019,3,17,11:00,UTC,7,999.5,86,0,24,2.2,0.2,50000,118,8.3,5.5
2019,3,17,12:00,UTC,8,999.3,84,0,25,2.2,-0.3,50000,122,8.6,5.2
2019,3,17,13:00,UTC,7,998.6,82,0,24,2.5,-0.3,50000,116,9.1,6.5
2019,3,17,14:00,UTC,8,997.7,82,0,24,2.2,-0.5,34320,116,12.7,9.6
2019,3,17,15:00,UTC,7,996.8,96,1.6,24,0.4,-0.1,1520,108,12.6,8.6
2019,3,17,16:00,UTC,8,996.3,97,1,24,0.3,-0.1,2040,108,12.6,8.3
2019,3,17,17:00,UTC,8,995.4,98,0.7,26,0.4,0.1,2270,112,11.5,8.2
2019,3,17,18:00,UTC,8,994.7,96,0.9,26,1.2,0.6,26490,120,11.5,7.4
2019,3,17,19:00,UTC,8,994,96,1,26,1.8,1.1,10420,138,11.7,7.5
2019,3,17,20:00,UTC,8,993.7,97,1.4,25,2.2,1.8,9240,147,14.7,7.6
2019,3,17,21:00,UTC,7,993.9,97,0.6,25,2.5,2.1,9760,159,12.6,7.8
2019,3,17,22:00,UTC,8,994.2,98,0.9,25,2.7,2.4,7170,160,10.8,6.9
2019,3,17,23:00,UTC,7,994.6,98,0,24,3.2,2.9,28790,164,11,6.6
2019,3,18,00:00,UTC,7,994.3,97,0.4,25,2.9,2.6,33550,155,8.4,5.6
2019,3,18,01:00,UTC,8,994.4,96,0,24,2.9,2.4,33450,149,9.5,5.6
2019,3,18,02:00,UTC,8,994.8,95,1,24,3.2,2.4,12240,172,9.5,5.6
2019,3,18,03:00,UTC,8,995.3,93,0,24,2.7,1.7,28850,187,10.2,6
2019,3,18,04:00,UTC,8,995.6,92,0,24,2.9,1.7,37560,196,9.7,5.8
2019,3,18,05:00,UTC,8,996,89,0,24,2.8,1.2,30950,193,9.4,5.7
2019,3,18,06:00,UTC,8,996.6,88,0,24,2.9,1,28280,188,9.4,5.2
2019,3,18,07:00,UTC,8,997.1,85,0,23,3.1,0.9,32240,174,10.2,6.3
2019,3,18,08:00,UTC,8,997.7,83,0,23,3.3,0.7,34130,176,10.5,6.8
2019,3,18,09:00,UTC,8,998.2,86,0,23,3.3,1.2,14680,170,10.1,6.4
2019,3,18,10:00,UTC,7,998.6,84,0,23,3.9,1.3,27700,175,9.6,6
2019,3,18,11:00,UTC,8,998.9,81,0,23,4.2,1.2,39680,175,9.7,6
2019,3,18,12:00,UTC,8,999.4,82,0,22,3.8,1,42180,173,8.1,4.8
2019,3,18,13:00,UTC,7,999.7,79,0,22,4,0.7,44440,173,7.6,4.4
2019,3,18,14:00,UTC,7,1000,84,0,22,3.4,0.9,37030,160,7.4,4.3
2019,3,18,15:00,UTC,8,1000.4,82,0,22,3.7,0.9,45200,174,9.9,5.2
2019,3,18,16:00,UTC,8,1000.9,85,0,22,3.1,0.9,50000,170,9.1,5.4
2019,3,18,17:00,UTC,7,1001.5,86,0,22,3.1,1,49570,175,9.6,5.7
2019,3,18,18:00,UTC,7,1001.9,86,0,22,3,0.9,46960,155,8.5,4.5
2019,3,18,19:00,UTC,7,1002.1,87,0,22,2.8,0.9,41580,142,7.3,4.8
2019,3,18,20:00,UTC,8,1002.2,86,0,22,2.7,0.7,34550,151,9.3,5.6
2019,3,18,21:00,UTC,8,1002.3,87,0,22,2.6,0.7,24240,152,9,5.8
2019,3,18,22:00,UTC,8,1002.4,89,0,22,2.4,0.8,47410,151,9,5.7
2019,3,18,23:00,UTC,8,1002.4,90,0,21,2.4,1,50000,150,7.7,5.4
2019,3,19,00:00,UTC,8,1002.6,94,0,21,1.9,1.1,13070,149,8.7,5.6
2019,3,19,01:00,UTC,8,1002.6,94,0,21,1.8,1,48940,148,8.3,5.2
2019,3,19,02:00,UTC,8,1003,94,0,21,2,1.2,27040,145,7.2,4.4
2019,3,19,03:00,UTC,8,1003.3,95,0,21,2,1.2,7340,151,7.3,4.6
2019,3,19,04:00,UTC,8,1003.7,97,1.2,21,1.7,1.3,6500,160,5.2,3.1
2019,3,19,05:00,UTC,8,1004.3,96,0,20,2,1.5,13680,180,5.4,3.2
2019,3,19,06:00,UTC,7,1004.6,96,0,21,2.2,1.7,19170,154,4.1,2.3
2019,3,19,07:00,UTC,7,1005.2,94,0,21,2.5,1.7,43660,203,4.2,3.1
2019,3,19,08:00,UTC,7,1005.9,93,0,21,2.6,1.6,39700,195,3.1,2
2019,3,19,09:00,UTC,7,1006.6,94,0,21,2.4,1.5,18360,219,5.1,3.5
2019,3,19,10:00,UTC,7,1007.3,91,0,20,3.4,2.1,28860,220,2.6,1.8
2019,3,19,11:00,UTC,5,1007.9,82,0,20,4.2,1.4,44260,207,2.6,1.6
2019,3,19,12:00,UTC,7,1008.6,82,0,19,4.4,1.5,23060,247,3.5,2.4
2019,3,19,13:00,UTC,7,1009.2,91,0,20,3.7,2.3,13490,257,4.3,1.8
2019,3,19,14:00,UTC,7,1010.1,90,0,19,3.7,2.2,32490,321,3.5,2
2019,3,19,15:00,UTC,7,1010.9,90,0,19,3.3,1.7,50000,315,4.2,2.4
2019,3,19,16:00,UTC,7,1012,93,0,20,2.6,1.6,50000,304,3.9,2.7
2019,3,19,17:00,UTC,7,1012.8,95,0,20,2.6,1.8,50000,298,5,2.7
2019,3,19,18:00,UTC,7,1013.9,95,0,20,2.2,1.6,6050,294,7,4.1
2019,3,19,19:00,UTC,7,1015.1,94,0,19,1.9,1.1,10910,301,8.1,4.2
2019,3,19,20:00,UTC,7,1015.5,92,0,19,1.8,0.7,50000,309,7,3.6
2019,3,19,21:00,UTC,7,1016.1,93,0,19,1.5,0.4,44400,298,5.2,3.2
2019,3,19,22:00,UTC,7,1016.5,93,0,19,1.3,0.3,48430,290,5.4,3.4
2019,3,19,23:00,UTC,7,1017.3,92,0,19,1.1,-0.1,48520,292,7.2,4.9
2019,3,20,00:00,UTC,7,1017.7,92,0,19,0.8,-0.4,48020,275,7.7,4.3
2019,3,20,01:00,UTC,7,1018.1,90,0,19,0.4,-1,50000,280,7.5,4.5
2019,3,20,02:00,UTC,7,1018.4,91,0,19,0,-1.2,50000,250,6.4,4.3
2019,3,20,03:00,UTC,7,1018.4,90,0,19,0.1,-1.4,32110,252,5.1,3.2
2019,3,20,04:00,UTC,7,1018.4,93,0,19,-0.2,-1.2,14350,239,4.6,3.2
2019,3,20,05:00,UTC,7,1018.7,86,0,19,-0.3,-2.3,25370,249,7,4.9
2019,3,20,06:00,UTC,7,1018.9,82,0,19,-0.5,-3.2,50000,255,8.3,5.9
2019,3,20,07:00,UTC,3,1018.5,78,0,19,0.1,-3.4,48170,243,6.6,4.9
2019,3,20,08:00,UTC,1,1018.2,77,0,19,0.9,-2.6,47200,213,7.1,4.9
2019,3,20,09:00,UTC,7,1017.9,85,0,19,1.2,-1.1,38080,203,10,6.6
2019,3,20,10:00,UTC,5,1016.9,86,0,19,1.8,-0.3,42590,202,10.5,6.7
2019,3,20,11:00,UTC,7,1016,77,0,19,2.4,-1.3,45700,206,13.2,7.8
2019,3,20,12:00,UTC,7,1015,75,0,19,2.5,-1.4,47540,205,14,8.9
2019,3,20,13:00,UTC,8,1014,90,0,19,1.6,0.1,14690,203,11.9,7.5
2019,3,20,14:00,UTC,8,1013.1,97,0.6,18,0.9,0.4,6820,211,13.3,8
2019,3,20,15:00,UTC,8,1012.9,97,0.9,19,0.9,0.5,4160,221,11.4,6.5
2019,3,20,16:00,UTC,8,1012.9,97,0,19,1,0.6,25050,224,8.4,5
2019,3,20,17:00,UTC,8,1012.9,96,0,19,1.5,0.8,50000,251,9.6,6.8
2019,3,20,18:00,UTC,8,1013.3,94,0,19,1.6,0.8,50000,263,8.2,4.7
2019,3,20,19:00,UTC,7,1014,91,0,19,1.6,0.4,50000,263,8.9,5.4
2019,3,20,20:00,UTC,7,1014.4,93,0,19,1.4,0.3,47000,259,8.5,5.1
2019,3,20,21:00,UTC,5,1014.6,94,0,19,1,0.2,35600,244,7,4.8
2019,3,20,22:00,UTC,0,1014.8,95,0,19,0.6,0,33050,237,6.7,4.7
2019,3,20,23:00,UTC,0,1015.1,93,0,19,0.7,-0.3,44840,247,10,5.7
2019,3,21,00:00,UTC,0,1015.5,93,0,19,0.5,-0.5,46310,249,6.9,5.4
2019,3,21,01:00,UTC,0,1015.7,92,0,19,0.3,-0.8,50000,248,6.4,4.8
2019,3,21,02:00,UTC,0,1015.9,91,0,19,0.3,-0.9,50000,250,6.3,4.8
2019,3,21,03:00,UTC,5,1016.5,91,0,19,0.2,-1.1,50000,252,6.1,4.3
2019,3,21,04:00,UTC,3,1016.5,90,0,19,0.3,-1.3,50000,249,7.3,4.8
2019,3,21,05:00,UTC,3,1016.6,88,0,19,0.5,-1.2,50000,268,6.6,4.5
2019,3,21,06:00,UTC,1,1016.7,82,0,19,1.8,-0.9,50000,245,6.5,5.2
2019,3,21,07:00,UTC,5,1016.7,77,0,19,3,-0.5,50000,249,6.4,5
2019,3,21,08:00,UTC,1,1016.6,70,0,18,4.6,-0.4,41550,247,6.7,4.1
2019,3,21,09:00,UTC,3,1015.8,70,0,18,4.6,-0.4,46230,212,6.2,4.5
2019,3,21,10:00,UTC,5,1015.7,78,0,18,3.9,0.4,50000,206,7.9,5.8
2019,3,21,11:00,UTC,5,1014.8,83,0,17,3.9,1.3,40030,207,8,4.7
2019,3,21,12:00,UTC,5,1013.8,83,0,18,4.1,1.5,35420,207,8.1,5.6
2019,3,21,13:00,UTC,5,1013.2,88,0,17,3.3,1.5,16410,211,9.6,6.3
2019,3,21,14:00,UTC,7,1012.3,90,0,17,2.9,1.5,13140,208,9.4,6.9
2019,3,21,15:00,UTC,8,1011.8,93,0,17,2.7,1.6,12050,224,9.2,6.3
2019,3,21,16:00,UTC,7,1011.6,98,0,17,2.3,2,5420,232,5.4,3.6
2019,3,21,17:00,UTC,8,1011.5,99,0,17,2.6,2.4,2170,246,5.6,3.9
2019,3,21,18:00,UTC,8,1011.1,99,0,16,2.8,2.7,3420,255,6.1,3.7
2019,3,21,19:00,UTC,7,1011.5,99,0,16,3.2,3,12590,282,8.1,4.6
2019,3,21,20:00,UTC,7,1011.8,91,0,16,3.7,2.4,18680,281,9.1,5.4
2019,3,21,21:00,UTC,3,1011.6,85,0,16,3.5,1.2,29230,287,8.1,4.8
2019,3,21,22:00,UTC,7,1012.9,69,0,16,3.9,-1.3,50000,289,13.4,6.7
2019,3,21,23:00,UTC,5,1013.4,60,0,16,3.3,-3.6,50000,295,12.1,7.6
2019,3,22,00:00,UTC,0,1014.5,57,0,16,2.7,-4.9,44410,288,11.7,6.6
2019,3,22,01:00,UTC,0,1015.7,57,0,16,2.1,-5.5,48330,294,13.4,7.2
2019,3,22,02:00,UTC,0,1016.6,59,0,16,1.5,-5.7,50000,296,17.4,7.5
2019,3,22,03:00,UTC,0,1017.6,59,0,16,1.4,-5.8,23960,296,12.9,7.7
2019,3,22,04:00,UTC,0,1018.7,61,0,16,1,-5.7,33210,294,13.1,7
2019,3,22,05:00,UTC,0,1019.8,63,0,16,0.9,-5.4,33830,292,11.9,7.1
2019,3,22,06:00,UTC,0,1020.8,58,0,16,1.9,-5.5,29740,294,14.3,7
2019,3,22,07:00,UTC,0,1022,54,0,16,2.7,-5.7,26300,296,15.9,8.9
2019,3,22,08:00,UTC,0,1022.8,50,0,16,3.7,-5.8,26930,297,14.3,9.2
2019,3,22,09:00,UTC,0,1023.5,44,0,16,4.7,-6.5,35650,298,14.4,8.8
2019,3,22,10:00,UTC,0,1024,40,0,16,5.4,-7.2,41170,302,14.3,8.9
2019,3,22,11:00,UTC,0,1024.3,34,0,15,6.4,-8.2,34890,306,11.7,6.7
2019,3,22,12:00,UTC,0,1025,29,0,15,7,-9.9,34260,304,13.3,8.3
2019,3,22,13:00,UTC,0,1025.3,27,0,15,7.2,-10.8,31920,313,13.4,7.8
2019,3,22,14:00,UTC,0,1026,29,0,15,7.3,-9.8,46130,305,10.1,5.9
2019,3,22,15:00,UTC,0,1026.4,32,0,14,7,-8.8,44050,297,10.8,6.1
2019,3,22,16:00,UTC,0,1027.1,39,0,14,6,-7,50000,278,7.5,4.8
2019,3,22,17:00,UTC,0,1027.8,53,0,14,4.1,-4.7,50000,270,8.4,4.7
2019,3,22,18:00,UTC,0,1027.7,60,0,14,2.4,-4.5,47510,277,5.2,3.7
2019,3,22,19:00,UTC,0,1027.3,61,0,14,1.7,-4.9,40980,273,4.2,3.4
2019,3,22,20:00,UTC,1,1027.1,63,0,14,1.5,-4.8,49250,239,4,3.1
2019,3,22,21:00,UTC,1,1027.3,62,0,14,1.8,-4.8,48350,245,6,4
2019,3,22,22:00,UTC,5,1026.3,63,0,14,1.3,-5.1,47980,210,2.9,1.9
2019,3,22,23:00,UTC,3,1025.9,72,0,14,0.7,-3.9,33220,163,3.6,2.2
2019,3,23,00:00,UTC,7,1025.1,79,0,14,1,-2.3,40460,174,5.8,3.6
2019,3,23,01:00,UTC,7,1024.4,87,0,14,0.9,-1,27030,195,7.2,4.8
2019,3,23,02:00,UTC,7,1023.4,82,0,14,1.1,-1.6,35250,197,8.7,5.6
2019,3,23,03:00,UTC,1,1022.4,76,0,14,1,-2.8,41660,189,10.1,5.2
2019,3,23,04:00,UTC,3,1021.1,74,0,14,0.8,-3.3,45490,180,9.1,6
2019,3,23,05:00,UTC,7,1019.7,67,0,14,1.4,-4,42020,189,10.9,6.9
2019,3,23,06:00,UTC,8,1018.7,64,0,14,1.7,-4.3,41880,191,12.1,6.5
2019,3,23,07:00,UTC,8,1017,58,0,14,2.5,-5,39640,192,16.2,8.4
2019,3,23,08:00,UTC,8,1016,66,0,14,2.6,-3.1,42320,197,15.3,9.4
2019,3,23,09:00,UTC,8,1014.6,81,0,14,2.4,-0.5,33790,209,15.2,8.5
2019,3,23,10:00,UTC,8,1013.8,89,0,14,2.5,0.9,30890,205,14.7,9.4
2019,3,23,11:00,UTC,8,1012.9,95,0.6,14,2.3,1.6,3720,205,17.1,9.4
2019,3,23,12:00,UTC,8,1011.8,97,0.3,14,2.4,2.1,7850,209,14.5,8.9
2019,3,23,13:00,UTC,8,1010.8,98,0,14,2.9,2.6,4380,,,
2019,3,23,14:00,UTC,8,1010.1,99,0,14,3.2,3,1680,218,13.6,9.2
2019,3,23,15:00,UTC,8,1009.7,99,0,13,3.1,3,970,217,10.8,7.2
2019,3,23,16:00,UTC,9,1009.2,100,0,13,2.9,2.8,690,218,7.7,5.6
2019,3,23,17:00,UTC,9,1008.9,100,0,13,2.7,2.6,910,216,7.2,5.4
2019,3,23,18:00,UTC,8,1008.7,100,0,13,2.5,2.5,1940,217,7.3,5.1
2019,3,23,19:00,UTC,7,1008.2,100,0,13,1.7,1.7,1490,217,7.2,4.7
2019,3,23,20:00,UTC,7,1008,100,0,13,1.4,1.4,2760,215,7.5,4.4
2019,3,23,21:00,UTC,3,1007.4,100,0,13,0.9,0.9,5010,223,6.5,4.5
2019,3,23,22:00,UTC,0,1007,100,0,13,0.9,0.8,8120,220,7,5.2
2019,3,23,23:00,UTC,0,1006.6,98,0,13,0.8,0.5,14550,222,6.7,4.8
2019,3,24,00:00,UTC,1,1006.2,86,0,13,1.5,-0.6,39840,246,9.1,6.5
2019,3,24,01:00,UTC,0,1005.9,83,0,13,1.6,-0.9,41690,244,8.4,5.7
2019,3,24,02:00,UTC,1,1005.9,83,0,13,1.4,-1.2,39800,254,7.5,5.3
2019,3,24,03:00,UTC,0,1006.2,84,0,13,0.7,-1.7,48370,261,7,4.8
2019,3,24,04:00,UTC,0,1006.7,79,0,13,0.8,-2.5,50000,253,8,5.6
2019,3,24,05:00,UTC,0,1006.8,75,0,13,1.1,-2.8,50000,248,8.7,6.4
2019,3,24,06:00,UTC,0,1007.1,67,0,13,2.4,-3.1,50000,255,10,6.4
2019,3,24,07:00,UTC,0,1007.4,58,0,13,3.6,-3.9,49210,265,13.1,7.6
2019,3,24,08:00,UTC,0,1007.5,51,0,13,4.6,-4.6,43790,270,11.6,7.5
2019,3,24,09:00,UTC,1,1007.3,48,0,12,5.1,-5,46570,279,16.2,8.6
2019,3,24,10:00,UTC,0,1006.9,47,0,12,5.5,-5.1,39170,271,13.3,7.8
2019,3,24,11:00,UTC,1,1007,43,0,12,5.7,-5.9,40470,270,16.8,10.3
2019,3,24,12:00,UTC,1,1006.8,42,0,12,6.3,-5.6,38470,269,16.1,9.8
2019,3,24,13:00,UTC,0,1006.7,39,0,11,6.5,-6.4,43330,270,15.8,9.3
2019,3,24,14:00,UTC,0,1006.6,37,0,11,6.6,-7.2,47680,271,13.6,8.5
2019,3,24,15:00,UTC,0,1006.4,43,0,11,6.3,-5.5,50000,263,13,6
2019,3,24,16:00,UTC,0,1006,45,0,11,5.9,-5,50000,258,9.3,6.3
2019,3,24,17:00,UTC,0,1005.6,51,0,11,4.7,-4.5,50000,245,8.3,5.5
2019,3,24,18:00,UTC,0,1005.1,60,0,11,3.4,-3.6,50000,235,6.9,4.5
2019,3,24,19:00,UTC,0,1005,66,0,11,2.5,-3.2,50000,227,6,3.9
2019,3,24,20:00,UTC,0,1004.9,73,0,11,1.6,-2.8,49890,228,6.6,3.8
2019,3,24,21:00,UTC,0,1004.6,78,0,11,1.1,-2.4,50000,241,6.9,4
2019,3,24,22:00,UTC,0,1004.4,80,0,11,0.8,-2.3,42580,231,7.5,4.8
2019,3,24,23:00,UTC,0,1004.1,78,0,11,1.3,-2.1,41910,251,9.3,5.5
2019,3,25,00:00,UTC,0,1003.6,83,0,11,0.4,-2.1,44580,247,6,4.8
2019,3,25,01:00,UTC,0,1003.5,88,0,11,-0.7,-2.4,36760,244,4.6,4
2019,3,25,02:00,UTC,3,1003.5,88,0,11,-0.6,-2.3,34740,252,4.8,3.7
2019,3,25,03:00,UTC,7,1003.2,90,0,11,-0.4,-1.9,38240,248,5.4,3.9
2019,3,25,04:00,UTC,7,1002.9,90,0,11,-0.3,-1.8,35960,259,4.9,3.3
2019,3,25,05:00,UTC,7,1003.2,88,0,11,0,-1.7,32220,295,4.1,2.9
2019,3,25,06:00,UTC,7,1002.9,86,0,11,0.5,-1.6,33840,250,4.2,2.8
2019,3,25,07:00,UTC,7,1002.9,77,0,11,2,-1.5,36250,267,4.8,2.8
2019,3,25,08:00,UTC,5,1003.2,74,0,11,2.8,-1.3,28010,286,3.3,2.2
2019,3,25,09:00,UTC,7,1003.4,65,0,11,4.5,-1.6,37890,289,4.6,2.5
2019,3,25,10:00,UTC,7,1003.8,57,0,10,4.9,-3,26540,303,9.7,5.3
2019,3,25,11:00,UTC,7,1004.4,79,0,10,2.5,-0.8,11150,315,8.5,4.9
2019,3,25,12:00,UTC,7,1004.7,87,0,10,1.7,-0.2,9080,309,6.8,3.9
2019,3,25,13:00,UTC,7,1004.4,75,0,10,2.5,-1.4,41530,290,3.4,1.8
2019,3,25,14:00,UTC,3,1004.1,69,0,10,3.6,-1.5,32060,244,4.2,2.7
2019,3,25,15:00,UTC,3,1004,58,0,10,4.5,-3,46760,229,5.1,2.5
2019,3,25,16:00,UTC,7,1004.1,52,0,10,3.8,-5.1,50000,306,7.4,3.2
2019,3,25,17:00,UTC,5,1004.9,77,0,10,0.9,-2.7,50000,283,12.3,7.5
2019,3,25,18:00,UTC,1,1005.2,81,0,9,-0.4,-3.2,50000,281,6.4,3.9
2019,3,25,19:00,UTC,0,1005.4,83,0,10,-0.9,-3.4,50000,282,6.9,4.6
2019,3,25,20:00,UTC,0,1005.5,77,0,10,-1.1,-4.5,50000,290,7.8,4.8
2019,3,25,21:00,UTC,1,1005.6,78,0,9,-1.6,-4.8,50000,290,6.3,4.1
2019,3,25,22:00,UTC,5,1005.6,81,0,10,-1.9,-4.7,50000,284,6,4.2
2019,3,25,23:00,UTC,7,1005.3,77,0,10,-1.4,-4.8,50000,286,8.7,5.3
2019,3,26,00:00,UTC,7,1005.3,79,0,10,-1.5,-4.8,50000,281,8.2,5
2019,3,26,01:00,UTC,3,1005.5,82,0,10,-2,-4.7,50000,286,5.5,3.8
2019,3,26,02:00,UTC,7,1005.5,78,0,10,-2.2,-5.5,50000,292,6,3.7
2019,3,26,03:00,UTC,7,1005.5,84,0,10,-3,-5.3,50000,284,4,3
2019,3,26,04:00,UTC,5,1005.8,82,0,10,-3.1,-5.7,44800,271,4.5,3.1
2019,3,26,05:00,UTC,0,1006.3,80,0,10,-2.9,-5.8,50000,313,4.6,2.5
2019,3,26,06:00,UTC,0,1006.7,65,0,10,-0.9,-6.7,50000,324,5.4,2.8
2019,3,26,07:00,UTC,0,1006.9,48,0,10,0.9,-8.8,39860,332,7.7,4.1
2019,3,26,08:00,UTC,0,1007.4,41,0,10,1,-10.8,44170,340,8.1,4.4
2019,3,26,09:00,UTC,0,1008,39,0,9,1.3,-11.3,38650,323,11.6,6.5
2019,3,26,10:00,UTC,1,1008.5,40,0,9,2,-10,39280,328,11.4,5.6
2019,3,26,11:00,UTC,0,1008.7,40,0,9,2.4,-10,36250,320,11.2,6
2019,3,26,12:00,UTC,0,1009.2,38,0,9,3.2,-9.9,44840,326,10.9,6.4
2019,3,26,13:00,UTC,1,1009.8,37,0,9,3.6,-9.9,49130,322,9.9,4.8
2019,3,26,14:00,UTC,1,1010.6,36,0,9,3.6,-10.1,45360,343,11.3,5.7
2019,3,26,15:00,UTC,0,1011.3,34,0,9,3.4,-11,47790,336,10.7,5.8
2019,3,26,16:00,UTC,1,1012.2,35,0,9,3,-11.1,48940,325,9.6,4.4
2019,3,26,17:00,UTC,0,1012.7,36,0,9,1.8,-11.7,50000,325,5.9,3.8
2019,3,26,18:00,UTC,0,1013.7,44,0,9,-0.4,-11.1,50000,296,5,3.5
2019,3,26,19:00,UTC,0,1014.1,48,0,9,-1.2,-10.7,50000,304,4.6,3.3
2019,3,26,20:00,UTC,0,1014.4,53,0,9,-2,-10.4,45190,294,4.4,3.3
2019,3,26,21:00,UTC,0,1014.8,51,0,9,-2.3,-11,50000,291,4,3.3
2019,3,26,22:00,UTC,0,1015.4,58,0,9,-3,-10.2,50000,284,4.8,3.8
2019,3,26,23:00,UTC,0,1015.7,58,0,9,-2.8,-10.1,50000,299,4.3,3.2
2019,3,27,00:00,UTC,0,1016.2,63,0,9,-3.3,-9.4,50000,301,4,3
2019,3,27,01:00,UTC,0,1016.3,66,0,9,-3.7,-9.1,50000,301,4.4,2.8
2019,3,27,02:00,UTC,0,1016.5,71,0,9,-4.1,-8.6,50000,302,4.5,3.1
2019,3,27,03:00,UTC,0,1016.8,74,0,9,-4.6,-8.5,50000,302,4.3,3.1
2019,3,27,04:00,UTC,0,1017.3,77,0,9,-4.9,-8.4,50000,302,3.6,2.5
2019,3,27,05:00,UTC,0,1017.8,76,0,10,-4.6,-8.1,49480,310,2.7,1.8
2019,3,27,06:00,UTC,0,1018.2,64,0,9,-1.9,-7.8,40500,342,3.5,1.8
2019,3,27,07:00,UTC,3,1018.3,61,0,9,-0.9,-7.3,26150,52,2.5,1.5
2019,3,27,08:00,UTC,5,1018.7,53,0,9,1.3,-7.2,25980,152,1.9,0.9
2019,3,27,09:00,UTC,5,1019.1,55,0,9,2.4,-5.9,25410,138,4.4,2.6
2019,3,27,10:00,UTC,0,1019.2,45,0,9,2.9,-7.9,29900,204,4.9,3.4
2019,3,27,11:00,UTC,0,1019.4,57,0,9,2.3,-5.3,47240,202,5.9,4.2
2019,3,27,12:00,UTC,0,1019.4,58,0,9,2.6,-5,48130,192,6.7,5.1
2019,3,27,13:00,UTC,1,1019.3,54,0,8,3.4,-5,47150,191,6.4,4.6
2019,3,27,14:00,UTC,1,1019.4,53,0,8,3.1,-5.5,50000,207,7.8,4.9
2019,3,27,15:00,UTC,7,1019.6,67,0,8,2,-3.5,50000,218,6.1,4.5
2019,3,27,16:00,UTC,8,1019.7,65,0,8,1.8,-4,50000,210,5.6,3.9
2019,3,27,17:00,UTC,7,1019.5,66,0,8,1.5,-4.2,50000,206,5.9,4
2019,3,27,18:00,UTC,7,1019.7,71,0,8,1.1,-3.5,50000,217,6.4,4.6
2019,3,27,19:00,UTC,8,1019.8,77,0,8,1.5,-2.2,50000,223,6.7,4.3
2019,3,27,20:00,UTC,8,1019.7,82,0,8,1.5,-1.3,50000,245,5.5,3.7
2019,3,27,21:00,UTC,8,1020,85,0,8,1.3,-1,50000,234,4.8,3
2019,3,27,22:00,UTC,5,1020.2,88,0,8,0.7,-1,43420,231,5,3.1
2019,3,27,23:00,UTC,0,1020.5,92,0,8,0.1,-1,40900,229,4.4,3
2019,3,28,00:00,UTC,1,1020.7,93,0,8,-0.2,-1.2,30140,247,4.9,2.5
2019,3,28,01:00,UTC,0,1020.8,95,0,8,-0.4,-1.2,34220,247,5.5,3.3
2019,3,28,02:00,UTC,0,1020.7,94,0,8,-0.9,-1.7,44830,243,6.1,4
2019,3,28,03:00,UTC,0,1020.5,95,0,8,-1.3,-1.9,33350,255,3.2,2.3
2019,3,28,04:00,UTC,0,1021.2,96,0,8,-1.6,-2.2,27120,260,4,3.2
2019,3,28,05:00,UTC,0,1021.7,96,0,8,-1.2,-1.7,29470,240,3.2,2.1
2019,3,28,06:00,UTC,0,1021.6,91,0,8,0,-1.4,43080,264,3.2,1.8
2019,3,28,07:00,UTC,0,1021.6,80,0,8,2.5,-0.7,39310,245,2.5,1.5
2019,3,28,08:00,UTC,1,1021.7,76,0,8,3.1,-0.6,38400,229,4.3,2.4
2019,3,28,09:00,UTC,1,1021.6,67,0,8,5.8,0.1,31130,222,4.3,2.4
2019,3,28,10:00,UTC,1,1020.9,58,0,7,7.8,0.1,32670,213,6.2,4.2
2019,3,28,11:00,UTC,1,1020.6,63,0,7,7.7,1.1,39970,203,6.5,4.6
2019,3,28,12:00,UTC,5,1020.2,64,0,6,8,1.5,37130,199,6,3.9
2019,3,28,13:00,UTC,3,1019.4,65,0,6,7.3,1.1,50000,204,6.8,5.1
2019,3,28,14:00,UTC,7,1018.5,69,0,6,6.5,1.3,50000,217,7.6,5.2
2019,3,28,15:00,UTC,7,1017.6,63,0,5,7.3,0.7,50000,215,9.5,5.8
2019,3,28,16:00,UTC,7,1017.1,69,0,4,6.5,1.2,50000,220,9.7,6.7
2019,3,28,17:00,UTC,7,1016.9,75,0,5,5.3,1.2,50000,224,7.5,5.3
2019,3,28,18:00,UTC,7,1016.5,77,0,5,4.7,1,50000,227,8,5.2
2019,3,28,19:00,UTC,8,1016.4,77,0,5,4.9,1.2,50000,246,8.1,6
2019,3,28,20:00,UTC,7,1016.2,77,0,5,5,1.2,50000,248,8.2,5.7
2019,3,28,21:00,UTC,8,1015.5,77,0,4,5.1,1.3,50000,241,7.8,5
2019,3,28,22:00,UTC,5,1015.5,80,0,4,4.6,1.4,50000,248,5.6,4
2019,3,28,23:00,UTC,7,1014.9,79,0,4,4.9,1.4,50000,242,6.3,3.7
2019,3,29,00:00,UTC,7,1014.5,84,0,4,3.5,1.1,50000,223,6.3,4.1
2019,3,29,01:00,UTC,1,1013.2,82,0,4,4.1,1.2,50000,241,5.7,3.6
2019,3,29,02:00,UTC,0,1012.1,90,0,4,2.5,1.1,50000,210,5.9,4
2019,3,29,03:00,UTC,0,1011.8,93,0,4,2.2,1.2,47070,222,8.7,6.1
2019,3,29,04:00,UTC,0,1011.1,91,0,4,2.4,1.2,50000,222,7.2,5.2
2019,3,29,05:00,UTC,0,1010.6,89,0,4,3.3,1.7,49500,229,7.2,5.3
2019,3,29,06:00,UTC,0,1010,85,0,4,4.3,2,45250,219,6.5,4.5
2019,3,29,07:00,UTC,0,1009.3,74,0,4,7,2.7,50000,240,8.3,5.3
2019,3,29,08:00,UTC,0,1008.8,67,0,4,8.9,3,41650,233,6.7,4.7
2019,3,29,09:00,UTC,0,1008,62,0,3,10.2,3.3,32980,243,8.8,5.9
2019,3,29,10:00,UTC,0,1007.9,57,0,3,11.3,3.1,41060,233,8.7,5.2
2019,3,29,11:00,UTC,0,1007.9,55,0,2,11.8,3.1,32980,248,10,7.4
2019,3,29,12:00,UTC,1,1007.3,57,0,0,11.5,3.3,47840,242,8,5
2019,3,29,13:00,UTC,0,1007.2,57,0,0,11.5,3.3,45980,248,8.9,6
2019,3,29,14:00,UTC,0,1007.1,59,0,0,11.2,3.4,46270,244,9.3,5.9
2019,3,29,15:00,UTC,0,1007.1,63,0,0,9.8,3.1,36500,224,7.5,4.8
2019,3,29,16:00,UTC,0,1006.9,74,0,0,7.3,3,35570,216,11.1,7.6
2019,3,29,17:00,UTC,0,1007.4,82,0,0,5.2,2.5,29970,222,6.8,4.7
2019,3,29,18:00,UTC,0,1007.7,79,0,0,6,2.7,38090,242,9.3,6.8
2019,3,29,19:00,UTC,0,1007.7,80,0,0,6,2.8,39530,241,8.5,5.6
2019,3,29,20:00,UTC,0,1007.9,84,0,0,5.1,2.5,38190,246,8.1,6
2019,3,29,21:00,UTC,0,1007.7,84,0,0,4.5,2,40770,246,7.6,5.5
2019,3,29,22:00,UTC,0,1007.5,87,0,0,3.9,2,34070,251,6.4,4.7
2019,3,29,23:00,UTC,0,1007.4,89,0,0,3.6,1.9,31820,250,6,4.2
2019,3,30,00:00,UTC,1,1007.3,89,0,0,3.3,1.6,33190,257,7.1,5
2019,3,30,01:00,UTC,7,1007.7,88,0,0,3.8,2,29300,291,4.9,3.2
2019,3,30,02:00,UTC,5,1007.8,90,0,0,3.5,2,30510,280,6.2,4.4
2019,3,30,03:00,UTC,5,1007.5,92,0,0,2.5,1.3,27980,265,4.2,3.2
2019,3,30,04:00,UTC,0,1007.9,94,0,0,1.7,0.8,22540,267,4.9,3.5
2019,3,30,05:00,UTC,0,1008.1,94,0,0,2.1,1.1,24460,246,4,3.3
2019,3,30,06:00,UTC,0,1008.5,84,0,0,4.2,1.8,33870,250,4.6,3.4
2019,3,30,07:00,UTC,7,1008.7,75,0,0,5.9,1.7,50000,244,6.2,4.1
2019,3,30,08:00,UTC,7,1009,69,0,0,7.5,2.1,48810,257,7,3.9
2019,3,30,09:00,UTC,7,1009.1,59,0,0,9,1.5,50000,261,9.7,5.8
2019,3,30,10:00,UTC,5,1008.9,52,0,0,10.1,0.5,41520,264,9.9,5.2
2019,3,30,11:00,UTC,7,1009,49,0,0,9.5,-0.8,44090,245,11.9,8.1
2019,3,30,12:00,UTC,7,1008.9,46,0,0,9.7,-1.4,50000,264,9.6,5.9
2019,3,30,13:00,UTC,5,1008.7,57,0,0,9.6,1.5,32780,209,5.7,3.9
2019,3,30,14:00,UTC,5,1008.3,70,0,0,7.5,2.4,31460,199,5.9,3.9
2019,3,30,15:00,UTC,7,1007.8,77,0,0,5.8,2.1,28720,216,8.5,5.9
2019,3,30,16:00,UTC,7,1007.1,81,0,0,5.1,2,27510,207,7.3,5.2
2019,3,30,17:00,UTC,8,1006.2,84,0,0,4.6,2.2,21760,218,8,5.7
2019,3,30,18:00,UTC,7,1005.7,91,0,0,3.5,2.1,14100,208,6.8,4.8
2019,3,30,19:00,UTC,7,1005.3,94,0,0,3,2.2,9890,213,7.8,5.9
2019,3,30,20:00,UTC,7,1004.2,95,0,0,3.2,2.5,8980,218,8.5,5.8
2019,3,30,21:00,UTC,8,1003,97,0.4,0,3.1,2.7,6530,211,7.8,4.8
2019,3,30,22:00,UTC,8,1001.5,97,0.9,0,3.3,2.8,5980,209,7.1,4.5
2019,3,30,23:00,UTC,8,1000.2,96,0.3,0,3.4,2.9,4860,222,8.4,5.7
2019,3,31,00:00,UTC,8,999.1,97,0,0,3.3,2.8,8060,222,9.7,6.1
2019,3,31,01:00,UTC,8,998.2,97,0,0,3.2,2.7,9420,223,8.4,5.8
2019,3,31,02:00,UTC,8,997.5,97,0,0,3.2,2.8,8560,231,6.2,4
2019,3,31,03:00,UTC,8,997.3,97,0,0,3.4,3,4690,276,8.1,4.2
2019,3,31,04:00,UTC,8,998,94,0,0,2.2,1.3,31720,307,7.1,4.1
2019,3,31,05:00,UTC,7,998.6,93,0,0,2.1,1.1,50000,313,6.8,4
2019,3,31,06:00,UTC,7,999.1,94,0,0,2.3,1.5,50000,296,5.3,3.3
2019,3,31,07:00,UTC,7,1000,90,0,0,3.3,1.8,44570,296,7.4,4.8
2019,3,31,08:00,UTC,7,1000.9,89,0,0,3.5,1.9,47750,281,7.5,4.4
2019,3,31,09:00,UTC,7,1001.7,87,0,0,3.9,1.9,50000,280,7.3,4.4
2019,3,31,10:00,UTC,8,1002.4,85,0,0,3.9,1.5,47860,281,7.3,4.2
2019,3,31,11:00,UTC,8,1002.8,84,0,0,4,1.5,38330,273,5.7,3.7
2019,3,31,12:00,UTC,8,1003.8,91,0.6,0,2.8,1.6,15950,289,8.8,4.9
2019,3,31,13:00,UTC,7,1004.5,91,0,0,3.4,2,38900,293,7.3,4.1
2019,3,31,14:00,UTC,5,1005.3,77,0,0,4.9,1.2,50000,289,7.7,4.6
2019,3,31,15:00,UTC,7,1006.1,63,0.8,0,5,-1.4,50000,304,11.3,4.4
2019,3,31,16:00,UTC,0,1007.1,56,0,0,4.1,-3.8,50000,280,12.3,6.5
2019,3,31,17:00,UTC,0,1008.5,51,0,0,2.6,-6.4,50000,281,11.6,6.5
2019,3,31,18:00,UTC,1,1009.9,58,0,0,1.7,-5.7,50000,276,7.6,4.7
2019,3,31,19:00,UTC,3,1010.9,65,0,0,1,-4.8,50000,261,6,4.1
2019,3,31,20:00,UTC,7,1011.4,66,0,0,1.5,-4.1,50000,268,7.5,4.7
2019,3,31,21:00,UTC,7,1012.2,67,0,0,1.7,-3.8,50000,271,8.6,5
2019,3,31,22:00,UTC,0,1013.1,69,0,0,1.3,-3.8,50000,276,7.9,4.4
2019,3,31,23:00,UTC,1,1014.1,72,0,0,0.9,-3.6,50000,273,8.3,5.3
2019,4,1,00:00,UTC,0,1015,77,0,0,-0.1,-3.6,50000,275,7.4,4.6
2019,4,1,01:00,UTC,0,1015.8,78,0,0,-0.1,-3.5,50000,280,7.2,5.1
2019,4,1,02:00,UTC,0,1016.7,82,0,0,-0.9,-3.5,50000,281,6.6,4.5
2019,4,1,03:00,UTC,0,1017.8,84,0,0,-1.2,-3.5,50000,281,5.7,3.9
2019,4,1,04:00,UTC,0,1018.7,84,0,0,-1,-3.4,50000,274,6.6,4
2019,4,1,05:00,UTC,0,1019.9,80,0,0,-0.1,-3.1,50000,280,8.2,4.7
2019,4,1,06:00,UTC,0,1021,68,0,0,1.7,-3.4,48070,297,9,5
2019,4,1,07:00,UTC,0,1021.7,61,0,0,3.3,-3.5,45530,303,7.9,4.1
2019,4,1,08:00,UTC,0,1022.5,55,0,0,4.1,-4.2,38520,288,9.9,5.2
2019,4,1,09:00,UTC,0,1023.1,42,0,0,5.2,-6.5,39590,282,11.5,6.1
2019,4,1,10:00,UTC,0,1023.5,39,0,0,6.4,-6.5,40080,274,9.6,5.2
2019,4,1,11:00,UTC,0,1024.1,34,0,0,7,-7.8,39650,280,9.3,5
2019,4,1,12:00,UTC,0,1024.3,31,0,0,7.6,-8.4,44050,264,10.3,7.8
2019,4,1,13:00,UTC,0,1024.4,30,0,0,7.8,-8.5,41060,276,12.2,8
2019,4,1,14:00,UTC,0,1024.1,32,0,0,7.6,-7.9,40870,268,12.9,8.2
2019,4,1,15:00,UTC,0,1023.8,29,0,0,7.3,-9.6,41940,265,10.5,6.5
2019,4,1,16:00,UTC,0,1023.7,38,0,0,6,-7.4,50000,243,10.2,6.6
2019,4,1,17:00,UTC,0,1024.2,45,0,0,4.6,-6.4,50000,251,8.6,6
2019,4,1,18:00,UTC,0,1024.8,52,0,0,3.1,-5.8,50000,233,6.7,5.1
2019,4,1,19:00,UTC,0,1025.2,63,0,0,2.1,-4.2,50000,233,7.6,4.5
2019,4,1,20:00,UTC,0,1025.4,66,0,0,1.4,-4.2,50000,240,7.7,5.5
2019,4,1,21:00,UTC,0,1025.8,78,0,0,0.3,-3,50000,224,7.8,4.2
2019,4,1,22:00,UTC,0,1025.6,82,0,0,0.2,-2.5,50000,233,8,5.3
2019,4,1,23:00,UTC,0,1025.7,84,0,0,0.4,-2,50000,238,7.2,4.8
2019,4,2,00:00,UTC,0,1025.9,85,0,0,0.2,-2.1,50000,235,7.3,5
2019,4,2,01:00,UTC,0,1025.8,85,0,0,0.3,-1.9,50000,239,7,4.1
2019,4,2,02:00,UTC,3,1025.9,84,0,0,0.4,-2.1,50000,237,6.5,4.5
2019,4,2,03:00,UTC,3,1026.2,81,0,0,0.5,-2.3,50000,231,6.9,4.4
2019,4,2,04:00,UTC,5,1026.7,81,0,0,0.5,-2.3,50000,224,5.9,4.1
2019,4,2,05:00,UTC,5,1026.9,85,0,0,1.3,-0.9,50000,219,7.2,4.5
2019,4,2,06:00,UTC,1,1027.1,83,0,0,2.6,0,47930,215,8.1,5
2019,4,2,07:00,UTC,1,1027.3,76,0,0,3.3,-0.5,50000,213,10,6.8
2019,4,2,08:00,UTC,1,1027.7,72,0,0,4.2,-0.4,39340,213,9.2,5.9
2019,4,2,09:00,UTC,1,1027.8,71,0,0,4.3,-0.4,38880,207,10,6.3
2019,4,2,10:00,UTC,1,1027.7,66,0,0,5.1,-0.8,45430,206,9.9,6.1
2019,4,2,11:00,UTC,0,1027.8,59,0,0,5.9,-1.5,47640,207,9,6.1
2019,4,2,12:00,UTC,0,1027.5,47,0,0,5.8,-4.6,46550,217,11.5,6.9
2019,4,2,13:00,UTC,0,1027.1,43,0,0,6,-5.8,50000,205,8.5,5.8
2019,4,2,14:00,UTC,0,1026.7,42,0,0,5.9,-5.9,39560,214,8.9,5.8
2019,4,2,15:00,UTC,0,1026.3,44,0,0,5.9,-5.4,50000,207,6.8,5.1
2019,4,2,16:00,UTC,0,1026,51,0,0,5.3,-4,50000,218,6,3.7
2019,4,2,17:00,UTC,0,1025.8,55,0,0,3.9,-4.4,50000,220,4.5,3.3
2019,4,2,18:00,UTC,0,1026,57,0,0,3.1,-4.7,50000,231,3.8,2.6
2019,4,2,19:00,UTC,0,1026,75,0,0,1.8,-2,48120,136,4.5,2.9
2019,4,2,20:00,UTC,0,1026.2,75,0,0,1.4,-2.5,50000,153,5.8,3.6
2019,4,2,21:00,UTC,0,1026.2,68,0,0,2,-3.3,50000,146,5.5,4.1
2019,4,2,22:00,UTC,0,1026.2,70,0,0,1.8,-3,50000,138,3.5,2.9
2019,4,2,23:00,UTC,0,1026.2,73,0,0,1.5,-2.9,50000,140,4.5,3.5
2019,4,3,00:00,UTC,0,1026,67,0,0,1.8,-3.8,50000,124,4.5,3.7
2019,4,3,01:00,UTC,0,1025.6,57,0,0,2.7,-5.1,50000,133,7.7,5
2019,4,3,02:00,UTC,0,1025.3,62,0,0,2.3,-4.2,50000,131,5.8,4
2019,4,3,03:00,UTC,0,1024.9,66,0,0,1.9,-3.7,50000,129,5.2,3.2
2019,4,3,04:00,UTC,0,1024.6,64,0,0,1.9,-4.1,43700,121,4.2,2.4
2019,4,3,05:00,UTC,0,1024.4,60,0,0,2.8,-4.2,50000,153,6,3.4
2019,4,3,06:00,UTC,1,1024.5,54,0,0,4.7,-3.7,46230,144,4.5,2.5
2019,4,3,07:00,UTC,0,1024.5,54,0,0,5.3,-3.4,37180,155,6.8,4.2
2019,4,3,08:00,UTC,0,1024.7,51,0,0,6.4,-3.1,40770,151,6.2,3.5
2019,4,3,09:00,UTC,0,1024.6,46,0,0,7.1,-3.9,32080,160,7.6,4.5
2019,4,3,10:00,UTC,0,1024.2,38,0,0,9.2,-4.5,41450,165,7.1,3.6
2019,4,3,11:00,UTC,0,1023.8,39,0,0,9.9,-3.5,40290,142,9.5,6.3
2019,4,3,12:00,UTC,0,1023.2,31,0,0,11.4,-5.1,34780,130,5.9,3.7
2019,4,3,13:00,UTC,0,1022.8,31,0,0,11.2,-5.4,40080,113,5.9,4.5
2019,4,3,14:00,UTC,0,1022.1,38,0,0,9.7,-3.9,39590,85,4.8,3.7
2019,4,3,15:00,UTC,0,1021.4,44,0,0,8.6,-3.1,43270,93,4.8,2.8
2019,4,3,16:00,UTC,0,1020.6,51,0,0,7.1,-2.2,42510,83,3.4,2.6
2019,4,3,17:00,UTC,0,1020.3,58,0,0,5.9,-1.8,50000,90,4.2,3.5
2019,4,3,18:00,UTC,0,1020.2,52,0,0,6.5,-2.8,50000,125,5.9,4.3
2019,4,3,19:00,UTC,0,1020.1,39,0,0,8.2,-5,50000,147,9.6,5.9
2019,4,3,20:00,UTC,0,1020.3,43,0,0,7.3,-4.6,50000,159,9.2,5.7
2019,4,3,21:00,UTC,0,1020.6,48,0,0,6.3,-4.1,50000,145,7.4,4.4
2019,4,3,22:00,UTC,0,1020.7,46,0,0,6.1,-4.6,50000,158,7.8,4.1
2019,4,3,23:00,UTC,1,1020.5,48,0,0,5.9,-4.4,50000,161,10,5.7
2019,4,4,00:00,UTC,0,1020.5,49,0,0,5.5,-4.4,49400,158,9.4,5.9
2019,4,4,01:00,UTC,0,1020.2,52,0,0,4.8,-4.2,50000,159,7.7,4.9
2019,4,4,02:00,UTC,0,1019.9,54,0,0,4.3,-4.2,50000,169,6.2,3.5
2019,4,4,03:00,UTC,1,1019.9,54,0,0,4.3,-4.2,47110,193,5.6,3.1
2019,4,4,04:00,UTC,0,1019.8,57,0,0,3.8,-3.9,45460,189,7,4.1
2019,4,4,05:00,UTC,0,1019.7,56,0,0,4.3,-3.8,37060,177,7.4,4.6
2019,4,4,06:00,UTC,0,1019.8,53,0,0,5.6,-3.4,36190,202,6.3,4
2019,4,4,07:00,UTC,0,1019.9,48,0,0,6.8,-3.4,26420,183,6.1,3.4
2019,4,4,08:00,UTC,0,1019.9,45,0,0,7.5,-3.6,33060,189,6.1,3.4
2019,4,4,09:00,UTC,0,1019.9,42,0,0,9.3,-3.1,28440,167,8.8,4.8
2019,4,4,10:00,UTC,0,1019.5,38,0,0,10.6,-3.3,28400,151,6.5,3.9
2019,4,4,11:00,UTC,0,1019.4,32,0,0,11.8,-4.3,30070,156,6.9,4.3
2019,4,4,12:00,UTC,0,1019,30,0,0,12.1,-5.1,33090,139,5.9,4
2019,4,4,13:00,UTC,0,1018.5,28,0,0,12.3,-5.9,31790,139,4.2,3
2019,4,4,14:00,UTC,0,1018,27,0,0,12.6,-5.9,27330,126,4,2.5
2019,4,4,15:00,UTC,0,1017.6,33,0,0,10.9,-4.7,32140,92,3.1,1.9
2019,4,4,16:00,UTC,0,1017.5,37,0,0,9.5,-4.6,33870,95,2.9,1.7
2019,4,4,17:00,UTC,1,1017.6,42,0,0,8.1,-4.1,25950,77,2.3,1.7
2019,4,4,18:00,UTC,0,1017.8,47,0,0,6.5,-4,27130,68,1.7,0.9
2019,4,4,19:00,UTC,1,1018.1,48,0,0,6.1,-4,25720,65,1.2,0.8
2019,4,4,20:00,UTC,0,1018.3,57,0,0,4.4,-3.4,22040,243,1,0.6
2019,4,4,21:00,UTC,3,1018.6,60,0,0,3.2,-3.8,29150,331,1.5,1.2
2019,4,4,22:00,UTC,1,1018.8,67,0,0,2.1,-3.4,16940,19,1.5,1.1
2019,4,4,23:00,UTC,0,1018.8,69,0,0,1.3,-3.7,21440,26,2.5,2.1
2019,4,5,00:00,UTC,0,1018.9,76,0,0,1.1,-2.7,16630,91,2.3,2
2019,4,5,01:00,UTC,0,1018.9,78,0,0,0.8,-2.7,18480,100,2.5,2.2
2019,4,5,02:00,UTC,0,1019,74,0,0,1.3,-2.9,22250,116,2.4,2.1
2019,4,5,03:00,UTC,0,1019.1,79,0,0,0.5,-2.6,17920,152,2.8,2.5
2019,4,5,04:00,UTC,1,1019.5,78,0,0,0.8,-2.5,15530,170,2.4,2
2019,4,5,05:00,UTC,1,1019.7,78,0,0,1.6,-1.8,12800,158,1.9,1.6
2019,4,5,06:00,UTC,0,1019.9,64,0,0,5.2,-1,14540,127,2.1,1.6
2019,4,5,07:00,UTC,1,1020.3,53,0,0,7.6,-1.2,18310,144,2.6,1.7
2019,4,5,08:00,UTC,1,1020.8,48,0,0,8.7,-1.7,17340,136,2.9,1.7
2019,4,5,09:00,UTC,1,1021.1,46,0,0,8.4,-2.5,19170,118,3.8,2.9
2019,4,5,10:00,UTC,1,1021.2,39,0,0,10.3,-3.1,18040,112,3.6,2.3
2019,4,5,11:00,UTC,0,1021.5,33,0,0,11.2,-4.5,17860,133,3.5,2.3
2019,4,5,12:00,UTC,1,1021.7,32,0,0,11.9,-4.5,21980,125,3.7,2.7
2019,4,5,13:00,UTC,0,1022,30,0,0,11.8,-5.1,23150,105,4.8,3.5
2019,4,5,14:00,UTC,0,1022.1,35,0,0,11.2,-3.8,25110,105,5.1,3.2
2019,4,5,15:00,UTC,0,1022.2,34,0,0,10.5,-4.6,41330,82,5.9,3.9
2019,4,5,16:00,UTC,0,1022.4,39,0,0,9.2,-4,34650,83,6.6,3.8
2019,4,5,17:00,UTC,0,1022.5,38,0,0,8.4,-5,43230,76,7.5,4.6
2019,4,5,18:00,UTC,0,1023.3,44,0,0,6.9,-4.6,50000,77,7.8,4.5
2019,4,5,19:00,UTC,0,1024,51,0,0,5.9,-3.4,50000,91,7.2,4.6
2019,4,5,20:00,UTC,0,1024.3,57,0,0,5.3,-2.5,50000,84,5.8,3.7
2019,4,5,21:00,UTC,0,1024.9,62,0,0,4.6,-2.1,50000,75,3.9,2.7
2019,4,5,22:00,UTC,0,1025.4,60,0,0,4.5,-2.8,50000,85,4.8,3.4
2019,4,5,23:00,UTC,0,1025.6,60,0,0,4.3,-2.8,46710,71,4.9,3.4
2019,4,6,00:00,UTC,0,1025.7,64,0,0,3.7,-2.5,50000,77,4.2,3.3
2019,4,6,01:00,UTC,0,1025.8,69,0,0,3.1,-2.2,44460,75,3.9,3.1
2019,4,6,02:00,UTC,0,1026,72,0,0,2.6,-2,42500,64,3.8,3
2019,4,6,03:00,UTC,0,1025.9,73,0,0,2.1,-2.3,40400,57,3.1,2.5
2019,4,6,04:00,UTC,0,1025.8,71,0,0,2.1,-2.5,40060,65,3.5,2.9
2019,4,6,05:00,UTC,0,1025.7,65,0,0,3.3,-2.6,42040,68,4.1,3.2
2019,4,6,06:00,UTC,0,1025.9,54,0,0,5.6,-3,36530,76,4.2,2.4
2019,4,6,07:00,UTC,0,1026.2,45,0,0,7.4,-3.7,38910,100,5.5,3.6
2019,4,6,08:00,UTC,0,1026.4,48,0,0,7.4,-3,39110,101,5.6,3.7
2019,4,6,09:00,UTC,0,1026.2,45,0,0,8.4,-2.9,36470,104,6.8,4.3
2019,4,6,10:00,UTC,0,1025.7,44,0,0,8.8,-2.9,39400,104,5.6,3.5
2019,4,6,11:00,UTC,0,1025.2,41,0,0,9,-3.6,37680,99,5.7,3
2019,4,6,12:00,UTC,0,1024.5,35,0,0,10,-4.8,46110,92,6.8,4.3
2019,4,6,13:00,UTC,0,1023.7,32,0,0,10.7,-5.2,41870,81,7.3,4.9
2019,4,6,14:00,UTC,0,1022.9,32,0,0,10,-5.8,46880,82,9.4,6.7
2019,4,6,15:00,UTC,0,1022.2,34,0,0,9.8,-5.5,46980,80,9.3,6.1
2019,4,6,16:00,UTC,0,1021.7,38,0,0,8.8,-4.9,50000,81,8.2,4.8
2019,4,6,17:00,UTC,0,1021.1,41,0,0,7.4,-5,50000,84,6.8,4.8
2019,4,6,18:00,UTC,0,1020.7,44,0,0,6.6,-4.6,50000,79,6.2,3.9
2019,4,6,19:00,UTC,0,1020.3,50,0,0,5.8,-3.8,50000,101,5.7,3.7
2019,4,6,20:00,UTC,0,1020,57,0,0,5.3,-2.6,50000,94,4.9,3.5
2019,4,6,21:00,UTC,0,1019.4,59,0,0,4.7,-2.5,50000,83,4.1,2.7
2019,4,6,22:00,UTC,0,1018.6,60,0,0,4.4,-2.7,49590,80,4.1,3.4
2019,4,6,23:00,UTC,0,1017.8,62,0,0,3.9,-2.7,50000,80,4.5,3.7
2019,4,7,00:00,UTC,0,1017.2,67,0,0,3.1,-2.5,47540,74,3.2,2.4
2019,4,7,01:00,UTC,0,1016.7,71,0,0,2.1,-2.7,45930,83,3,2.4
2019,4,7,02:00,UTC,0,1016.1,74,0,0,1,-3.1,48190,87,2.1,1.8
2019,4,7,03:00,UTC,0,1015.5,75,0,0,1.2,-2.6,50000,105,3.7,3.2
2019,4,7,04:00,UTC,1,1014.8,71,0,0,1.9,-2.8,43100,108,2.9,2.6
2019,4,7,05:00,UTC,0,1014.4,71,0,0,2.9,-1.9,43650,97,4.1,3.1
2019,4,7,06:00,UTC,1,1013.9,61,0,0,5.6,-1.3,31150,126,4.5,2.8
2019,4,7,07:00,UTC,1,1013.7,57,0,0,6.5,-1.3,31670,119,3.6,2.8
2019,4,7,08:00,UTC,0,1013.3,55,0,0,7.2,-1.4,36490,119,4.5,3.2
2019,4,7,09:00,UTC,0,1012.8,58,0,0,6.9,-0.9,25940,85,4.7,3.5
2019,4,7,10:00,UTC,0,1012.2,55,0,0,7.9,-0.6,26570,88,5.4,3.9
2019,4,7,11:00,UTC,0,1011.6,52,0,0,8.9,-0.5,24810,90,6.3,4
2019,4,7,12:00,UTC,0,1011,51,0,0,9.2,-0.3,22860,98,6,3.5
2019,4,7,13:00,UTC,0,1010.2,47,0,0,10.2,-0.8,25900,94,4.9,2.7
2019,4,7,14:00,UTC,0,1009.5,48,0,0,10.3,-0.3,24210,88,5.1,3.6
2019,4,7,15:00,UTC,5,1009,48,0,0,9.8,-0.8,26690,122,6.8,3.3
2019,4,7,16:00,UTC,5,1008.4,50,0,0,9.1,-0.8,30620,105,4.8,2.5
2019,4,7,17:00,UTC,7,1007.8,52,0,0,8.5,-0.8,27570,119,8.4,5
2019,4,7,18:00,UTC,7,1007.8,55,0,0,8.4,-0.1,19260,171,13.1,7.5
2019,4,7,19:00,UTC,7,1007.5,54,0,0,8.3,-0.5,24250,125,5.9,3.5
2019,4,7,20:00,UTC,7,1007.1,54,0,0,9.3,0.5,21160,178,7,4.2
2019,4,7,21:00,UTC,7,1006.6,60,0,0,7.8,0.4,28360,106,5.4,3.6
2019,4,7,22:00,UTC,5,1006.3,70,0,0,5.3,0.2,16120,197,7.1,5
2019,4,7,23:00,UTC,7,1006.1,85,0,0,3.7,1.4,11260,192,6.8,3.7
2019,4,8,00:00,UTC,7,1006,87,0,0,3.5,1.6,11990,243,7,4.8
2019,4,8,01:00,UTC,1,1006.3,81,0,0,1.1,-1.7,50000,247,6.9,4.9
2019,4,8,02:00,UTC,7,1006.2,83,0,0,1.1,-1.4,46880,241,5.8,3.7
2019,4,8,03:00,UTC,8,1006.1,82,0,0,1.8,-1.1,49450,218,3.6,2.2
2019,4,8,04:00,UTC,7,1006,85,0,0,2.3,-0.1,33300,199,5.2,3.3
2019,4,8,05:00,UTC,8,1005.8,91,0,0,2.4,1,10390,192,7.1,5.2
2019,4,8,06:00,UTC,8,1005.7,91,0,0,2.5,1.1,13550,203,8.2,5.3
2019,4,8,07:00,UTC,7,1005.5,85,0,0,3.1,0.7,22640,175,7.4,4.7
2019,4,8,08:00,UTC,7,1005.5,88,0,0,2.6,0.9,23010,146,5.6,3.7
2019,4,8,09:00,UTC,7,1005.5,88,0,0,2.6,0.9,16220,131,6.1,4.1
2019,4,8,10:00,UTC,7,1005.3,86,0,0,3.2,1.1,20890,121,5.9,4
2019,4,8,11:00,UTC,7,1005.1,93,0.6,0,2.9,1.8,5830,139,6,4
2019,4,8,12:00,UTC,7,1005,96,0.7,0,1.8,1.2,5290,146,5.2,3.6
2019,4,8,13:00,UTC,7,1004.8,93,0,0,2.8,1.8,31700,123,2.8,1.8
2019,4,8,14:00,UTC,7,1004.6,92,0,0,2.4,1.2,21060,132,3.7,2.5
2019,4,8,15:00,UTC,7,1004.5,90,0,0,2.6,1,15030,128,3.7,2.6
2019,4,8,16:00,UTC,7,1004.4,91,0.5,0,2,0.7,14830,91,2.4,1.6
2019,4,8,17:00,UTC,7,1004.2,95,0.4,0,1.7,0.9,9050,95,2.2,1.4
2019,4,8,18:00,UTC,7,1004.1,95,0.4,0,1.2,0.5,8400,0,0.7,0
2019,4,8,19:00,UTC,7,1004.1,98,0,0,1.1,0.8,3610,272,3.4,2.5
2019,4,8,20:00,UTC,7,1003.8,98,0,0,1.4,1,3600,264,3,2.2
2019,4,8,21:00,UTC,7,1003.7,97,0.9,0,0.8,0.4,2890,311,3.4,2
2019,4,8,22:00,UTC,7,1003.5,98,0,0,0.7,0.4,3720,291,4.1,2.7
2019,4,8,23:00,UTC,7,1003.3,99,0,0,0.4,0.3,3210,289,4.1,2.6
2019,4,9,00:00,UTC,7,1003,99,0,0,0.6,0.4,5110,315,3.3,1.5
2019,4,9,01:00,UTC,7,1003.1,99,0,0,1,0.9,5320,265,4.9,3
2019,4,9,02:00,UTC,7,1003.1,98,0,0,1,0.7,3740,283,3.6,2
2019,4,9,03:00,UTC,7,1003.2,97,0,0,1.3,0.9,6730,324,2.7,1.2
2019,4,9,04:00,UTC,7,1003.3,96,0,0,1.2,0.7,5140,359,2.2,1.2
2019,4,9,05:00,UTC,7,1003.2,94,0,0,1.7,0.9,7410,20,3.1,2.1
2019,4,9,06:00,UTC,7,1003.5,93,0,0,2.1,1,9190,27,3.1,2.2
2019,4,9,07:00,UTC,7,1003.8,95,0.9,0,1.2,0.5,4450,355,3.7,2.5
2019,4,9,08:00,UTC,7,1003.9,92,0,0,2,0.9,10640,7,4.6,2.9
2019,4,9,09:00,UTC,7,1004.4,91,0,0,2.5,1.2,12620,356,4.8,3.3
2019,4,9,10:00,UTC,7,1004.8,89,0,0,2.7,1,10270,359,5.9,3.4
2019,4,9,11:00,UTC,7,1005.1,83,0,0,3.7,1.1,43140,353,5.2,3.4
2019,4,9,12:00,UTC,7,1005.5,87,0,0,3.2,1.3,13400,343,6,3.5
2019,4,9,13:00,UTC,7,1006,91,0,0,3,1.6,24890,94,3.6,2.1
2019,4,9,14:00,UTC,7,1006.4,90,0,0,2.8,1.4,49440,77,3.7,1.8
2019,4,9,15:00,UTC,7,1007,92,0,0,2.5,1.3,47060,84,3.8,2.8
2019,4,9,16:00,UTC,8,1007.7,89,0,0,2.6,0.9,21580,32,5.5,3.8
2019,4,9,17:00,UTC,7,1008.3,89,0,0,2.6,0.9,50000,38,4.3,2.7
2019,4,9,18:00,UTC,7,1009.1,92,0,0,2.3,1.1,20970,3,6.4,4
2019,4,9,19:00,UTC,8,1009.5,94,0.7,0,1.3,0.3,7800,351,8.6,5.5
2019,4,9,20:00,UTC,8,1010,93,0,0,1,0,18560,352,9.8,5.5
2019,4,9,21:00,UTC,8,1010.4,90,0,0,0.7,-0.8,15430,353,8.7,6.1
2019,4,9,22:00,UTC,8,1011,89,0,0,0.3,-1.4,15660,348,9.5,5.8
2019,4,9,23:00,UTC,7,1011.3,87,0,0,-0.1,-2,20610,354,9.9,6
2019,4,10,00:00,UTC,7,1011.6,86,0,0,-0.4,-2.4,17480,348,8.8,6.1
2019,4,10,01:00,UTC,7,1012,83,0,0,-0.8,-3.3,36970,358,10.9,6.8
2019,4,10,02:00,UTC,7,1012.3,79,0,0,-1,-4.1,50000,353,10.7,6.9
2019,4,10,03:00,UTC,8,1012.7,80,0,0,-1.2,-4.3,50000,352,9,5.5
2019,4,10,04:00,UTC,7,1013.1,82,0,0,-1.5,-4.2,50000,340,9.4,5.4
2019,4,10,05:00,UTC,8,1013.6,81,0,0,-1.3,-4.1,50000,344,8.9,4.7
2019,4,10,06:00,UTC,8,1014,78,0,0,-1,-4.3,41620,341,10.4,5.6
2019,4,10,07:00,UTC,7,1014.4,78,0,0,-1.2,-4.6,6960,343,11.6,6.2
2019,4,10,08:00,UTC,7,1014.9,77,0,0,-0.7,-4.3,21570,331,9.6,5.2
2019,4,10,09:00,UTC,8,1015.5,71,0,0,-0.6,-5.2,50000,335,9.7,5.5
2019,4,10,10:00,UTC,8,1015.8,71,0,0,-0.4,-5.1,50000,336,10.4,5.8
2019,4,10,11:00,UTC,8,1016.6,67,0,0,-0.3,-5.7,44520,354,11.8,7.3
2019,4,10,12:00,UTC,8,1017.1,65,0,0,0.1,-5.7,34580,341,11.6,6.6
2019,4,10,13:00,UTC,7,1017.6,65,0,0,0.5,-5.3,25400,344,10.4,5
2019,4,10,14:00,UTC,8,1018.1,65,0,0,-0.2,-6.1,49320,334,9.2,5.7
2019,4,10,15:00,UTC,7,1018.5,61,0,0,-0.1,-6.6,48430,344,9,4.7
2019,4,10,16:00,UTC,8,1019,62,0,0,-0.1,-6.5,50000,345,9.4,5
2019,4,10,17:00,UTC,8,1019.4,65,0,0,-0.4,-6.1,38540,333,7.6,4.6
2019,4,10,18:00,UTC,8,1020.1,66,0,0,-0.4,-6,50000,330,5.9,2.9
2019,4,10,19:00,UTC,7,1020.6,69,0,0,-0.5,-5.5,32030,326,6.4,3.4
2019,4,10,20:00,UTC,1,1020.8,70,0,0,-1,-5.9,50000,337,6.9,4.3
2019,4,10,21:00,UTC,0,1021.3,71,0,0,-1.7,-6.2,50000,328,5.2,3
2019,4,10,22:00,UTC,1,1021.5,75,0,0,-2.2,-6.1,50000,315,4.9,2.9
2019,4,10,23:00,UTC,0,1021.5,80,0,0,-2.7,-5.7,50000,312,5.5,3.2
2019,4,11,00:00,UTC,0,1021.8,79,0,0,-2.9,-5.9,50000,313,5.4,3.4
2019,4,11,01:00,UTC,5,1022.1,80,0,0,-2.8,-5.9,50000,294,4.8,2.7
2019,4,11,02:00,UTC,1,1022.5,84,0,0,-3.5,-5.8,50000,299,5.7,3.4
2019,4,11,03:00,UTC,1,1022.7,81,0,0,-3.7,-6.4,50000,305,6.1,3.4
2019,4,11,04:00,UTC,0,1023,82,0,0,-3.9,-6.5,50000,300,4.7,2.8
2019,4,11,05:00,UTC,1,1023.3,72,0,0,-2.6,-6.9,50000,320,6.7,3.5
2019,4,11,06:00,UTC,5,1023.5,67,0,0,-1.6,-6.9,50000,314,5.3,2.7
2019,4,11,07:00,UTC,3,1023.6,61,0,0,-0.4,-6.9,42690,320,7.5,4.2
2019,4,11,08:00,UTC,3,1023.8,56,0,0,0,-7.8,50000,326,6.7,3.7
2019,4,11,09:00,UTC,7,1024.1,55,0,0,0.5,-7.5,50000,328,7.2,4.2
2019,4,11,10:00,UTC,8,1024.3,54,0,0,1.2,-7.2,50000,355,5.3,3.4
2019,4,11,11:00,UTC,7,1024.4,50,0,0,1.7,-7.6,50000,345,7.8,3.6
2019,4,11,12:00,UTC,7,1024.5,47,0,0,2.7,-7.6,49300,326,6.3,3
2019,4,11,13:00,UTC,5,1024.6,42,0,0,3.4,-8.4,50000,358,7.2,5.3
2019,4,11,14:00,UTC,7,1024.8,41,0,0,3.7,-8.5,46890,18,4.9,3
2019,4,11,15:00,UTC,5,1025.1,58,0,0,2.1,-5.2,48210,156,7.3,4.8
2019,4,11,16:00,UTC,1,1025.3,59,0,0,1.6,-5.6,50000,150,4.8,3.2
2019,4,11,17:00,UTC,3,1026,64,0,0,0.8,-5.3,50000,192,3.6,2.2
2019,4,11,18:00,UTC,5,1026.8,65,0,0,0.2,-5.5,50000,205,3.3,2.4
2019,4,11,19:00,UTC,3,1027.4,67,0,0,-0.4,-5.9,50000,224,1.4,1
2019,4,11,20:00,UTC,0,1027.6,71,0,0,-0.7,-5.3,50000,311,1.6,0.9
2019,4,11,21:00,UTC,0,1027.9,75,0,0,-1.5,-5.4,48030,327,3.3,2.2
2019,4,11,22:00,UTC,0,1028.2,74,0,0,-1.6,-5.7,46740,324,2.8,2.5
2019,4,11,23:00,UTC,0,1028.6,73,0,0,-2.3,-6.5,50000,332,3.3,2.8
2019,4,12,00:00,UTC,0,1028.9,73,0,0,-2.7,-6.9,50000,336,3.7,2.7
2019,4,12,01:00,UTC,0,1029.2,74,0,0,-3,-6.9,50000,339,3.7,2.9
2019,4,12,02:00,UTC,0,1029.6,77,0,0,-3.7,-7,50000,335,4,2.7
2019,4,12,03:00,UTC,0,1029.9,78,0,0,-4.1,-7.3,50000,333,3.4,2
2019,4,12,04:00,UTC,0,1030.2,74,0,0,-3.2,-7.2,50000,339,4.1,3
2019,4,12,05:00,UTC,0,1030.6,67,0,0,-1.6,-7,44220,349,3.4,2.2
2019,4,12,06:00,UTC,0,1030.7,60,0,0,0.4,-6.5,37220,346,3.2,2
2019,4,12,07:00,UTC,0,1031,52,0,0,1.8,-7,45060,14,3.8,2.7
2019,4,12,08:00,UTC,0,1031.2,42,0,0,3.1,-8.7,38890,1,6.6,2.9
2019,4,12,09:00,UTC,0,1031.1,40,0,0,4,-8.4,50000,61,5.7,3
2019,4,12,10:00,UTC,0,1031,41,0,0,5.1,-7.2,38560,128,6,3.9
2019,4,12,11:00,UTC,1,1031.1,46,0,0,5.1,-5.7,45670,156,5.8,3.5
2019,4,12,12:00,UTC,1,1031,42,0,0,5.6,-6.2,45970,144,5.4,3.2
2019,4,12,13:00,UTC,5,1030.9,45,0,0,5.2,-5.8,45850,181,5.6,4.1
2019,4,12,14:00,UTC,0,1030.8,42,0,0,5.2,-6.6,50000,190,5,3.5
2019,4,12,15:00,UTC,5,1030.7,51,0,0,4.4,-4.7,50000,192,5.2,3.7
2019,4,12,16:00,UTC,7,1030.7,51,0,0,3.2,-6,50000,224,3.7,2.2
2019,4,12,17:00,UTC,8,1031,53,0,0,2.7,-5.9,50000,220,2.7,1.6
2019,4,12,18:00,UTC,8,1031.3,51,0,0,3.9,-5.4,50000,359,5.8,3.3
2019,4,12,19:00,UTC,7,1031.6,50,0,0,3.6,-5.8,50000,17,7.3,4.5
2019,4,12,20:00,UTC,8,1031.8,50,0,0,3.2,-6.1,50000,26,4.6,3
2019,4,12,21:00,UTC,8,1032,50,0,0,3,-6.5,50000,22,3.7,2.4
2019,4,12,22:00,UTC,8,1032.3,45,0,0,3.1,-7.6,50000,14,3.9,2.2
2019,4,12,23:00,UTC,8,1032.5,47,0,0,3,-7.3,50000,10,4,2.6
2019,4,13,00:00,UTC,8,1032.6,46,0,0,2.8,-7.6,50000,11,4.2,2.4
2019,4,13,01:00,UTC,8,1032.8,53,0,0,2,-6.5,50000,341,3.7,2.6
2019,4,13,02:00,UTC,8,1032.9,55,0,0,1.7,-6.3,50000,337,4.3,3.2
2019,4,13,03:00,UTC,8,1033.1,56,0,0,1.7,-6.2,50000,340,4.9,3
2019,4,13,04:00,UTC,8,1033.1,58,0,0,1.6,-5.9,50000,344,3.2,1.9
2019,4,13,05:00,UTC,7,1033.4,56,0,0,2,-5.8,50000,344,3.1,1.9
2019,4,13,06:00,UTC,7,1033.6,55,0,0,2.6,-5.6,50000,329,3.1,1.6
2019,4,13,07:00,UTC,7,1033.9,51,0,0,3.8,-5.5,50000,11,4.6,2.7
2019,4,13,08:00,UTC,7,1033.9,41,0,0,5.4,-6.7,50000,11,5.3,2.8
2019,4,13,09:00,UTC,7,1034,37,0,0,5.9,-7.7,50000,65,7.5,5.2
2019,4,13,10:00,UTC,7,1034.3,46,0,0,5.6,-5.1,50000,101,4.9,3.3
2019,4,13,11:00,UTC,7,1034.1,42,0,0,5.8,-6.3,50000,79,2.8,1.2
2019,4,13,12:00,UTC,7,1034.4,44,0,0,5.7,-5.6,50000,118,6.4,4
2019,4,13,13:00,UTC,7,1034.3,43,0,0,5.5,-6.3,50000,97,4.1,2.2
2019,4,13,14:00,UTC,7,1034.1,42,0,0,6,-6,50000,116,3.1,2.3
2019,4,13,15:00,UTC,7,1034,41,0,0,5.7,-6.4,50000,101,3.3,1.9
2019,4,13,16:00,UTC,7,1033.8,42,0,0,5.4,-6.4,50000,66,1.1,0.5
2019,4,13,17:00,UTC,7,1034,45,0,0,5.4,-5.6,50000,6,2.7,1.5
2019,4,13,18:00,UTC,7,1034.3,45,0,0,5.4,-5.6,50000,35,3.7,2.3
2019,4,13,19:00,UTC,7,1034.6,46,0,0,5.2,-5.5,50000,29,5.2,3.7
2019,4,13,20:00,UTC,7,1034.9,49,0,0,4.9,-5,50000,35,5.2,3.4
2019,4,13,21:00,UTC,7,1035.1,50,0,0,4.4,-5,50000,46,5,3.1
2019,4,13,22:00,UTC,7,1035.3,49,0,0,4.3,-5.4,50000,40,5.1,3.2
2019,4,13,23:00,UTC,7,1035.4,48,0,0,4.2,-5.8,50000,39,3.7,2.5
2019,4,14,00:00,UTC,7,1035.8,48,0,0,4,-6.1,50000,43,2.6,1.8
2019,4,14,01:00,UTC,7,1035.8,51,0,0,3.3,-6,50000,14,2.9,1.8
2019,4,14,02:00,UTC,7,1035.7,50,0,0,3.6,-5.8,50000,1,3.4,2.3
2019,4,14,03:00,UTC,7,1035.9,56,0,0,3,-4.9,50000,344,2.7,2
2019,4,14,04:00,UTC,7,1036.1,60,0,0,3,-3.9,50000,9,3.1,1.7
2019,4,14,05:00,UTC,7,1036.1,61,0,0,3.2,-3.7,50000,350,2.5,1.7
2019,4,14,06:00,UTC,7,1036.3,58,0,0,3.8,-3.7,50000,346,3.3,2
2019,4,14,07:00,UTC,7,1036.5,52,0,0,5,-3.9,50000,339,1.5,0.7
2019,4,14,08:00,UTC,7,1036.5,43,0,0,6.3,-5.5,50000,308,3,1.6
2019,4,14,09:00,UTC,7,1036.5,42,0,0,6.7,-5.4,50000,11,4.6,2.4
2019,4,14,10:00,UTC,7,1036.4,40,0,0,7,-5.6,50000,43,5.5,3.1
2019,4,14,11:00,UTC,7,1036.4,39,0,0,7,-6.1,50000,18,6.4,3.7
2019,4,14,12:00,UTC,7,1036.2,35,0,0,7.4,-7.3,50000,13,6.6,4.6
2019,4,14,13:00,UTC,7,1035.7,33,0,0,7.7,-7.6,50000,22,5.5,2.4
2019,4,14,14:00,UTC,5,1035.4,32,0,0,8.7,-7,47940,63,7.8,3
2019,4,14,15:00,UTC,7,1035.2,34,0,0,8.2,-6.8,47720,47,7.6,3.6
2019,4,14,16:00,UTC,5,1034.9,43,0,0,6.5,-5.1,50000,170,2.8,1.3
2019,4,14,17:00,UTC,0,1034.9,43,0,0,6.2,-5.6,50000,45,4.8,2.2
2019,4,14,18:00,UTC,0,1035.2,43,0,0,5.1,-6.6,50000,26,3.2,2.2
2019,4,14,19:00,UTC,0,1035.4,49,0,0,3.7,-6.1,45750,46,2.8,2.2
2019,4,14,20:00,UTC,0,1035.9,52,0,0,2.5,-6.4,50000,46,2.3,1.8
2019,4,14,21:00,UTC,0,1036.1,55,0,0,1.8,-6.2,50000,22,3.1,2.3
2019,4,14,22:00,UTC,0,1036.4,63,0,0,0,-6.2,50000,12,2.6,2.1
2019,4,14,23:00,UTC,0,1036.5,64,0,0,-0.2,-6.2,50000,9,3.9,3.2
2019,4,15,00:00,UTC,0,1036.6,62,0,0,0,-6.4,50000,2,4.3,3.5
2019,4,15,01:00,UTC,0,1036.7,65,0,0,-0.8,-6.6,50000,355,3.6,3
2019,4,15,02:00,UTC,0,1036.7,68,0,0,-1.5,-6.6,50000,354,3.4,2.6
2019,4,15,03:00,UTC,0,1037,67,0,0,-1.2,-6.5,50000,356,4,3.2
2019,4,15,04:00,UTC,0,1037.1,65,0,0,-0.8,-6.5,50000,354,3.5,2.4
2019,4,15,05:00,UTC,0,1037,54,0,0,1.7,-6.5,43730,4,3.9,2.4
2019,4,15,06:00,UTC,0,1037.1,48,0,0,3.9,-6.2,32160,14,3.9,2.4
2019,4,15,07:00,UTC,0,1037.2,39,0,0,6.1,-7,45510,21,4.3,2.7
2019,4,15,08:00,UTC,0,1037.2,36,0,0,7.5,-6.7,44490,31,6.1,3.5
2019,4,15,09:00,UTC,0,1037.2,34,0,0,8.7,-6.4,43210,52,8.6,4.7
2019,4,15,10:00,UTC,0,1036.7,33,0,0,9.5,-6.1,36820,129,5.7,3.9
2019,4,15,11:00,UTC,0,1036.2,35,0,0,9.1,-5.5,43250,144,5.6,4.1
2019,4,15,12:00,UTC,0,1035.7,34,0,0,9.6,-5.7,42280,171,5.2,2.6
2019,4,15,13:00,UTC,0,1035.4,33,0,0,10.1,-5.4,38340,150,3.6,2.3
2019,4,15,14:00,UTC,0,1034.7,33,0,0,10,-5.6,42780,138,3.7,2.4
2019,4,15,15:00,UTC,0,1034,35,0,0,8.9,-5.8,46150,131,4.1,2.6
2019,4,15,16:00,UTC,0,1033.8,34,0,0,9,-6.1,50000,125,2.8,1.8
2019,4,15,17:00,UTC,0,1033.9,39,0,0,7.2,-5.9,50000,141,1.8,1.3
2019,4,15,18:00,UTC,0,1034,43,0,0,5.2,-6.3,50000,234,3,2.2
2019,4,15,19:00,UTC,0,1034.1,45,0,0,5,-6.1,50000,259,2.8,2.3
2019,4,15,20:00,UTC,0,1034.2,53,0,0,3.7,-5.1,50000,272,3.7,3.2
2019,4,15,21:00,UTC,0,1034.5,54,0,0,3.4,-5.1,50000,284,3.2,2.9
2019,4,15,22:00,UTC,0,1034.7,58,0,0,2.4,-4.9,50000,1,2.4,2.1
2019,4,15,23:00,UTC,0,1034.7,61,0,0,2.2,-4.6,50000,21,3.8,2.5
2019,4,16,00:00,UTC,0,1034.7,65,0,0,1.6,-4.3,50000,9,3.5,2.9
2019,4,16,01:00,UTC,0,1034.7,67,0,0,1.1,-4.2,50000,4,3.3,2.5
2019,4,16,02:00,UTC,0,1034.9,68,0,0,0.8,-4.4,50000,358,3.7,3
2019,4,16,03:00,UTC,0,1034.8,71,0,0,0.3,-4.4,50000,355,3.9,3.4
2019,4,16,04:00,UTC,0,1035.1,65,0,0,1.6,-4.2,50000,353,4.4,3.2
2019,4,16,05:00,UTC,0,1035.1,53,0,0,4.6,-4.3,33140,4,3.8,2.5
2019,4,16,06:00,UTC,0,1035.3,46,0,0,6.8,-4.1,37340,350,3,1.8
2019,4,16,07:00,UTC,0,1035.3,39,0,0,9.9,-3.5,30420,356,2.9,1.2
2019,4,16,08:00,UTC,0,1035.4,34,0,0,11.2,-4.3,40490,2,4.7,2.8
2019,4,16,09:00,UTC,0,1035.3,33,0,0,12.3,-3.5,46040,47,5.6,3.1
2019,4,16,10:00,UTC,0,1035,32,0,0,13.1,-3.3,34310,28,5,2.8
2019,4,16,11:00,UTC,0,1034.9,37,0,0,12.2,-1.9,39070,153,5.7,3.7
2019,4,16,12:00,UTC,0,1034.9,37,0,0,11.7,-2.5,38450,136,5,3.7
2019,4,16,13:00,UTC,0,1034.6,38,0,0,12.3,-1.7,40350,135,5.3,3.2
2019,4,16,14:00,UTC,0,1034.4,36,0,0,12.4,-2.1,46140,143,4.3,3.2
2019,4,16,15:00,UTC,0,1034.1,38,0,0,12.2,-1.6,38730,115,3.2,2
2019,4,16,16:00,UTC,0,1033.9,40,0,0,10.9,-2.3,50000,137,3.2,2.1
2019,4,16,17:00,UTC,0,1033.8,44,0,0,9.4,-2.2,50000,106,1.3,0.7
2019,4,16,18:00,UTC,0,1034.2,48,0,0,8.3,-2.2,50000,63,1,0.8
2019,4,16,19:00,UTC,0,1034.5,54,0,0,6.7,-2.1,47970,33,0.8,0.7
2019,4,16,20:00,UTC,0,1034.8,57,0,0,5.4,-2.5,50000,354,1.6,1.4
2019,4,16,21:00,UTC,0,1035.2,63,0,0,4.3,-2.1,49260,356,3,2.7
2019,4,16,22:00,UTC,0,1035.4,67,0,0,3.6,-2,35580,13,2.8,1.6
2019,4,16,23:00,UTC,0,1035.7,67,0,0,4,-1.6,49800,54,3.3,2.8
2019,4,17,00:00,UTC,0,1035.6,71,0,0,3.7,-1.2,46970,52,3.2,2.5
2019,4,17,01:00,UTC,0,1035.7,76,0,0,2.2,-1.6,45700,45,2.9,2.3
2019,4,17,02:00,UTC,0,1035.8,80,0,0,1.2,-1.9,42420,32,2.4,1.9
2019,4,17,03:00,UTC,0,1035.7,85,0,0,0.1,-2.1,40290,24,2.5,1.9
2019,4,17,04:00,UTC,0,1035.6,84,0,0,0.6,-1.7,24540,25,2.8,2
2019,4,17,05:00,UTC,0,1036,66,0,0,4.7,-1,32150,42,3,2
2019,4,17,06:00,UTC,0,1035.9,57,0,0,7.5,-0.5,28880,58,3.1,2.1
2019,4,17,07:00,UTC,0,1035.9,47,0,0,9.8,-0.9,36090,93,4,2.5
2019,4,17,08:00,UTC,0,1035.9,46,0,0,11,-0.3,25500,124,4.2,2.5
2019,4,17,09:00,UTC,0,1036,49,0,0,11.1,0.8,29230,146,4.6,3.6
2019,4,17,10:00,UTC,0,1035.8,46,0,0,11.6,0.5,29840,126,5.3,3.6
2019,4,17,11:00,UTC,0,1035.4,45,0,0,11.9,0.3,31480,134,4.8,3.3
2019,4,17,12:00,UTC,0,1035.1,42,0,0,12.3,-0.1,41900,143,5,2.7
2019,4,17,13:00,UTC,0,1034.8,42,0,0,11.7,-0.9,31450,136,4.2,2.8
2019,4,17,14:00,UTC,0,1034.1,41,0,0,12.6,-0.4,27770,156,3.9,2.3
2019,4,17,15:00,UTC,0,1033.7,43,0,0,11.6,-0.7,31070,198,4.9,3.4
2019,4,17,16:00,UTC,0,1033.4,44,0,0,11.1,-0.8,41840,195,3.3,2.4
2019,4,17,17:00,UTC,0,1033.3,49,0,0,9.3,-0.9,44200,219,3.5,1.9
2019,4,17,18:00,UTC,0,1033.5,57,0,0,7.2,-0.6,42070,218,4.1,2.9
2019,4,17,19:00,UTC,0,1033.6,62,0,0,6.4,-0.3,40170,219,3.2,2.5
2019,4,17,20:00,UTC,0,1033.5,64,0,0,6.3,0,37080,231,4.3,3.5
2019,4,17,21:00,UTC,0,1033.5,65,0,0,5.9,-0.2,43790,251,3.8,3.1
2019,4,17,22:00,UTC,0,1033.7,76,0,0,4.3,0.4,30800,296,3.1,2.5
2019,4,17,23:00,UTC,0,1033.9,78,0,0,3.8,0.3,26620,327,3.1,2.3
2019,4,18,00:00,UTC,0,1033.7,71,0,0,5.1,0.2,43390,314,5.4,4.1
2019,4,18,01:00,UTC,0,1033.7,70,0,0,4.5,-0.5,49870,319,4.3,3
2019,4,18,02:00,UTC,0,1033.7,67,0,0,4.3,-1.4,50000,321,4.1,3
2019,4,18,03:00,UTC,0,1033.8,67,0,0,3.9,-1.7,50000,328,3.5,2.4
2019,4,18,04:00,UTC,0,1033.7,63,0,0,4.6,-1.9,50000,326,3.8,2.7
2019,4,18,05:00,UTC,0,1034,53,0,0,7.1,-1.8,37320,339,4.5,2.6
2019,4,18,06:00,UTC,0,1034.2,46,0,0,10.1,-1,26120,331,2.1,0.9
2019,4,18,07:00,UTC,0,1034.4,40,0,0,12.4,-0.7,27890,339,2.2,1.1
2019,4,18,08:00,UTC,0,1034.5,33,0,0,15.1,-1,29910,18,3.4,2
2019,4,18,09:00,UTC,0,1034.6,34,0,0,15.4,-0.4,28360,75,4.7,2.1
2019,4,18,10:00,UTC,0,1034.6,35,0,0,16.2,0.7,25290,150,4.2,2.7
2019,4,18,11:00,UTC,0,1034.7,35,0,0,14.7,-0.6,41750,160,5,3.4
2019,4,18,12:00,UTC,0,1034.5,40,0,0,13.2,-0.1,37820,147,5,3.2
2019,4,18,13:00,UTC,0,1034.2,35,0,0,15.2,-0.1,38900,160,3.5,1.9
2019,4,18,14:00,UTC,0,1033.9,32,0,0,15.6,-1,42370,176,4.7,3.2
2019,4,18,15:00,UTC,0,1033.8,33,0,0,14.5,-1.7,38610,197,4.2,2.8
2019,4,18,16:00,UTC,0,1033.6,33,0,0,13.9,-2,50000,193,6.1,2.1
2019,4,18,17:00,UTC,0,1033.5,38,0,0,11.8,-1.9,50000,209,5.9,4.1
2019,4,18,18:00,UTC,0,1033.7,40,0,0,11.5,-1.5,50000,234,3.7,2.7
2019,4,18,19:00,UTC,0,1033.8,68,0,0,8.4,2.9,46470,239,2.3,1.8
2019,4,18,20:00,UTC,0,1033.8,79,0,0,6.6,3.2,50000,260,2.4,2
2019,4,18,21:00,UTC,0,1033.8,84,0,0,5.4,3,50000,271,1.9,1.5
2019,4,18,22:00,UTC,0,1034.1,83,0,0,4.5,1.8,43720,292,3.7,3.3
2019,4,18,23:00,UTC,0,1034.2,72,0,0,4.3,-0.3,44010,324,3.9,2.6
2019,4,19,00:00,UTC,0,1034.2,63,0,0,4.7,-1.8,50000,320,4.3,2.8
2019,4,19,01:00,UTC,0,1034.1,59,0,0,5.3,-2.1,50000,324,4.4,2.5
2019,4,19,02:00,UTC,1,1034.1,55,0,0,7.3,-1.2,50000,321,5.3,3
2019,4,19,03:00,UTC,3,1033.8,58,0,0,6.6,-1.1,50000,312,4.9,3
2019,4,19,04:00,UTC,1,1033.8,61,0,0,6.1,-0.8,50000,306,4.3,2.6
2019,4,19,05:00,UTC,0,1034,51,0,0,8.9,-0.6,49570,314,5.6,3.2
2019,4,19,06:00,UTC,0,1034,42,0,0,11,-1.5,50000,329,5.1,3.1
2019,4,19,07:00,UTC,0,1034,37,0,0,12.6,-1.9,44830,330,4.9,2.8
2019,4,19,08:00,UTC,0,1033.9,28,0,0,15.1,-3.1,40380,311,6.4,3.5
2019,4,19,09:00,UTC,0,1033.7,27,0,0,15.8,-3.3,43420,327,6.2,3.2
2019,4,19,10:00,UTC,0,1033.4,27,0,0,16.6,-2.5,44780,297,7.5,4
2019,4,19,11:00,UTC,1,1033,27,0,0,16.9,-2.3,40990,302,7.3,4.3
2019,4,19,12:00,UTC,1,1032.6,26,0,0,16.4,-3.2,41130,313,7.7,4.2
2019,4,19,13:00,UTC,0,1032,26,0,0,17.4,-2.6,43960,309,6.4,4.2
2019,4,19,14:00,UTC,0,1031.5,25,0,0,17.2,-3.1,44820,304,8.1,4.7
2019,4,19,15:00,UTC,1,1031,26,0,0,17.2,-2.6,43210,286,7.2,4.2
2019,4,19,16:00,UTC,7,1030.8,30,0,0,15.2,-2.5,39510,306,9.7,6.2
2019,4,19,17:00,UTC,7,1030.5,31,0,0,14.7,-2.2,50000,295,8.7,4.2
2019,4,19,18:00,UTC,7,1030.6,35,0,0,13.6,-1.8,50000,315,4.2,2.3
2019,4,19,19:00,UTC,7,1030.6,35,0,0,12.7,-2.6,33180,300,6.4,3.3
2019,4,19,20:00,UTC,0,1030.6,41,0,0,11.1,-1.6,50000,310,6.5,4
2019,4,19,21:00,UTC,3,1031,45,0,0,10.4,-1,50000,326,6.9,4
2019,4,19,22:00,UTC,1,1031.2,51,0,0,9.7,0,50000,354,6,4
2019,4,19,23:00,UTC,7,1031.1,55,0,0,9,0.4,50000,349,5.1,3.4
2019,4,20,00:00,UTC,1,1031,62,0,0,7.7,0.8,50000,336,4.3,2.8
2019,4,20,01:00,UTC,5,1031.3,65,0,0,7,0.9,50000,336,4.5,2.8
2019,4,20,02:00,UTC,3,1031.2,69,0,0,6.2,0.9,50000,338,5,3.3
2019,4,20,03:00,UTC,0,1031.3,74,0,0,4.9,0.6,50000,330,4.2,2.4
2019,4,20,04:00,UTC,0,1031.2,70,0,0,5.9,0.9,45760,333,5.1,3.1
2019,4,20,05:00,UTC,0,1031.1,64,0,0,6.9,0.6,44790,330,4.7,2.7
2019,4,20,06:00,UTC,0,1030.9,56,0,0,8.7,0.5,39320,355,3.6,1.9
2019,4,20,07:00,UTC,1,1030.6,47,0,0,11,0.1,50000,296,3.8,2.2
2019,4,20,08:00,UTC,0,1030.6,41,0,0,12.2,-0.8,39650,326,5.9,3.2
2019,4,20,09:00,UTC,1,1030.2,35,0,0,12.6,-2.6,40380,313,6.8,3.1
2019,4,20,10:00,UTC,7,1029.8,38,0,0,12.2,-1.9,47150,4,7.3,3.4
2019,4,20,11:00,UTC,7,1029.5,43,0,0,12,-0.2,45160,331,6.2,3.9
2019,4,20,12:00,UTC,7,1029.2,46,0,0,11.9,0.6,50000,336,6.3,3.7
2019,4,20,13:00,UTC,7,1028.7,50,0,0,11.5,1.4,50000,327,7.3,4.2
2019,4,20,14:00,UTC,7,1028.2,54,0,0,11,2,50000,327,7.4,4
2019,4,20,15:00,UTC,7,1027.9,60,0,0,10.6,3.1,50000,331,8.3,5.3
2019,4,20,16:00,UTC,7,1027.4,64,0,0,10.4,3.8,50000,321,6.2,3.7
2019,4,20,17:00,UTC,7,1027.1,67,0,0,9.8,3.9,50000,332,6.7,3.6
2019,4,20,18:00,UTC,3,1027.2,71,0,0,9.1,4.1,49940,340,5.3,3
2019,4,20,19:00,UTC,0,1027.4,76,0,0,7.8,3.9,46750,332,4.4,2.8
2019,4,20,20:00,UTC,0,1027.6,79,0,0,7.3,3.9,49980,12,4.1,2.5
2019,4,20,21:00,UTC,0,1027.6,81,0,0,6.6,3.5,47220,30,5.2,3.7
2019,4,20,22:00,UTC,0,1027.8,81,0,0,5.6,2.6,50000,61,4.6,3.5
2019,4,20,23:00,UTC,0,1027.6,83,0,0,5.3,2.6,46990,96,4.6,2.8
2019,4,21,00:00,UTC,0,1027.6,74,0,0,5.1,0.8,50000,98,5.4,3.5
2019,4,21,01:00,UTC,0,1027.8,72,0,0,4.8,0.1,50000,107,4.1,2.7
2019,4,21,02:00,UTC,0,1028.1,77,0,0,4.4,0.8,50000,77,3,1.8
2019,4,21,03:00,UTC,0,1028.2,77,0,0,4.2,0.5,39680,106,5.4,3.7
2019,4,21,04:00,UTC,0,1028.1,81,0,0,4.8,1.9,25540,113,5.1,3.7
2019,4,21,05:00,UTC,0,1028.3,73,0,0,5.9,1.4,34800,124,4.7,3.1
2019,4,21,06:00,UTC,0,1028.3,67,0,0,6.6,0.9,33150,136,7.2,5.5
2019,4,21,07:00,UTC,0,1028.7,63,0,0,7.3,0.8,34080,130,5.6,3.8
2019,4,21,08:00,UTC,0,1028.8,58,0,0,8.3,0.5,42640,121,5,3
2019,4,21,09:00,UTC,0,1028.5,59,0,0,8.3,0.6,32450,110,5.4,3.2
2019,4,21,10:00,UTC,0,1028.4,60,0,0,8.3,0.9,36210,91,6.1,4.4
2019,4,21,11:00,UTC,0,1028.1,55,0,0,8.9,0.4,31080,87,5.5,3.8
2019,4,21,12:00,UTC,0,1027.9,56,0,0,8.5,0.2,29990,88,6.3,4.7
2019,4,21,13:00,UTC,0,1027.2,54,0,0,8.9,0.1,35080,91,4.8,3
2019,4,21,14:00,UTC,0,1026.9,48,0,0,9.8,-0.7,38630,105,6,4.5
2019,4,21,15:00,UTC,0,1026.6,56,0,0,8.6,0.3,43870,90,5,3.5
2019,4,21,16:00,UTC,0,1026.4,55,0,0,8.4,-0.1,42490,84,3.9,3
2019,4,21,17:00,UTC,0,1026.5,62,0,0,7.3,0.5,50000,93,4,3.1
2019,4,21,18:00,UTC,0,1026.5,69,0,0,6.2,0.9,47880,83,3,2
2019,4,21,19:00,UTC,0,1026.5,74,0,0,5.3,1,35490,79,2.3,1.3
2019,4,21,20:00,UTC,0,1026.5,77,0,0,4.9,1.1,35830,87,2.6,1.6
2019,4,21,21:00,UTC,5,1026.5,77,0,0,4.8,1.2,40230,114,3.2,2.1
2019,4,21,22:00,UTC,7,1026.4,80,0,0,5.1,1.9,35650,110,2,1.6
2019,4,21,23:00,UTC,1,1026.2,86,0,0,4.6,2.4,26970,106,2.2,1.9
2019,4,22,00:00,UTC,7,1026,84,0,0,5,2.4,26170,163,2.9,2.1
2019,4,22,01:00,UTC,7,1026.1,83,0,0,5.3,2.6,24870,180,2.4,1.8
2019,4,22,02:00,UTC,7,1026.1,78,0,0,6,2.4,32850,201,3.6,2.5
2019,4,22,03:00,UTC,3,1026,75,0,0,6,1.9,40760,211,4.5,3
2019,4,22,04:00,UTC,7,1026.1,69,0,0,7.4,2.1,49630,209,4,3
2019,4,22,05:00,UTC,5,1026.6,62,0,0,8.8,1.9,40590,195,4.5,2.7
2019,4,22,06:00,UTC,5,1026.7,59,0,0,9.6,1.9,40790,202,4.9,3.5
2019,4,22,07:00,UTC,7,1027,62,0,0,8.8,2,42870,216,5.3,3.4
2019,4,22,08:00,UTC,7,1027,55,0,0,11.3,2.5,31770,210,4.4,2.8
2019,4,22,09:00,UTC,7,1027.3,54,0,0,11.3,2.2,40430,199,6.3,4.3
2019,4,22,10:00,UTC,7,1027.2,50,0,0,12.9,2.6,43070,194,4.7,3.4
2019,4,22,11:00,UTC,7,1027.3,50,0,0,13.2,2.9,35030,192,6.8,5.2
2019,4,22,12:00,UTC,7,1027.1,44,0,0,15.3,3.1,42090,217,6.8,4.8
2019,4,22,13:00,UTC,1,1026.9,42,0,0,16.2,3.1,33960,192,6.8,4.5
2019,4,22,14:00,UTC,3,1026.7,41,0,0,15.5,2.3,35460,213,9.2,6.6
2019,4,22,15:00,UTC,5,1026.7,45,0,0,14.2,2.5,45870,218,8.5,6.1
2019,4,22,16:00,UTC,3,1026.7,44,0,0,14.7,2.6,42420,219,7.6,5.2
2019,4,22,17:00,UTC,1,1026.8,46,0,0,13.9,2.6,50000,220,5.7,3.8
2019,4,22,18:00,UTC,1,1027.1,55,0,0,11.7,2.9,49240,218,6.4,4.6
2019,4,22,19:00,UTC,3,1027.3,57,0,0,10.8,2.7,50000,219,4.3,3.6
2019,4,22,20:00,UTC,0,1027.5,61,0,0,10,2.8,50000,219,4.1,3.3
2019,4,22,21:00,UTC,0,1027.8,62,0,0,9.4,2.5,50000,232,4.3,3.4
2019,4,22,22:00,UTC,0,1027.8,65,0,0,8.5,2.4,50000,236,7.4,4.7
2019,4,22,23:00,UTC,0,1028.2,67,0,0,8,2.2,50000,237,5.4,3
2019,4,23,00:00,UTC,0,1028.5,69,0,0,7.7,2.3,50000,230,4,3
2019,4,23,01:00,UTC,0,1028.8,83,0,0,6.3,3.7,45680,206,3.2,2.2
2019,4,23,02:00,UTC,0,1028.8,79,0,0,6,2.7,42780,210,3.9,2.9
2019,4,23,03:00,UTC,0,1028.9,79,0,0,6,2.6,32320,211,3.4,2.3
2019,4,23,04:00,UTC,0,1029.1,75,0,0,7.1,3,20340,218,5.3,4
2019,4,23,05:00,UTC,0,1029.2,65,0,0,9.5,3.2,24130,219,5.6,3.6
2019,4,23,06:00,UTC,0,1029.3,54,0,0,12.4,3.4,29420,215,5.3,4
2019,4,23,07:00,UTC,0,1029.5,52,0,0,13.6,4,31810,216,5.3,3.5
2019,4,23,08:00,UTC,0,1029.6,48,0,0,15.4,4.5,29790,214,5.2,4
2019,4,23,09:00,UTC,0,1029.5,43,0,0,17,4.3,23980,208,6.4,3.4
2019,4,23,10:00,UTC,0,1029.2,39,0,0,18.1,4.1,19970,194,7.7,4.3
2019,4,23,11:00,UTC,0,1029.2,37,0,0,18.1,3.1,35250,195,9,5.3
2019,4,23,12:00,UTC,0,1029,36,0,0,18,2.6,25190,214,9.9,6.2
2019,4,23,13:00,UTC,0,1028.6,35,0,0,18.3,2.6,36540,209,10.5,7.6
2019,4,23,14:00,UTC,0,1028.1,34,0,0,18.6,2.3,29640,209,10.2,7.7
2019,4,23,15:00,UTC,0,1027.6,31,0,0,18.6,1.3,39570,212,9.6,6.6
2019,4,23,16:00,UTC,0,1027.3,32,0,0,18.2,1.2,42310,220,7.1,5.1
2019,4,23,17:00,UTC,0,1027.3,37,0,0,16.5,1.5,38660,239,4.1,3
2019,4,23,18:00,UTC,0,1027.5,42,0,0,14.7,1.8,42470,238,5.1,3.1
2019,4,23,19:00,UTC,0,1027.7,43,0,0,13.6,1.1,41560,258,3.7,2.8
2019,4,23,20:00,UTC,0,1028,59,0,0,11.8,4,34130,223,2.5,2
2019,4,23,21:00,UTC,0,1028.2,75,0,0,9.2,5.1,24940,231,1.3,1.2
2019,4,23,22:00,UTC,0,1028.4,81,0,0,7.7,4.7,23620,218,2.2,2
2019,4,23,23:00,UTC,0,1028.5,85,0,0,7.4,5,17660,216,1.6,1.5
2019,4,24,00:00,UTC,0,1028.8,88,0,0,7.2,5.4,12020,200,1.4,1
2019,4,24,01:00,UTC,0,1028.9,90,0,0,6.6,5.1,8620,184,0.9,0.8
2019,4,24,02:00,UTC,0,1029,96,0,0,5.2,4.5,6460,0,0.6,0
2019,4,24,03:00,UTC,0,1029,96,0,0,4.9,4.4,6850,0,0.4,0
2019,4,24,04:00,UTC,0,1029.1,89,0,0,6.2,4.6,8090,77,1,0.8
2019,4,24,05:00,UTC,0,1029.1,69,0,0,10.4,5.1,15430,95,1.8,1.6
2019,4,24,06:00,UTC,0,1029.1,49,0,0,13.6,3,18530,125,2.6,1.7
2019,4,24,07:00,UTC,0,1029.2,43,0,0,15.5,2.8,19680,103,3.2,2
2019,4,24,08:00,UTC,0,1029.3,38,0,0,16.3,1.9,29180,97,3.9,2.5
2019,4,24,09:00,UTC,0,1029.1,34,0,0,16.7,0.9,35270,93,4.9,2.8
2019,4,24,10:00,UTC,0,1029.2,35,0,0,16.7,1.3,30860,87,4.2,3.4
2019,4,24,11:00,UTC,0,1028.8,33,0,0,17.2,0.8,32540,91,4.9,3.5
2019,4,24,12:00,UTC,0,1028.4,34,0,0,16.9,1.1,29730,107,4.8,3.5
2019,4,24,13:00,UTC,0,1027.9,32,0,0,17.5,0.8,29770,100,4.9,3.5
2019,4,24,14:00,UTC,0,1027.3,35,0,0,16.5,1,29590,106,5.2,3.4
2019,4,24,15:00,UTC,0,1026.7,37,0,0,16.5,1.6,27530,102,5.2,3.9
2019,4,24,16:00,UTC,0,1026.2,40,0,0,15.1,1.5,37440,99,4.4,3
2019,4,24,17:00,UTC,0,1025.8,44,0,0,13.4,1.5,34910,90,5.5,4.4
2019,4,24,18:00,UTC,0,1025.8,49,0,0,12,1.6,30990,92,4.7,3.4
2019,4,24,19:00,UTC,0,1025.9,52,0,0,11.3,2,24000,94,4.2,2.8
2019,4,24,20:00,UTC,0,1026,56,0,0,10.6,2.2,32850,94,3.6,2.7
2019,4,24,21:00,UTC,0,1026,61,0,0,9.7,2.5,28700,94,3.1,2.2
2019,4,24,22:00,UTC,0,1025.8,60,0,0,9.6,2.2,35520,72,3.4,2.6
2019,4,24,23:00,UTC,0,1025.5,55,0,0,10,1.3,40790,77,4.2,2.8
2019,4,25,00:00,UTC,0,1025.6,53,0,0,9.8,0.7,35730,63,3.6,2.9
2019,4,25,01:00,UTC,0,1025.4,54,0,0,9.4,0.5,35810,50,3.9,3
2019,4,25,02:00,UTC,0,1025.2,57,0,0,8.6,0.7,33770,49,4.3,3.3
2019,4,25,03:00,UTC,0,1024.9,59,0,0,8.5,1,28070,44,5,3.9
2019,4,25,04:00,UTC,0,1024.7,57,0,0,9.1,1.1,23540,49,4.8,3.6
2019,4,25,05:00,UTC,0,1024.5,50,0,0,11.2,1.1,20060,56,5.6,4
2019,4,25,06:00,UTC,0,1024.3,43,0,0,13.7,1.2,27820,58,4.6,2.9
2019,4,25,07:00,UTC,0,1024.1,34,0,0,16.5,0.8,25200,79,5.8,2.7
2019,4,25,08:00,UTC,0,1023.8,29,0,0,17.3,-0.8,22680,71,9.7,6.4
2019,4,25,09:00,UTC,1,1024.5,27,0,0,17.1,-2,24610,100,9,6.6
2019,4,25,10:00,UTC,3,1024.8,39,0,0,14.4,0.7,26980,141,6.6,3.9
2019,4,25,11:00,UTC,3,1024.1,34,0,0,15.1,-0.5,25120,78,5.4,3
2019,4,25,12:00,UTC,1,1023.3,29,0,0,17.4,-1,28470,60,5.3,4
2019,4,25,13:00,UTC,1,1022.7,27,0,0,18.1,-1.2,25100,66,9.1,4.6
2019,4,25,14:00,UTC,3,1022.4,29,0,0,17.8,-0.6,31400,69,8.3,5
2019,4,25,15:00,UTC,3,1022.3,33,0,0,17,0.7,33630,90,5.8,3.6
2019,4,25,16:00,UTC,7,1021.6,33,0,0,16.5,0.3,39640,50,6.6,4.5
2019,4,25,17:00,UTC,7,1021.6,33,0,0,16.4,0.1,36350,53,3.7,1.6
2019,4,25,18:00,UTC,7,1021.8,33,0,0,16,-0.2,36110,3,2.7,1.7
2019,4,25,19:00,UTC,7,1022.5,46,0,0,13.1,1.8,12950,223,3.2,2.2
2019,4,25,20:00,UTC,7,1021.8,41,0,0,14.2,1.1,34150,7,6.8,5.6
2019,4,25,21:00,UTC,7,1022.3,42,0,0,14,1.3,12930,232,2.8,2
2019,4,25,22:00,UTC,7,1022.4,48,0,0,12.8,2,26450,301,3.8,2
2019,4,25,23:00,UTC,7,1021.9,40,0,0,14.1,0.8,32050,33,5.9,4.4
2019,4,26,00:00,UTC,7,1021.9,45,0,0,13.1,1.4,28700,80,2.8,2.1
2019,4,26,01:00,UTC,7,1021,45,0,0,12.7,1,35240,63,6.9,4.7
2019,4,26,02:00,UTC,7,1020.7,59,0,0,11.7,3.9,12300,49,8,4.8
2019,4,26,03:00,UTC,7,1020.4,58,0,0,11.7,3.6,29860,69,4.5,3.4
2019,4,26,04:00,UTC,7,1020,54,0,0,11.9,2.8,30880,54,6.7,3.5
2019,4,26,05:00,UTC,7,1020,51,0,0,11.9,2,33610,65,5.8,3.9
2019,4,26,06:00,UTC,7,1019.7,49,0,0,11.8,1.5,32770,40,7.3,4.4
2019,4,26,07:00,UTC,7,1020.1,50,0,0,12.4,2.4,32700,77,7,4.8
2019,4,26,08:00,UTC,7,1019.1,49,0,0,13.4,2.9,27250,52,9.2,4.5
2019,4,26,09:00,UTC,7,1019.5,49,0,0,13.3,2.9,38130,82,3.6,2.4
2019,4,26,10:00,UTC,7,1019.4,54,0,0,13.1,4,31080,119,6.1,3.6
2019,4,26,11:00,UTC,7,1019.3,69,0,0,12.3,6.7,20810,123,5.9,4.5
2019,4,26,12:00,UTC,7,1017.6,75,1.6,0,12.1,7.8,17120,42,8,4.3
2019,4,26,13:00,UTC,7,1017.4,72,0,0,13.3,8.4,30480,115,3,2
2019,4,26,14:00,UTC,8,1017.5,64,0,0,12.9,6.3,30960,188,3.8,2.5
2019,4,26,15:00,UTC,8,1016.7,58,0,0,13.1,5,31750,66,2.8,1.9
2019,4,26,16:00,UTC,7,1016.1,54,0,0,14.3,5.2,32020,57,2.3,1.1
2019,4,26,17:00,UTC,5,1015.5,57,0,0,13.8,5.5,27520,76,2.9,1.6
2019,4,26,18:00,UTC,1,1015.2,59,0,0,13.1,5.2,32570,54,3,1.8
2019,4,26,19:00,UTC,0,1015,62,0,0,12.1,5.1,34080,22,2.9,2.2
2019,4,26,20:00,UTC,3,1014.7,68,0,0,11,5.4,32070,19,4.2,3.2
2019,4,26,21:00,UTC,7,1014.4,69,0,0,11.6,6.1,27970,337,3.8,2.9
2019,4,26,22:00,UTC,7,1014.3,73,0,0,11.3,6.6,20330,332,3.5,2.4
2019,4,26,23:00,UTC,7,1014.1,72,0,0,12.1,7.2,15620,350,4.4,3.3
2019,4,27,00:00,UTC,5,1013.8,79,0,0,11,7.6,19690,37,3.1,2.1
2019,4,27,01:00,UTC,1,1013.5,84,0,0,9.6,7.1,22130,22,3.5,2
2019,4,27,02:00,UTC,1,1013.3,82,0,0,9.7,6.7,23110,5,4,3.6
2019,4,27,03:00,UTC,0,1013.1,83,0,0,9.4,6.7,23500,350,4.4,3.4
2019,4,27,04:00,UTC,0,1012.8,82,0,0,10.2,7.3,25060,357,2.8,2
2019,4,27,05:00,UTC,0,1012.6,73,0,0,11.9,7.2,28040,14,4,2.4
2019,4,27,06:00,UTC,0,1012.5,64,0,0,14.3,7.6,26990,9,3,2
2019,4,27,07:00,UTC,0,1012.8,57,0,0,15.7,7.2,31860,37,4.9,3.4
2019,4,27,08:00,UTC,0,1012.8,50,0,0,17.1,6.7,29050,34,4.8,3
2019,4,27,09:00,UTC,0,1012.8,46,0,0,18.6,6.9,27410,66,7.5,4.4
2019,4,27,10:00,UTC,0,1012.7,47,0,0,19.1,7.5,29690,108,5.9,3.5
2019,4,27,11:00,UTC,0,1012.9,45,0,0,19.7,7.6,27540,120,4.9,3.2
2019,4,27,12:00,UTC,0,1012.9,43,0,0,19.5,6.6,29280,136,6.4,4.7
2019,4,27,13:00,UTC,0,1012.9,40,0,0,18.7,5,30610,121,6,4.2
2019,4,27,14:00,UTC,0,1012.9,32,0,0,18.6,1.8,31270,125,5,3.6
2019,4,27,15:00,UTC,0,1012.7,34,0,0,17.6,1.4,44120,119,4.7,2.7
2019,4,27,16:00,UTC,0,1012.9,35,0,0,16.8,1.4,47410,136,4.3,2.8
2019,4,27,17:00,UTC,0,1013.3,37,0,0,15.8,1.1,48300,0,0.8,0
2019,4,27,18:00,UTC,0,1013.8,40,0,0,14.4,1.1,48710,0,0.7,0
2019,4,27,19:00,UTC,0,1014.3,46,0,0,13.1,1.7,40130,296,1.7,0.9
2019,4,27,20:00,UTC,0,1014.7,46,0,0,12.8,1.5,44860,338,2.8,2
2019,4,27,21:00,UTC,0,1016.4,51,0,0,12.7,2.8,9810,59,14.8,9.1
2019,4,27,22:00,UTC,0,1017.7,60,0,0,10.8,3.4,44520,75,11.9,7.1
2019,4,27,23:00,UTC,0,1018.6,61,0,0,9.2,2.2,45060,75,13.4,8.3
2019,4,28,00:00,UTC,0,1019.7,65,0,0,7.6,1.4,50000,77,10.5,6.6
2019,4,28,01:00,UTC,0,1020.3,62,0,0,7,0.3,50000,70,8.9,6.3
2019,4,28,02:00,UTC,0,1020.9,72,0,0,5.9,1.2,50000,75,8.9,5.2
2019,4,28,03:00,UTC,0,1021.6,67,0,0,4.8,-0.7,50000,55,5.5,3.6
2019,4,28,04:00,UTC,0,1022.2,65,0,0,4.5,-1.6,50000,45,7.8,5.4
2019,4,28,05:00,UTC,0,1023.1,62,0,0,4.6,-2.1,50000,58,10.7,7
2019,4,28,06:00,UTC,0,1023.5,57,0,0,5.1,-2.7,44420,69,9.7,5.5
2019,4,28,07:00,UTC,0,1024.2,55,0,0,5.3,-2.9,50000,63,10.1,6.6
2019,4,28,08:00,UTC,0,1024.5,52,0,0,5.7,-3.4,44740,73,10.8,7.2
2019,4,28,09:00,UTC,0,1025.1,50,0,0,6.8,-2.7,39070,88,10.3,6.2
2019,4,28,10:00,UTC,0,1025.3,44,0,0,7,-4.4,35200,89,11.6,8.5
2019,4,28,11:00,UTC,0,1025.2,45,0,0,7.7,-3.5,34500,92,7.4,4.8
2019,4,28,12:00,UTC,0,1025.3,48,0,0,8.5,-1.7,45070,105,8.9,6
2019,4,28,13:00,UTC,0,1025.1,46,0,0,7.3,-3.6,41980,90,9.3,6.8
2019,4,28,14:00,UTC,0,1025,45,0,0,8.1,-3.1,47610,101,9.4,5.6
2019,4,28,15:00,UTC,0,1024.6,46,0,0,7.7,-3.3,50000,93,9.7,5.6
2019,4,28,16:00,UTC,0,1024.7,42,0,0,7,-5.2,50000,88,9.6,6
2019,4,28,17:00,UTC,0,1024.9,47,0,0,6.3,-4.2,50000,83,7.5,4.2
2019,4,28,18:00,UTC,0,1025.3,50,0,0,5.8,-3.8,50000,84,7.1,4.3
2019,4,28,19:00,UTC,0,1025.6,53,0,0,5.6,-3.3,50000,81,5.9,3.7
2019,4,28,20:00,UTC,0,1026.2,56,0,0,5.2,-2.9,50000,78,5.6,3
2019,4,28,21:00,UTC,0,1026.5,56,0,0,4.6,-3.4,50000,64,4.4,2.9
2019,4,28,22:00,UTC,0,1026.9,63,0,0,3.3,-3.1,50000,42,3,2.2
2019,4,28,23:00,UTC,0,1027.1,74,0,0,1,-3.2,50000,48,1.8,1.5
2019,4,29,00:00,UTC,0,1026.8,75,0,0,0.7,-3.2,50000,41,2.5,2
2019,4,29,01:00,UTC,0,1026.9,77,0,0,-0.1,-3.6,50000,37,3,2.5
2019,4,29,02:00,UTC,0,1026.9,82,0,0,-1,-3.8,48880,30,2.8,2
2019,4,29,03:00,UTC,0,1026.7,78,0,0,0.1,-3.2,45890,29,3.9,3
2019,4,29,04:00,UTC,0,1026.3,69,0,0,1.8,-3.2,44980,44,3,2.3
2019,4,29,05:00,UTC,0,1026.1,60,0,0,4.2,-2.9,38200,74,3.4,1.9
2019,4,29,06:00,UTC,0,1026.1,51,0,0,6.4,-3.1,41490,88,5.3,3.3
2019,4,29,07:00,UTC,0,1026.3,51,0,0,7.2,-2.3,40570,90,3.9,2.5
2019,4,29,08:00,UTC,0,1026.1,49,0,0,8.3,-1.8,38800,103,5.3,3
2019,4,29,09:00,UTC,0,1025.8,41,0,0,10,-2.6,30870,112,6.1,3.6
2019,4,29,10:00,UTC,0,1025.4,43,0,0,9.8,-2.3,39660,98,6.5,4.3
2019,4,29,11:00,UTC,0,1024.9,30,0,0,9.8,-6.8,44160,90,5.8,4.2
2019,4,29,12:00,UTC,0,1024.6,34,0,0,9.4,-5.8,45020,87,5.1,3.7
2019,4,29,13:00,UTC,0,1024.1,35,0,0,9.5,-5,38900,137,5.8,3.8
2019,4,29,14:00,UTC,0,1023.6,35,0,0,9.5,-5.3,44950,120,5.4,4
2019,4,29,15:00,UTC,1,1023.1,36,0,0,9.4,-5.1,47330,124,5.3,3.7
2019,4,29,16:00,UTC,1,1023.1,43,0,0,7.5,-4.2,50000,93,4.8,3.3
2019,4,29,17:00,UTC,0,1023.1,47,0,0,6.7,-3.7,50000,92,4.2,2.8
2019,4,29,18:00,UTC,0,1023.2,51,0,0,6.1,-3.4,50000,104,2.9,1.8
2019,4,29,19:00,UTC,1,1023.4,52,0,0,5.2,-3.9,50000,106,3.3,2.1
2019,4,29,20:00,UTC,1,1023.5,59,0,0,4.8,-2.6,50000,94,1.9,1.3
2019,4,29,21:00,UTC,0,1023.4,64,0,0,4,-2.2,50000,117,2.2,1.6
2019,4,29,22:00,UTC,0,1023.2,60,0,0,4,-3,50000,143,2.8,2
2019,4,29,23:00,UTC,0,1023.2,71,0,0,3,-1.7,49900,79,1.4,1
2019,4,30,00:00,UTC,1,1022.8,74,0,0,3.1,-1,50000,96,2.6,1.9
2019,4,30,01:00,UTC,0,1022.7,73,0,0,2.7,-1.5,50000,72,1.6,1.4
2019,4,30,02:00,UTC,5,1022.4,77,0,0,1.7,-1.9,41600,70,1.9,1.7
2019,4,30,03:00,UTC,5,1022.1,74,0,0,3.7,-0.5,45630,87,2.8,1.8
2019,4,30,04:00,UTC,7,1021.7,74,0,0,4.8,0.7,40800,116,2.2,1.4
2019,4,30,05:00,UTC,7,1021.7,67,0,0,5.9,0.2,49020,96,2.9,1.3
2019,4,30,06:00,UTC,7,1021.2,57,0,0,7.6,-0.4,42350,110,4.6,3
2019,4,30,07:00,UTC,1,1021.3,45,0,0,8.8,-2.5,27550,116,4.9,3.3
2019,4,30,08:00,UTC,7,1021.3,46,0,0,8.1,-3,46090,85,3.5,2.3
2019,4,30,09:00,UTC,7,1021.1,50,0,0,8.5,-1.3,38950,106,5.2,3.8
2019,4,30,10:00,UTC,7,1020.7,47,0,0,8.9,-1.7,42210,93,4.4,2.9
2019,4,30,11:00,UTC,7,1020.4,40,0,0,9.4,-3.4,42130,85,5.6,4.1
2019,4,30,12:00,UTC,5,1019.6,41,0,0,10,-2.8,46070,100,4.6,2.7
2019,4,30,13:00,UTC,1,1018.9,33,0,0,11.6,-4.1,33200,133,4.7,2.7
2019,4,30,14:00,UTC,1,1018.3,34,0,0,11.2,-4.2,46660,133,4.7,3.5
2019,4,30,15:00,UTC,0,1017.6,32,0,0,10.7,-5.3,39740,124,4.7,2.9
2019,4,30,16:00,UTC,1,1017.1,33,0,0,10.4,-5.1,50000,126,3.2,2
2019,4,30,17:00,UTC,0,1016.6,37,0,0,8.3,-5.5,50000,144,2.7,1.7
2019,4,30,18:00,UTC,0,1016.2,42,0,0,6.8,-5.4,50000,140,3,2
2019,4,30,19:00,UTC,0,1015.8,51,0,0,5.9,-3.4,50000,119,3.7,2.8
2019,4,30,20:00,UTC,0,1015.3,61,0,0,5.2,-1.7,50000,132,4,2.8
2019,4,30,21:00,UTC,0,1014.7,63,0,0,5,-1.4,50000,128,3.2,2
2019,4,30,22:00,UTC,0,1014.2,65,0,0,5.1,-0.9,50000,124,3.2,2.3
2019,4,30,23:00,UTC,0,1013.4,68,0,0,4.8,-0.6,50000,123,3.1,2.6
2019,5,1,00:00,UTC,0,1012.7,77,0,0,4,0.3,50000,160,3,2.3
2019,5,1,01:00,UTC,0,1011.8,85,0,0,2.8,0.5,35920,146,2.3,2
2019,5,1,02:00,UTC,0,1010.9,83,0,0,2.9,0.2,44310,148,2.5,2.2
2019,5,1,03:00,UTC,0,1010,85,0,0,3.5,1.1,44340,161,3.7,2.6
2019,5,1,04:00,UTC,0,1009.1,61,0,0,6.1,-0.8,38120,193,4.7,3.1
2019,5,1,05:00,UTC,0,1008.3,51,0,0,8.1,-1.6,38990,196,5.4,3.9
2019,5,1,06:00,UTC,0,1007.6,45,0,0,9.4,-1.9,41420,189,6,3.7
2019,5,1,07:00,UTC,0,1006.9,49,0,0,10.2,0,37310,176,4.2,2.6
2019,5,1,08:00,UTC,0,1006,49,0,0,12.7,2.3,32840,160,4.7,2.9
2019,5,1,09:00,UTC,0,1005.2,47,0,0,13.1,1.9,27060,157,5.4,3.5
2019,5,1,10:00,UTC,0,1004.5,45,0,0,12.6,0.8,33920,201,6.8,4.6
2019,5,1,11:00,UTC,1,1003.6,36,0,0,13.4,-1.6,30680,199,8.4,5.7
2019,5,1,12:00,UTC,0,1002.3,31,0,0,14.3,-2.8,30520,202,8.4,4.2
2019,5,1,13:00,UTC,0,1001,33,0,0,14.3,-1.6,29480,214,11.3,6
2019,5,1,14:00,UTC,3,999.8,30,0,0,14.3,-3.1,18360,220,12.9,8.2
2019,5,1,15:00,UTC,1,998.6,26,0,0,13.3,-6.1,38520,226,10.6,7.4
2019,5,1,16:00,UTC,5,997.8,32,0,0,12.3,-4,47060,231,10.1,6.6
2019,5,1,17:00,UTC,7,996.8,37,0,0,10.8,-3.4,50000,227,9.7,6
2019,5,1,18:00,UTC,8,996.2,71,0,0,8.4,3.4,21330,215,10.7,6.8
2019,5,1,19:00,UTC,8,995.1,88,0.7,0,6.1,4.3,11050,216,9.3,6
2019,5,1,20:00,UTC,8,993.8,95,0,0,5.4,4.8,11810,207,9.5,6.8
2019,5,1,21:00,UTC,8,992.7,97,0.3,0,5.4,5,10420,207,6.4,4.1
2019,5,1,22:00,UTC,8,991.7,97,0,0,5.4,4.9,7530,255,4.2,3
2019,5,1,23:00,UTC,8,990.9,97,0,0,5.4,4.9,11180,258,4.9,3.2
2019,5,2,00:00,UTC,7,990.2,96,0,0,5.3,4.7,20040,258,4.8,3.1
2019,5,2,01:00,UTC,7,989.4,95,0,0,5.3,4.5,22970,276,4.1,2.6
2019,5,2,02:00,UTC,7,988.6,92,0,0,4.7,3.5,49470,283,2.7,2
2019,5,2,03:00,UTC,8,988,93,0,0,4.8,3.8,49320,294,2.7,2
2019,5,2,04:00,UTC,7,987.6,90,0,0,4.8,3.3,44920,306,3.4,2.3
2019,5,2,05:00,UTC,8,986.9,84,0,0,5,2.5,49370,323,3,1.7
2019,5,2,06:00,UTC,8,986.1,87,0,0,4.8,2.8,27750,219,2.4,0.8
2019,5,2,07:00,UTC,8,985.7,85,0,0,5.3,3,37440,308,3,2
2019,5,2,08:00,UTC,7,985.1,83,0,0,5.6,3,31300,113,3.5,1.2
2019,5,2,09:00,UTC,8,984.6,81,0,0,5.8,2.7,44210,120,3.2,2.2
2019,5,2,10:00,UTC,7,984.3,91,0.2,0,5.1,3.8,10640,180,4.8,3.3
2019,5,2,11:00,UTC,7,983.5,91,0.6,0,4.7,3.3,11510,126,3.6,2.3
2019,5,2,12:00,UTC,5,982.7,89,0,0,5.2,3.5,26050,90,3.7,2.4
2019,5,2,13:00,UTC,8,982,89,0,0,4.7,3.1,30640,91,4.7,3.1
2019,5,2,14:00,UTC,7,981.3,92,1.1,0,4.6,3.4,13220,72,4,2.8
2019,5,2,15:00,UTC,7,980.7,92,0.7,0,4.2,3.1,13890,80,5.1,3.4
2019,5,2,16:00,UTC,5,980.3,92,1.6,0,3.8,2.6,9530,29,2,0.9
2019,5,2,17:00,UTC,7,980.2,93,2.8,0,3.7,2.6,9830,355,6.7,3.7
2019,5,2,18:00,UTC,7,980.7,93,1.7,0,2.7,1.7,15200,334,8.3,4.6
2019,5,2,19:00,UTC,7,981.2,96,1,0,1.2,0.6,6030,318,6,3.8
2019,5,2,20:00,UTC,7,981.6,95,1.1,0,1,0.3,4540,318,8.6,4.6
2019,5,2,21:00,UTC,7,982,94,0.4,0,1,0.1,17230,311,10.6,4.5
2019,5,2,22:00,UTC,7,982.7,94,0,0,0.6,-0.3,11560,307,8.1,5.1
2019,5,2,23:00,UTC,7,983.2,89,0,0,0.3,-1.4,50000,306,10.1,5.4
2019,5,3,00:00,UTC,7,983.8,87,0,0,0.1,-1.8,50000,295,9,5.3
2019,5,3,01:00,UTC,8,984.4,83,0,0,0,-2.5,50000,298,9.3,5.1
2019,5,3,02:00,UTC,8,984.8,84,0,0,0,-2.3,50000,284,8,4.4
2019,5,3,03:00,UTC,7,985.3,83,0,0,0.1,-2.5,45350,276,10.2,5.7
2019,5,3,04:00,UTC,8,986.2,82,0,0,0.1,-2.6,31260,275,9.9,6.3
2019,5,3,05:00,UTC,8,987,80,0,0,0.1,-2.8,50000,276,10.5,5.9
2019,5,3,06:00,UTC,8,988,75,0,0,0.3,-3.6,50000,269,10.9,6
2019,5,3,07:00,UTC,8,988.9,70,0,0,0.9,-3.9,49180,273,10.5,6.3
2019,5,3,08:00,UTC,7,989.8,69,0,0,1.5,-3.5,50000,283,9.8,6.2
2019,5,3,09:00,UTC,7,990.8,61,0,0,1.9,-4.9,45540,281,13.9,7.5
2019,5,3,10:00,UTC,7,991.8,56,0,0,2.4,-5.6,45540,278,14.8,7.8
2019,5,3,11:00,UTC,7,992.6,47,0,0,4.7,-5.7,35700,272,14.2,7.4
2019,5,3,12:00,UTC,7,993.2,52,0,0,4.3,-4.7,50000,260,12.5,8.2
2019,5,3,13:00,UTC,7,994.2,45,0,0,4.7,-6.3,50000,273,11.9,6.4
2019,5,3,14:00,UTC,7,995,41,0,0,4.9,-7.1,50000,275,12.6,6.8
2019,5,3,15:00,UTC,3,995.8,45,0,0,3.8,-7,50000,273,11.3,6.7
2019,5,3,16:00,UTC,5,996.5,46,0,0,3.1,-7.5,50000,266,11.7,7
2019,5,3,17:00,UTC,7,997.4,47,0,0,2.3,-8,50000,268,12.6,7.7
2019,5,3,18:00,UTC,7,998.1,51,0,0,1.8,-7.3,50000,277,12.4,7.1
2019,5,3,19:00,UTC,7,998.7,51,0,0,1.2,-7.8,50000,274,9.8,6.2
2019,5,3,20:00,UTC,7,999,53,0,0,0.7,-7.7,50000,254,8.8,5.3
2019,5,3,21:00,UTC,1,999.3,58,0,0,-0.2,-7.4,50000,256,7.9,5
2019,5,3,22:00,UTC,3,999.9,58,0,0,-0.4,-7.6,50000,258,8.2,5
2019,5,3,23:00,UTC,0,1000.2,63,0,0,-0.7,-6.7,50000,248,8,5.2
2019,5,4,00:00,UTC,1,1000.6,70,0,0,-1.2,-6,50000,246,7.6,5.1
2019,5,4,01:00,UTC,3,1000.7,74,0,0,-1.2,-5.3,50000,249,7.6,5.3
2019,5,4,02:00,UTC,3,1001,75,0,0,-1.2,-5,50000,247,6.3,4.1
2019,5,4,03:00,UTC,0,1001.1,75,0,0,-1.1,-4.9,50000,248,5.3,3.8
2019,5,4,04:00,UTC,0,1001.5,68,0,0,0.2,-5,50000,253,5.7,3.7
2019,5,4,05:00,UTC,5,1002,62,0,0,1,-5.4,50000,254,6,4.6
2019,5,4,06:00,UTC,7,1002.2,56,0,0,2.4,-5.4,49600,247,4.7,3.1
2019,5,4,07:00,UTC,0,1002.3,56,0,0,3.6,-4.3,44130,217,5.7,3.8
2019,5,4,08:00,UTC,1,1002.5,57,0,0,4.8,-2.9,43330,143,7.3,4.7
2019,5,4,09:00,UTC,1,1002.5,61,0,0,5.4,-1.5,38080,148,6.4,4.1
2019,5,4,10:00,UTC,7,1002.5,57,0,0,5.5,-2.3,45840,157,6.7,4
2019,5,4,11:00,UTC,9,1002.7,89,1.9,0,2,0.3,9830,128,4,2.6
2019,5,4,12:00,UTC,7,1003,91,1.2,0,1.8,0.5,8910,84,4.8,3
2019,5,4,13:00,UTC,7,1003,92,0,0,2.1,0.9,14290,76,5.2,3.4
2019,5,4,14:00,UTC,7,1002.7,96,0,0,1.7,1.1,19290,45,4.8,3
2019,5,4,15:00,UTC,7,1002.9,96,1,0,1.3,0.8,6030,71,3.3,2
2019,5,4,16:00,UTC,7,1002.4,96,0,0,2,1.4,20960,25,3.2,2.3
2019,5,4,17:00,UTC,7,1002.2,95,0,0,2.6,1.9,13500,32,2.8,2.1
2019,5,4,18:00,UTC,7,1002.5,95,0.8,0,2.9,2.1,11950,126,2.2,1.2
2019,5,4,19:00,UTC,7,1002.8,97,0.4,0,2.3,1.8,9710,235,6.6,3.2
2019,5,4,20:00,UTC,8,1002.8,97,0,0,2.4,2,12700,227,4.3,2.2
2019,5,4,21:00,UTC,3,1003.1,95,0,0,1.9,1.1,43190,258,4.6,3.2
2019,5,4,22:00,UTC,7,1003.5,97,0,0,2,1.6,19830,243,5.5,4.3
2019,5,4,23:00,UTC,5,1003.9,97,0,0,1.7,1.3,16660,227,7.2,4.1
2019,5,5,00:00,UTC,1,1004.5,96,0,0,1.5,1,27150,241,6.2,4.2
2019,5,5,01:00,UTC,0,1005.4,93,0,0,0.5,-0.4,50000,249,6.7,5
2019,5,5,02:00,UTC,0,1006.1,92,0,0,-0.4,-1.6,50000,256,5.3,4.1
2019,5,5,03:00,UTC,0,1006.8,94,0,0,-0.6,-1.4,44920,218,3.6,2.7
2019,5,5,04:00,UTC,0,1007.2,85,0,0,1.2,-1.1,46460,219,4.1,3.2
2019,5,5,05:00,UTC,0,1007.3,77,0,0,3.8,0.1,47710,200,5.1,3.1
2019,5,5,06:00,UTC,1,1007.7,76,0,0,4.7,0.9,47260,209,9,6
2019,5,5,07:00,UTC,3,1008.3,76,0,0,6.2,2.4,41380,193,9.3,5.9
2019,5,5,08:00,UTC,5,1008.8,78,0,0,5.2,1.7,38620,189,11.2,7
2019,5,5,09:00,UTC,1,1009.2,71,0,0,6.5,1.6,34880,196,10,6.8
2019,5,5,10:00,UTC,1,1009.4,72,0,0,7.1,2.4,32180,207,11,6.8
2019,5,5,11:00,UTC,0,1009.5,63,0,0,7.9,1.4,39760,198,11.5,8.1
2019,5,5,12:00,UTC,0,1009.9,59,0,0,8.6,1,42680,202,9.9,6.1
2019,5,5,13:00,UTC,0,1009.9,48,0,0,9.4,-1,41380,203,11.6,6.1
2019,5,5,14:00,UTC,0,1010.1,43,0,0,9,-2.8,43380,216,13,8.5
2019,5,5,15:00,UTC,0,1010.2,43,0,0,8.5,-3.4,50000,218,12.4,7.1
2019,5,5,16:00,UTC,0,1010.3,51,0,0,8.1,-1.5,50000,206,8.1,5.6
2019,5,5,17:00,UTC,0,1010.5,63,0,0,6.7,0.1,50000,205,7.9,4.9
2019,5,5,18:00,UTC,0,1010.6,76,0,0,5.3,1.5,50000,191,6.9,4.9
2019,5,5,19:00,UTC,0,1011.1,88,0,0,4,2.2,50000,193,4.5,3.4
2019,5,5,20:00,UTC,1,1011.3,92,0,0,3.7,2.5,49160,193,6.7,4.8
2019,5,5,21:00,UTC,0,1011.5,91,0,0,3.4,2.1,50000,217,5.5,4.1
2019,5,5,22:00,UTC,3,1012.1,92,0,0,2.7,1.5,49760,214,4.6,3.3
2019,5,5,23:00,UTC,1,1012.3,96,0,0,2.8,2.2,22190,203,4.2,3.2
2019,5,6,00:00,UTC,3,1012.5,96,0,0,3,2.4,20140,205,4.3,3.1
2019,5,6,01:00,UTC,7,1012.8,93,0,0,3.7,2.6,44510,203,5,3.3
2019,5,6,02:00,UTC,7,1013,91,0,0,3.5,2.2,46380,182,3.3,1.5
2019,5,6,03:00,UTC,7,1013.2,87,0,0,4.9,2.9,32420,135,2.6,1.8
2019,5,6,04:00,UTC,1,1013.5,76,0,0,5.6,1.7,37540,131,3.7,2.7
2019,5,6,05:00,UTC,0,1013.5,73,0,0,6.5,2,35950,118,3.4,2.7
2019,5,6,06:00,UTC,1,1013.8,75,0,0,7.1,2.8,37590,144,6.5,4.1
2019,5,6,07:00,UTC,0,1014,67,0,0,8.5,2.6,28930,154,4.7,2.3
2019,5,6,08:00,UTC,0,1014.3,54,0,0,8.7,0,39050,179,6.7,3.8
2019,5,6,09:00,UTC,0,1014.4,51,0,0,9.2,-0.4,34260,152,5.8,3.8
2019,5,6,10:00,UTC,0,1014.4,50,0,0,10.5,0.5,40270,163,6.7,4.3
2019,5,6,11:00,UTC,0,1014.5,46,0,0,10.8,-0.4,41340,142,6.6,4.3
2019,5,6,12:00,UTC,0,1014.4,48,0,0,9.9,-0.7,49150,90,6.3,4.6
2019,5,6,13:00,UTC,0,1014.2,48,0,0,9.9,-0.6,42530,100,9,5.9
2019,5,6,14:00,UTC,0,1014,47,0,0,9.5,-1.4,44630,100,8.6,5.2
2019,5,6,15:00,UTC,0,1013.8,52,0,0,9,-0.5,39960,96,9.7,7
2019,5,6,16:00,UTC,1,1013.3,46,0,0,8.9,-2.1,50000,88,9.4,6
2019,5,6,17:00,UTC,0,1013,56,0,0,7.8,-0.5,50000,91,10.3,5.8
2019,5,6,18:00,UTC,1,1012.8,64,0,0,7.2,0.8,50000,84,9,6
2019,5,6,19:00,UTC,1,1012.6,69,0,0,6.7,1.4,50000,86,9.1,5.1
2019,5,6,20:00,UTC,3,1012.6,75,0,0,6,1.9,50000,91,8.8,5.5
2019,5,6,21:00,UTC,7,1012.5,73,0,0,6.3,1.9,50000,94,6.5,4.1
2019,5,6,22:00,UTC,3,1012.1,66,0,0,6.5,0.5,50000,96,6.5,4.2
2019,5,6,23:00,UTC,7,1011.7,70,0,0,6.2,1.1,50000,94,6.1,3.9
2019,5,7,00:00,UTC,8,1011.3,74,0,0,5.8,1.6,50000,96,5.7,3.6
2019,5,7,01:00,UTC,7,1010.8,73,0,0,5.8,1.4,50000,95,4.8,3
2019,5,7,02:00,UTC,5,1010.2,76,0,0,5.6,1.6,50000,80,5,3
2019,5,7,03:00,UTC,7,1009.8,78,0,0,5.5,2.1,50000,76,4,2.5
2019,5,7,04:00,UTC,7,1009.3,75,0,0,6,1.8,50000,79,6.6,3.8
2019,5,7,05:00,UTC,7,1009.1,71,0,0,6.3,1.5,49170,91,5.6,3.5
2019,5,7,06:00,UTC,7,1008.5,69,0,0,6.5,1.2,50000,91,5.7,3.9
2019,5,7,07:00,UTC,5,1008,69,0,0,7.3,1.9,46610,111,5.7,4
2019,5,7,08:00,UTC,5,1007.8,71,0,0,7.4,2.5,41550,90,6.4,5.1
2019,5,7,09:00,UTC,3,1007.8,71,0,0,8,3.2,35540,98,6.3,3.9
2019,5,7,10:00,UTC,7,1007.9,70,0,0,9,3.8,39500,154,6.4,3.9
2019,5,7,11:00,UTC,5,1007.6,67,0,0,8.9,3,41690,151,5.7,3.3
2019,5,7,12:00,UTC,5,1007.3,59,0,0,9.7,2,36640,191,5.7,2.7
2019,5,7,13:00,UTC,3,1007.2,62,0,0,10.3,3.3,42410,171,7.4,4.8
2019,5,7,14:00,UTC,0,1007.3,63,0,0,9.6,3,36480,192,10.4,7.1
2019,5,7,15:00,UTC,5,1007.3,49,0,0,9.2,-0.9,44550,221,11.2,7.1
2019,5,7,16:00,UTC,1,1007.3,45,0,0,8.9,-2.4,49470,221,10.2,6.7
2019,5,7,17:00,UTC,0,1007.5,50,0,0,7.7,-2.2,50000,227,9.6,6.2
2019,5,7,18:00,UTC,0,1007.9,58,0,0,6.5,-1.2,50000,226,9.7,7
2019,5,7,19:00,UTC,0,1008.4,75,0,0,5.1,1,50000,217,9,5.8
2019,5,7,20:00,UTC,0,1009.1,84,0,0,4.2,1.8,50000,215,8.5,5.2
2019,5,7,21:00,UTC,0,1009.3,86,0,0,4,1.8,50000,218,7,4.5
2019,5,7,22:00,UTC,5,1009.4,88,0,0,4.7,3,44710,215,8.5,4.5
2019,5,7,23:00,UTC,7,1009.4,89,0,0,5.1,3.4,26270,212,6.6,4.3
2019,5,8,00:00,UTC,7,1009.6,87,0,0,4.9,3,29960,194,7.7,4.5
2019,5,8,01:00,UTC,7,1009.7,89,0,0,4.9,3.3,32200,203,7.7,4.9
2019,5,8,02:00,UTC,8,1010,91,0,0,5,3.6,24320,202,9.4,6.3
2019,5,8,03:00,UTC,7,1010.2,91,0,0,5.1,3.8,23570,206,9.7,5.7
2019,5,8,04:00,UTC,8,1010.6,90,0,0,5.4,3.9,23960,200,9.8,5.8
2019,5,8,05:00,UTC,7,1011.2,88,0,0,5.7,3.9,25480,195,9,6.1
2019,5,8,06:00,UTC,1,1011.4,77,0,0,7.2,3.5,33290,197,8.3,5.9
2019,5,8,07:00,UTC,1,1011.9,77,0,0,7.7,3.9,29400,198,10.4,6.8
2019,5,8,08:00,UTC,0,1012.2,69,0,0,8.6,3.3,38220,193,11.7,7.9
2019,5,8,09:00,UTC,0,1012.9,57,0,0,8.9,0.9,30970,213,13.3,9.3
2019,5,8,10:00,UTC,0,1013.4,50,0,0,10,0.1,39360,201,13,9.4
2019,5,8,11:00,UTC,0,1013.8,46,0,0,10,-1.1,39010,205,12.2,7.5
2019,5,8,12:00,UTC,0,1014.2,42,0,0,10.4,-1.9,35060,201,12.9,8.8
2019,5,8,13:00,UTC,0,1014.5,39,0,0,10.8,-2.8,37100,203,13.3,9.1
2019,5,8,14:00,UTC,0,1014.4,31,0,0,11.3,-5.4,42990,221,11.2,7.1
2019,5,8,15:00,UTC,0,1014.7,36,0,0,11,-3.6,44250,219,10.9,7.1
2019,5,8,16:00,UTC,0,1015.1,48,0,0,9.8,-0.6,48460,207,9.6,6.1
2019,5,8,17:00,UTC,0,1015.5,55,0,0,8.2,-0.4,42680,208,8.2,5.5
2019,5,8,18:00,UTC,0,1015.7,60,0,0,6.9,-0.4,50000,205,7.1,4.1
2019,5,8,19:00,UTC,0,1016.2,69,0,0,5.8,0.6,50000,206,5.3,3.9
2019,5,8,20:00,UTC,0,1016.8,87,0,0,4.6,2.5,42050,198,3.7,2.6
2019,5,8,21:00,UTC,0,1017.2,90,0,0,4.4,2.9,31190,196,4.4,3.2
2019,5,8,22:00,UTC,0,1017.8,86,0,0,4.4,2.2,38860,187,3.3,2.2
2019,5,8,23:00,UTC,0,1018.2,86,0,0,4.1,2,40390,175,3.5,2.5
2019,5,9,00:00,UTC,0,1018.6,86,0,0,4,1.8,50000,155,2.5,1.7
2019,5,9,01:00,UTC,0,1019,85,0,0,4.3,2.1,44470,123,3.2,2.1
2019,5,9,02:00,UTC,0,1019.1,89,0,0,3.6,2,34270,103,2.8,2.2
2019,5,9,03:00,UTC,0,1019.1,86,0,0,4,1.9,39770,89,2.9,2.3
2019,5,9,04:00,UTC,0,1019.4,73,0,0,6,1.7,37390,83,3.9,2.7
2019,5,9,05:00,UTC,0,1019.5,49,0,0,8,-2.1,41310,96,7.1,4.8
2019,5,9,06:00,UTC,0,1019.8,47,0,0,9.2,-1.7,39310,98,7.4,4
2019,5,9,07:00,UTC,0,1020.1,45,0,0,9.6,-1.9,35710,96,12.3,6.8
2019,5,9,08:00,UTC,0,1020,41,0,0,10.2,-2.4,40530,85,11.9,7.2
2019,5,9,09:00,UTC,0,1019.8,44,0,0,10.4,-1.3,40430,76,10.3,6.2
2019,5,9,10:00,UTC,0,1019.5,40,0,0,11.4,-1.7,38570,82,12,7.5
2019,5,9,11:00,UTC,0,1019.2,40,0,0,12.1,-1.2,38680,85,11.9,7.8
2019,5,9,12:00,UTC,0,1018.7,40,0,0,12.2,-1,43000,82,10.6,7.1
2019,5,9,13:00,UTC,0,1017.7,37,0,0,12.7,-1.6,43100,74,11.5,6.9
2019,5,9,14:00,UTC,0,1017,30,0,0,13.5,-3.9,40070,76,12.3,7.4
2019,5,9,15:00,UTC,0,1016.4,30,0,0,13.2,-4,45730,73,13.1,9
2019,5,9,16:00,UTC,0,1015.8,31,0,0,13.3,-3.4,44300,73,13.4,8.9
2019,5,9,17:00,UTC,0,1015.1,37,0,0,12.9,-1.5,50000,74,12.8,8.2
2019,5,9,18:00,UTC,0,1014.7,41,0,0,12.3,-0.7,50000,74,11.9,8
2019,5,9,19:00,UTC,0,1014.5,43,0,0,11.3,-0.7,50000,73,11.7,7.3
2019,5,9,20:00,UTC,0,1014.1,45,0,0,10.8,-0.7,50000,72,12.6,8.2
2019,5,9,21:00,UTC,0,1013.8,43,0,0,10.7,-1.5,50000,69,9.8,6.5
2019,5,9,22:00,UTC,0,1013.7,45,0,0,10.6,-1,50000,72,10.5,6.8
2019,5,9,23:00,UTC,0,1013.3,48,0,0,10.1,-0.4,50000,75,12.5,6.9
2019,5,10,00:00,UTC,0,1012.7,53,0,0,9.3,0.2,50000,71,9.6,5.6
2019,5,10,01:00,UTC,0,1012.1,54,0,0,8.7,0,50000,60,4.9,2.9
2019,5,10,02:00,UTC,1,1011.7,57,0,0,7.3,-0.6,50000,38,4.7,3.3
2019,5,10,03:00,UTC,5,1011.5,60,0,0,7.1,-0.2,50000,51,4.9,3.7
2019,5,10,04:00,UTC,8,1010.8,63,0,0,8.1,1.4,50000,59,4.8,3
2019,5,10,05:00,UTC,5,1010.3,68,0,0,8.6,3,50000,59,6.2,3.8
2019,5,10,06:00,UTC,7,1010.1,77,0,0,9.5,5.6,50000,76,8.2,5.3
2019,5,10,07:00,UTC,7,1009.6,77,0,0,9.7,5.8,49310,83,8.9,5.6
2019,5,10,08:00,UTC,7,1009.6,80,0,0,9.5,6.3,37010,81,8.2,4.7
2019,5,10,09:00,UTC,8,1009.7,87,0,0,8.9,6.8,12690,74,7.4,4.3
2019,5,10,10:00,UTC,8,1009.2,86,0,0,9.3,7.1,21170,69,6.9,4.1
2019,5,10,11:00,UTC,8,1009.2,89,0,0,9.2,7.4,16900,75,7.3,4.7
2019,5,10,12:00,UTC,7,1009.4,96,3.1,0,8.5,7.8,8900,80,6,3.7
2019,5,10,13:00,UTC,8,1008.8,96,0.3,0,8.7,8.2,3760,78,5.1,3.1
2019,5,10,14:00,UTC,8,1008.9,97,0,0,8.8,8.3,2960,78,7.7,4.6
2019,5,10,15:00,UTC,8,1008.8,97,0.4,0,8.6,8.3,2800,95,6.8,3.6
2019,5,10,16:00,UTC,8,1008.9,98,0.4,0,8.4,8.1,2150,117,3.5,2.4
2019,5,10,17:00,UTC,7,1009.1,98,0.3,0,8.2,8,2290,106,1.2,0.5
2019,5,10,18:00,UTC,8,1009.6,98,0.3,0,8.1,7.9,1740,179,2.3,1.4
2019,5,10,19:00,UTC,7,1010.1,98,0,0,7.9,7.7,2670,163,2.9,2.1
2019,5,10,20:00,UTC,8,1010.5,99,0,0,7.8,7.6,3040,213,3.4,2
2019,5,10,21:00,UTC,8,1010.6,99,0,0,7.5,7.3,3930,216,2.4,1.3
2019,5,10,22:00,UTC,7,1011.3,99,0,0,7.8,7.7,4080,195,2,1.4
2019,5,10,23:00,UTC,7,1011.4,99,0,0,7.7,7.6,1610,71,1.3,0.8
2019,5,11,00:00,UTC,8,1011.7,99,0,0,7.6,7.4,1080,112,1.8,1.3
2019,5,11,01:00,UTC,9,1012,99,0,0,7.9,7.8,740,169,2.3,1.5
2019,5,11,02:00,UTC,9,1012,99,0,0,8.1,8,500,168,3.8,1.9
2019,5,11,03:00,UTC,9,1011.8,99,0,0,7.7,7.6,760,219,3,2.1
2019,5,11,04:00,UTC,9,1012,99,0,0,7.5,7.5,380,81,2.1,1.4
2019,5,11,05:00,UTC,9,1012.4,99,0,0,7.6,7.6,540,98,2.6,1.8
2019,5,11,06:00,UTC,9,1012.5,99,0,0,7.6,7.5,1980,93,4.3,2.5
2019,5,11,07:00,UTC,8,1012.1,99,0,0,7.9,7.8,4410,80,3.9,2.6
2019,5,11,08:00,UTC,8,1011.6,97,0,0,9.2,8.8,13190,88,2.1,0.9
2019,5,11,09:00,UTC,8,1011.3,90,0,0,10.2,8.6,16060,313,3,1.5
2019,5,11,10:00,UTC,7,1010.6,86,0,0,11.4,9.1,18950,305,4,2.3
2019,5,11,11:00,UTC,7,1010.5,82,0,0,11.7,8.8,20800,324,3.6,2
2019,5,11,12:00,UTC,7,1009.9,83,0,0,12,9.2,21010,326,3.9,2.3
2019,5,11,13:00,UTC,8,1009.2,92,0.3,0,11.3,10,12610,300,4.1,2.5
2019,5,11,14:00,UTC,7,1009,96,2.8,0,11.2,10.6,4400,289,3.5,2.4
2019,5,11,15:00,UTC,8,1008.4,97,0.3,0,10.5,10,7320,285,6.5,3.7
2019,5,11,16:00,UTC,8,1007.8,97,0.4,0,10.3,9.7,9000,284,7,4.7
2019,5,11,17:00,UTC,8,1007.8,97,0.6,0,10,9.5,8910,287,6.2,3.6
2019,5,11,18:00,UTC,7,1006.6,98,4,0,9.9,9.6,5150,277,8.5,5.2
2019,5,11,19:00,UTC,7,1006.6,98,1,0,9.9,9.6,8120,270,8.2,5.1
2019,5,11,20:00,UTC,7,1006.4,97,0,0,9.9,9.5,10010,263,8.2,5.4
2019,5,11,21:00,UTC,7,1006.5,96,0,0,9.8,9.2,15650,257,9.1,6.1
2019,5,11,22:00,UTC,8,1007,94,0,0,9.6,8.7,23010,250,8.2,6.1
2019,5,11,23:00,UTC,8,1007.7,95,0,0,9.6,8.7,21040,245,9.5,6.6
2019,5,12,00:00,UTC,7,1008.1,96,0.3,0,9.6,9,10920,245,8.8,6.1
2019,5,12,01:00,UTC,7,1008.8,97,0,0,9.6,9.1,7090,227,8,5.8
2019,5,12,02:00,UTC,7,1009.9,97,0,0,9.2,8.7,6660,225,9.3,5.3
2019,5,12,03:00,UTC,7,1011.2,96,0,0,7.8,7.3,7520,214,9.3,5.8
2019,5,12,04:00,UTC,8,1012.4,97,0,0,7.3,6.9,5760,218,8.8,6
2019,5,12,05:00,UTC,9,1013.7,99,0,0,6.3,6.1,1660,206,7.8,4.8
2019,5,12,06:00,UTC,9,1014.8,99,0,0,6.1,6,1350,204,8.9,5.8
2019,5,12,07:00,UTC,8,1016,99,0,0,6.3,6.1,5600,206,7.6,5.1
2019,5,12,08:00,UTC,8,1017.4,96,0,0,6.7,6.2,10360,214,9.6,7.1
2019,5,12,09:00,UTC,8,1018.2,94,0,0,7.6,6.6,21020,204,9.3,5.3
2019,5,12,10:00,UTC,7,1018.9,84,0,0,9.9,7.4,32290,216,10.4,6.8
2019,5,12,11:00,UTC,1,1019.7,79,0,0,11.9,8.3,40460,208,8.6,5.3
2019,5,12,12:00,UTC,0,1020.7,71,0,0,12.9,7.9,32340,205,9.3,5.9
2019,5,12,13:00,UTC,0,1021.4,65,0,0,13.4,6.8,37910,212,9.5,5.1
2019,5,12,14:00,UTC,0,1022.2,61,0,0,13.5,6.1,40430,204,10.7,6.8
2019,5,12,15:00,UTC,0,1023,60,0,0,12.9,5.2,49090,205,10.2,7
2019,5,12,16:00,UTC,0,1023.5,57,0,0,13,4.8,50000,218,7.7,5.2
2019,5,12,17:00,UTC,0,1024,63,0,0,11.5,4.8,50000,216,8.8,5.8
2019,5,12,18:00,UTC,0,1024.5,73,0,0,9.6,5.1,50000,210,7.4,4.8
2019,5,12,19:00,UTC,0,1025.1,87,0,0,7.9,5.9,50000,219,5.2,4
2019,5,12,20:00,UTC,0,1025.8,90,0,0,7.5,6.1,49800,247,4.9,3.7
2019,5,12,21:00,UTC,0,1026.2,89,0,0,6.8,5.1,50000,262,4.3,3.2
2019,5,12,22:00,UTC,0,1026.9,86,0,0,6.3,4.1,50000,275,4.6,3.2
2019,5,12,23:00,UTC,5,1027.2,89,0,0,5.2,3.5,50000,288,4.8,3.1
2019,5,13,00:00,UTC,1,1027.8,89,0,0,4.6,3,50000,294,3.3,1.5
2019,5,13,01:00,UTC,8,1028.2,88,0,0,4.8,2.9,50000,279,2.6,2
2019,5,13,02:00,UTC,8,1028.5,88,0,0,4.7,2.8,50000,283,4.4,3.1
2019,5,13,03:00,UTC,8,1028.9,84,0,0,5,2.4,50000,306,4.4,2.5
2019,5,13,04:00,UTC,7,1029.1,84,0,0,4.6,2.2,50000,316,5.5,3.3
2019,5,13,05:00,UTC,7,1029.5,78,0,0,5.7,2.1,49110,327,5.7,3.1
2019,5,13,06:00,UTC,5,1029.7,77,0,0,6.5,2.7,50000,332,5.2,3.2
2019,5,13,07:00,UTC,7,1029.9,70,0,0,7.3,2.2,48930,326,6.3,2.7
2019,5,13,08:00,UTC,7,1029.8,66,0,0,7.8,1.9,50000,333,5.8,3.4
2019,5,13,09:00,UTC,7,1029.9,51,0,0,9.6,-0.1,41250,336,6.1,3.4
2019,5,13,10:00,UTC,5,1029.6,46,0,0,10.8,-0.4,43980,359,5.7,3.7
2019,5,13,11:00,UTC,5,1029.6,42,0,0,11.8,-0.6,49020,294,3.9,2.3
2019,5,13,12:00,UTC,7,1029.4,44,0,0,12.5,0.7,49090,312,5.2,2.6
2019,5,13,13:00,UTC,7,1029.1,43,0,0,12.1,0,50000,312,7.6,3.9
2019,5,13,14:00,UTC,7,1028.9,42,0,0,12.2,-0.3,47920,319,5.5,3
2019,5,13,15:00,UTC,7,1028.8,40,0,0,12.3,-0.8,50000,323,6.9,3.8
2019,5,13,16:00,UTC,7,1028.8,38,0,0,11.7,-2.2,50000,321,7.4,4.3
2019,5,13,17:00,UTC,7,1028.9,43,0,0,11.1,-1,50000,311,7.3,3.7
2019,5,13,18:00,UTC,7,1029.1,44,0,0,10.7,-1.2,50000,316,6.5,3.3
2019,5,13,19:00,UTC,7,1029.5,47,0,0,9.9,-0.8,50000,322,7.8,4.7
2019,5,13,20:00,UTC,7,1029.5,49,0,0,9.3,-0.8,50000,324,7.2,3.9
2019,5,13,21:00,UTC,7,1030,53,0,0,8.7,-0.4,50000,322,4.7,2.7
2019,5,13,22:00,UTC,7,1030.1,55,0,0,8.3,-0.2,50000,310,6.6,3.3
2019,5,13,23:00,UTC,7,1030.4,58,0,0,7.9,0.1,50000,332,6.2,3.7
2019,5,14,00:00,UTC,7,1030.4,61,0,0,7.5,0.3,50000,322,6.1,3.4
2019,5,14,01:00,UTC,7,1030.7,63,0,0,7,0.4,50000,326,6.7,3.7
2019,5,14,02:00,UTC,7,1030.8,63,0,0,6.7,0.2,50000,328,5.4,3
2019,5,14,03:00,UTC,7,1030.9,63,0,0,6.6,0.1,50000,330,4.7,2.6
2019,5,14,04:00,UTC,7,1031,65,0,0,6.6,0.4,50000,332,6.6,3.5
2019,5,14,05:00,UTC,7,1031.5,63,0,0,6.8,0.4,50000,329,5.5,3.3
2019,5,14,06:00,UTC,7,1031.6,63,0,0,7.2,0.7,50000,328,6.7,3.4
2019,5,14,07:00,UTC,5,1031.7,56,0,0,7.9,-0.2,50000,349,6.7,4.7
2019,5,14,08:00,UTC,0,1031.2,44,0,0,10.9,-0.7,37770,321,7.4,3.9
2019,5,14,09:00,UTC,5,1030.7,41,0,0,11.1,-1.7,50000,309,7.2,3.5
2019,5,14,10:00,UTC,1,1030.3,34,0,0,11.8,-3.4,43070,341,6.8,4.1
2019,5,14,11:00,UTC,1,1029.9,32,0,0,12.8,-3.7,42640,350,6.9,3.4
2019,5,14,12:00,UTC,0,1029.6,28,0,0,13.6,-4.6,39970,317,6.5,4
2019,5,14,13:00,UTC,0,1029.3,47,0,0,12.2,1.2,40020,204,8.9,5.8
2019,5,14,14:00,UTC,0,1029,46,0,0,12.2,0.9,49940,202,7.4,5.2
2019,5,14,15:00,UTC,0,1028.7,42,0,0,12.1,-0.4,44820,219,7.1,5.2
2019,5,14,16:00,UTC,0,1028.5,44,0,0,12.5,0.4,50000,213,6,3.8
2019,5,14,17:00,UTC,0,1028.5,48,0,0,10.9,0.2,50000,217,4.7,2.5
2019,5,14,18:00,UTC,0,1028.7,52,0,0,9.9,0.6,50000,216,2.1,1.4
2019,5,14,19:00,UTC,0,1029.1,47,0,0,8.9,-1.7,50000,355,3.1,2.3
2019,5,14,20:00,UTC,0,1029.4,48,0,0,8,-2.4,50000,337,3.8,3.1
2019,5,14,21:00,UTC,0,1029.5,57,0,0,6.2,-1.7,50000,331,4,3
2019,5,14,22:00,UTC,0,1029.9,59,0,0,6.1,-1.3,50000,306,5.4,3.8
2019,5,14,23:00,UTC,0,1030.1,59,0,0,6.5,-1,50000,321,7,3.9
2019,5,15,00:00,UTC,0,1030.2,60,0,0,6.1,-1.1,50000,348,4.2,2.7
2019,5,15,01:00,UTC,0,1030.5,69,0,0,4.6,-0.6,50000,346,5.3,3.7
2019,5,15,02:00,UTC,0,1030.5,69,0,0,4.6,-0.7,50000,350,5.4,3.5
2019,5,15,03:00,UTC,0,1030.3,61,0,0,6.1,-0.8,50000,4,5.7,3.7
2019,5,15,04:00,UTC,0,1030.4,57,0,0,7.5,-0.5,45460,15,3.4,2
2019,5,15,05:00,UTC,0,1030.7,47,0,0,10.1,-0.8,49100,39,4.3,2.7
2019,5,15,06:00,UTC,0,1030.9,39,0,0,12.2,-1.5,49910,92,3.1,1.6
2019,5,15,07:00,UTC,0,1031.2,36,0,0,13.2,-1.4,36440,114,5.5,3.4
2019,5,15,08:00,UTC,0,1031.3,32,0,0,13.6,-2.8,38750,149,6.5,3.8
2019,5,15,09:00,UTC,0,1031,35,0,-1,13.9,-1.3,45060,153,6.3,3.8
2019,5,15,10:00,UTC,0,1030.7,33,0,-1,13.8,-2.4,34750,181,6.5,3.7
2019,5,15,11:00,UTC,0,1030.5,33,0,-1,14,-1.9,42300,148,6.3,4.2
2019,5,15,12:00,UTC,0,1030.3,33,0,-1,14.4,-1.8,44720,164,7.1,4.5
2019,5,15,13:00,UTC,0,1030.1,32,0,-1,13.9,-2.3,47710,171,8.1,4.7
2019,5,15,14:00,UTC,0,1029.6,33,0,-1,14.2,-2.1,50000,183,7.4,4.6
2019,5,15,15:00,UTC,0,1029.3,33,0,-1,13.8,-2,47370,194,7.3,4.3
2019,5,15,16:00,UTC,0,1029.3,35,0,-1,13,-2.1,49570,204,6,4
2019,5,15,17:00,UTC,0,1029.3,38,0,-1,11.6,-2.3,49980,201,6.5,3.8
2019,5,15,18:00,UTC,0,1029.4,43,0,-1,10.4,-1.7,50000,213,5.2,3.6
2019,5,15,19:00,UTC,0,1029.6,48,0,-1,9.5,-1.1,50000,237,4.2,2.9
2019,5,15,20:00,UTC,0,1029.8,48,0,-1,9,-1.4,50000,267,4.2,3.3
2019,5,15,21:00,UTC,0,1030,51,0,-1,7.7,-1.8,50000,270,3.8,2.8
2019,5,15,22:00,UTC,0,1029.9,52,0,-1,7.6,-1.6,50000,264,3.5,3
2019,5,15,23:00,UTC,0,1029.9,59,0,-1,6.3,-1.2,50000,281,4,3.6
2019,5,16,00:00,UTC,0,1030,61,0,-1,5.9,-1.2,13360,286,2.6,2.4
2019,5,16,01:00,UTC,0,1030.2,66,0,-1,5.1,-0.8,24230,296,2.9,2.3
2019,5,16,02:00,UTC,0,1029.9,70,0,-1,4.6,-0.4,25070,301,2.2,1.9
2019,5,16,03:00,UTC,0,1029.9,70,0,-1,5.2,0.2,48040,336,3.6,2.7
2019,5,16,04:00,UTC,0,1029.9,61,0,-1,9.5,2.4,41110,353,2.7,1.5
2019,5,16,05:00,UTC,0,1029.9,51,0,-1,12.8,3,32850,42,1.3,0.5
2019,5,16,06:00,UTC,0,1030,45,0,-1,14.1,2.3,47270,100,2.1,0.9
2019,5,16,07:00,UTC,0,1030.3,37,0,-1,15.1,0.5,38850,111,4,2.4
2019,5,16,08:00,UTC,0,1030.1,36,0,-1,16.6,1.6,42990,126,4.9,3.3
2019,5,16,09:00,UTC,0,1029.9,36,0,-1,16.6,1.3,44650,156,5.2,2.6
2019,5,16,10:00,UTC,0,1029.7,39,0,-1,16.8,2.9,39640,160,6,3.5
2019,5,16,11:00,UTC,0,1029.3,39,0,-1,16.6,2.6,44270,191,6.8,4.1
2019,5,16,12:00,UTC,0,1029.1,34,0,-1,17,1.1,37440,186,6.2,3.5
2019,5,16,13:00,UTC,0,1028.6,35,0,-1,17.4,1.6,41610,183,7.4,4.2
2019,5,16,14:00,UTC,0,1028.3,32,0,-1,16.8,-0.1,40200,187,6.8,4.5
2019,5,16,15:00,UTC,0,1027.9,34,0,-1,16.6,0.7,45370,195,6.7,3.8
2019,5,16,16:00,UTC,0,1027.6,36,0,-1,15.7,0.7,46970,204,6.5,4.5
2019,5,16,17:00,UTC,0,1027.3,38,0,-1,14.4,0.1,50000,193,5.5,3.7
2019,5,16,18:00,UTC,0,1027.2,40,0,-1,13.2,0.1,50000,197,4.5,3.3
2019,5,16,19:00,UTC,0,1027.4,45,0,-1,11.9,0.4,50000,221,4.8,3.6
2019,5,16,20:00,UTC,0,1027.6,49,0,-1,10.9,0.6,50000,241,3.3,2.5
2019,5,16,21:00,UTC,0,1027.5,53,0,-1,10.3,1,50000,247,3.5,2.7
2019,5,16,22:00,UTC,0,1027.5,61,0,-1,9.2,2.1,14790,278,2.5,2.1
2019,5,16,23:00,UTC,0,1027.5,65,0,-1,7.9,1.8,50000,326,2.9,1.6
2019,5,17,00:00,UTC,0,1027.3,69,0,-1,7.1,1.8,50000,327,2.8,1.6
2019,5,17,01:00,UTC,0,1027.1,70,0,-1,6.9,1.9,50000,330,2.3,1.5
2019,5,17,02:00,UTC,0,1026.9,73,0,-1,6.4,2,50000,354,3,2.6
2019,5,17,03:00,UTC,0,1027.4,68,0,-1,9,3.5,46480,176,2.6,1.6
2019,5,17,04:00,UTC,0,1027.4,57,0,-1,12.5,4.2,32670,115,1.7,0.9
2019,5,17,05:00,UTC,0,1027.5,51,0,-1,13.8,3.8,37030,131,2.4,1.4
2019,5,17,06:00,UTC,0,1027.7,38,0,-1,14.8,0.6,34260,161,3.3,2
2019,5,17,07:00,UTC,0,1027.4,32,0,-1,16,-0.6,28870,115,2.9,1.8
2019,5,17,08:00,UTC,0,1026.7,33,0,-1,17.2,0.9,40930,75,3.8,2
2019,5,17,09:00,UTC,0,1026.4,33,0,-1,18.8,2,41160,109,5.4,3.1
2019,5,17,10:00,UTC,0,1026.2,34,0,-1,18.5,2.2,36140,131,5.5,4.6
2019,5,17,11:00,UTC,0,1025.9,32,0,-1,18.4,1.5,42310,152,5.2,3
2019,5,17,12:00,UTC,1,1025.5,33,0,-1,18.5,1.8,39490,165,6.3,4
2019,5,17,13:00,UTC,0,1025.1,33,0,-1,19.5,2.6,42840,129,5.6,4
2019,5,17,14:00,UTC,0,1024.8,28,0,-1,19.7,0.8,44230,126,6.8,4.5
2019,5,17,15:00,UTC,0,1024.3,32,0,-1,18.9,1.8,42620,132,4.3,2.9
2019,5,17,16:00,UTC,0,1023.9,32,0,-1,18.8,1.5,50000,131,3.4,2.2
2019,5,17,17:00,UTC,0,1023.5,32,0,-1,17,0.2,50000,148,2.9,2.2
2019,5,17,18:00,UTC,0,1023.4,35,0,-1,16.1,0.7,50000,127,1.4,1.1
2019,5,17,19:00,UTC,0,1023.3,41,0,-1,14.7,1.6,50000,43,1.7,1.5
2019,5,17,20:00,UTC,0,1023.5,54,0,-1,12.9,3.9,50000,53,1.6,1.5
2019,5,17,21:00,UTC,0,1023.4,61,0,-1,11.2,3.8,50000,27,3,2.7
2019,5,17,22:00,UTC,0,1023.4,58,0,-1,10.5,2.6,50000,21,2.7,2.1
2019,5,17,23:00,UTC,0,1023.4,65,0,-1,9.8,3.5,50000,8,3.7,2.9
2019,5,18,00:00,UTC,0,1023.5,66,0,-1,9.8,3.8,50000,10,3.1,1.8
2019,5,18,01:00,UTC,0,1023.6,72,0,-1,8.7,3.8,50000,18,3.3,2.5
2019,5,18,02:00,UTC,0,1023.5,73,0,-1,8.4,3.8,50000,22,2.8,2.2
2019,5,18,03:00,UTC,0,1023.4,76,0,-1,9.6,5.6,38170,34,2.6,1.4
2019,5,18,04:00,UTC,0,1023.2,61,0,-1,12.7,5.5,32820,138,2.1,0.9
2019,5,18,05:00,UTC,0,1022.9,56,0,-1,14.9,6.3,39760,100,2.4,1.5
2019,5,18,06:00,UTC,0,1022.9,47,0,-1,16.2,4.9,42120,101,2.8,1.7
2019,5,18,07:00,UTC,0,1022.9,42,0,-1,17.4,4.5,46440,82,4.2,2.7
2019,5,18,08:00,UTC,0,1023,37,0,-1,18.1,3.3,43420,90,5.2,3.5
2019,5,18,09:00,UTC,0,1022.7,37,0,-1,20.1,4.8,35950,114,5.6,4.3
2019,5,18,10:00,UTC,0,1022.5,35,0,-1,20,4.2,43700,95,5,3.5
2019,5,18,11:00,UTC,0,1022.1,35,0,-1,20.4,4.3,36140,109,6.6,4.3
2019,5,18,12:00,UTC,0,1021.8,31,0,-1,20.1,2.6,44550,91,6.5,4.3
2019,5,18,13:00,UTC,0,1021.4,33,0,-1,20.6,3.6,45760,84,7.1,4.5
2019,5,18,14:00,UTC,0,1020.7,26,0,-1,20.6,0.3,45910,89,7.6,5.8
2019,5,18,15:00,UTC,0,1020.3,28,0,-1,20,1.1,50000,91,6.2,3.6
2019,5,18,16:00,UTC,0,1019.6,24,0,-1,19.9,-1.4,46850,82,6.4,4.6
2019,5,18,17:00,UTC,0,1019.2,28,0,-1,19.2,0.2,50000,76,4.4,2.4
2019,5,18,18:00,UTC,0,1019,32,0,-1,18.2,1.1,50000,86,4.2,2.7
2019,5,18,19:00,UTC,0,1018.9,40,0,-1,16.3,2.6,50000,115,3.7,2.7
2019,5,18,20:00,UTC,0,1019,49,0,-1,14.9,4.2,50000,76,3,2
2019,5,18,21:00,UTC,0,1019.2,52,0,-1,13.6,4,50000,80,3,2.3
2019,5,18,22:00,UTC,0,1019,49,0,-1,13.9,3.2,50000,67,3.6,3
2019,5,18,23:00,UTC,0,1019,52,0,-1,13.1,3.3,50000,57,3.6,2.9
2019,5,19,00:00,UTC,0,1018.5,52,0,-1,13,3.4,50000,54,3.8,3.2
2019,5,19,01:00,UTC,0,1018.2,59,0,-1,12.6,4.8,50000,60,5.7,3.5
2019,5,19,02:00,UTC,0,1018.4,64,0,-1,12.7,6.2,50000,67,4.1,2.9
2019,5,19,03:00,UTC,0,1018.4,66,0,-1,13.4,7.1,50000,74,4.5,3.5
2019,5,19,04:00,UTC,0,1018.4,64,0,-1,14.7,8,47470,85,4.5,2.8
2019,5,19,05:00,UTC,0,1018.2,58,0,-1,16,7.8,41460,74,3.3,1.8
2019,5,19,06:00,UTC,0,1018.2,59,0,-1,16.6,8.4,43360,91,4,2.3
2019,5,19,07:00,UTC,1,1018.4,56,0,-1,16.6,7.9,40050,83,4.3,3.1
2019,5,19,08:00,UTC,0,1018.3,48,0,-1,18.5,7.3,38560,95,5.3,3.5
2019,5,19,09:00,UTC,1,1018.3,46,0,-1,20.1,8.2,45970,89,5.6,3.2
2019,5,19,10:00,UTC,1,1018.3,44,0,-1,20.5,7.9,34590,93,5.8,4.1
2019,5,19,11:00,UTC,1,1018.2,44,0,-1,20.4,7.6,37280,93,5.9,3.8
2019,5,19,12:00,UTC,1,1018.2,40,0,-1,21.5,7.4,30000,91,6.9,4.4
2019,5,19,13:00,UTC,0,1018.1,41,0,-1,20.7,7,39630,92,8.7,5.7
2019,5,19,14:00,UTC,0,1017.9,43,0,-1,20.9,7.8,33080,89,7.5,5.1
2019,5,19,15:00,UTC,0,1017.5,39,0,-1,20.4,5.9,41140,80,8.8,5.3
2019,5,19,16:00,UTC,0,1017.3,40,0,-1,19.4,5.5,43900,80,8.7,5.7
2019,5,19,17:00,UTC,0,1016.9,42,0,-1,18.7,5.6,50000,81,7.3,4.6
2019,5,19,18:00,UTC,0,1016.9,45,0,-1,17.9,5.9,50000,83,8.7,4.9
2019,5,19,19:00,UTC,0,1017,48,0,-1,17.2,6,50000,74,5.3,2.5
2019,5,19,20:00,UTC,5,1017,50,0,-1,16.7,6.3,50000,78,4.6,2.7
2019,5,19,21:00,UTC,7,1017.2,53,0,-1,16.7,7.1,50000,85,5.2,3
2019,5,19,22:00,UTC,5,1016.9,61,0,-1,15.9,8.3,50000,75,5.3,3.3
2019,5,19,23:00,UTC,1,1016.7,66,0,-1,15.3,9,50000,68,4.9,3.5
2019,5,20,00:00,UTC,8,1016.5,68,0,-1,15,9.1,50000,66,4.3,3.4
2019,5,20,01:00,UTC,1,1016.2,72,0,-1,14.2,9.2,50000,54,4.7,3.5
2019,5,20,02:00,UTC,0,1016,74,0,-1,13.9,9.3,44970,58,4.6,3.6
2019,5,20,03:00,UTC,0,1016,75,0,-1,13.8,9.5,47500,65,3.6,2.6
2019,5,20,04:00,UTC,0,1015.9,69,0,-1,14.8,9.3,39690,78,5,3
2019,5,20,05:00,UTC,0,1016.1,66,0,-1,15.4,9,34940,87,5.8,4
2019,5,20,06:00,UTC,0,1016.1,64,0,-1,16.5,9.8,39850,81,5.8,4.2
2019,5,20,07:00,UTC,1,1016.2,61,0,-1,17.5,9.8,31030,92,5.7,4
2019,5,20,08:00,UTC,0,1016.1,60,0,-1,17.7,9.7,35810,96,5.2,3.5
2019,5,20,09:00,UTC,0,1016.2,58,0,-1,19,10.4,30700,101,5.8,3.5
2019,5,20,10:00,UTC,0,1015.9,52,0,-1,19.7,9.6,28270,93,6.2,4.1
2019,5,20,11:00,UTC,0,1015.8,48,0,-1,20.3,9,42040,90,8.3,5.8
2019,5,20,12:00,UTC,1,1015.6,49,0,-1,20.8,9.6,40080,84,7.2,5.5
2019,5,20,13:00,UTC,1,1015.3,48,0,-1,22,10.4,36170,79,4.9,3.7
2019,5,20,14:00,UTC,7,1015,53,0,-1,20.8,10.7,37200,88,5.3,3.4
2019,5,20,15:00,UTC,7,1015,54,0,-1,19.8,10.3,33590,106,4.9,3.2
2019,5,20,16:00,UTC,7,1014.5,54,0,-1,19.9,10.4,47640,68,3,1.6
2019,5,20,17:00,UTC,7,1014.7,60,0,-1,19.2,11.3,45280,157,1.8,0.8
2019,5,20,18:00,UTC,7,1014.1,58,0,-1,19.5,10.9,46920,64,3.1,2.3
2019,5,20,19:00,UTC,7,1013.9,57,0,-1,19.5,10.6,45290,70,4,2.5
2019,5,20,20:00,UTC,8,1013.9,57,0,-1,19.3,10.5,49390,54,4,2.8
2019,5,20,21:00,UTC,7,1014.3,67,0,-1,17.7,11.4,45490,61,2.2,1.3
2019,5,20,22:00,UTC,7,1013.8,81,0,-1,16.9,13.5,39300,36,3.3,2.5
2019,5,20,23:00,UTC,8,1013.8,88,0,-1,15.4,13.4,28850,21,1.7,1.1
2019,5,21,00:00,UTC,7,1013.6,89,0,-1,16,14.2,26170,40,2.5,1.7
2019,5,21,01:00,UTC,7,1012.9,79,0,-1,16.8,13.2,45750,26,6.7,4.6
2019,5,21,02:00,UTC,7,1012.7,82,0,-1,16.3,13.3,47650,76,2.9,2.2
2019,5,21,03:00,UTC,7,1013.2,84,0,-1,15.6,13,46220,69,2.1,1.3
2019,5,21,04:00,UTC,0,1013.2,75,0,-1,16.9,12.6,42130,77,2.2,1.1
2019,5,21,05:00,UTC,5,1013.4,73,0,-1,16.9,12.1,29410,121,4.1,2.9
2019,5,21,06:00,UTC,5,1013.5,68,0,-1,18,12.1,33250,84,6.2,3.3
2019,5,21,07:00,UTC,0,1013.2,60,0,-1,19.3,11.4,31400,68,5.1,3
2019,5,21,08:00,UTC,7,1013.2,56,0,-1,20,11,35020,68,4.1,2.6
2019,5,21,09:00,UTC,1,1013.1,48,0,-1,22.6,11.1,28470,66,3.3,1.5
2019,5,21,10:00,UTC,3,1013,41,0,-1,24,10.1,31390,83,4.5,3
2019,5,21,11:00,UTC,7,1012.9,40,0,-1,24.1,9.8,35880,89,5.4,3
2019,5,21,12:00,UTC,5,1012.6,42,0,-1,24.3,10.4,38040,80,5.7,3.1
2019,5,21,13:00,UTC,0,1012,41,0,-1,24.9,10.6,34130,119,5,3.1
2019,5,21,14:00,UTC,0,1012.2,51,0,-1,23,12.5,30690,124,3.9,2.5
2019,5,21,15:00,UTC,1,1012.4,63,0,-1,18.5,11.2,31290,155,4.3,2.7
2019,5,21,16:00,UTC,1,1012.2,57,0,-1,19.5,10.7,33920,25,5.2,2.9
2019,5,21,17:00,UTC,7,1011.7,61,0,-1,19.1,11.4,44520,92,3.4,1.9
2019,5,21,18:00,UTC,7,1011.6,59,0,-1,18.7,10.5,36620,90,2.2,1.6
2019,5,21,19:00,UTC,5,1012.1,68,0,-1,17.2,11.3,36410,89,3.5,2.1
2019,5,21,20:00,UTC,7,1012.2,71,0,-1,16.9,11.6,33130,331,3.8,2
2019,5,21,21:00,UTC,7,1011.7,73,0,-1,16.5,11.7,32800,29,2.8,1.8
2019,5,21,22:00,UTC,5,1011.5,79,0,-1,16.1,12.5,34440,27,4,3
2019,5,21,23:00,UTC,7,1011.4,75,0,-1,17.3,12.9,42160,63,2.4,1.9
2019,5,22,00:00,UTC,7,1011,77,0,-1,16.6,12.6,36970,21,3.2,2.5
2019,5,22,01:00,UTC,0,1010.9,77,0,-1,16.5,12.3,42700,36,3.6,2.8
2019,5,22,02:00,UTC,0,1010.8,78,0,-1,15.8,12,44090,44,4.4,3.5
2019,5,22,03:00,UTC,0,1010.6,78,0,-1,15.9,12.1,40170,77,4,2.2
2019,5,22,04:00,UTC,0,1010.6,74,0,-1,17.3,12.6,35000,80,3.8,2.3
2019,5,22,05:00,UTC,0,1010.6,70,0,-1,18.2,12.6,32180,91,3.6,2.5
2019,5,22,06:00,UTC,0,1010.3,65,0,-1,19.4,12.7,20370,110,3,1.6
2019,5,22,07:00,UTC,0,1010.5,66,0,-1,19.4,12.9,30400,117,4.1,2.6
2019,5,22,08:00,UTC,0,1010.6,65,0,-1,20,13.3,20710,112,5.8,3.9
2019,5,22,09:00,UTC,0,1010.4,64,0,-1,20.5,13.4,26630,107,6.1,4
2019,5,22,10:00,UTC,0,1010.1,59,0,-1,21,12.8,28400,90,5.3,3.9
2019,5,22,11:00,UTC,0,1009.7,55,0,-1,21.6,12.1,25660,105,6.4,4.6
2019,5,22,12:00,UTC,0,1009.1,57,0,-1,21,12.1,27770,99,5.7,3.6
2019,5,22,13:00,UTC,0,1008.9,58,0,-1,21.1,12.7,25350,140,5.2,3.1
2019,5,22,14:00,UTC,1,1008.1,56,0,-1,21.2,12,32420,111,4.3,2.8
2019,5,22,15:00,UTC,7,1008.5,76,0,-1,18.5,14.1,14390,196,1.9,1.3
2019,5,22,16:00,UTC,1,1007.5,67,0,-1,20.8,14.5,28670,171,3,1.6
2019,5,22,17:00,UTC,3,1007.1,61,0,-1,20,12.3,33960,160,3.5,2.2
2019,5,22,18:00,UTC,3,1007,72,0,-1,17.6,12.4,35960,210,2.7,1.6
2019,5,22,19:00,UTC,1,1007,73,0,-1,16.6,11.7,41390,203,2.4,1.5
2019,5,22,20:00,UTC,1,1006.8,76,0,-1,15.7,11.6,29560,185,2.6,1.4
2019,5,22,21:00,UTC,0,1007.1,85,0,-1,15,12.4,27200,109,3.3,2.4
2019,5,22,22:00,UTC,0,1007.1,87,0,-1,14.6,12.4,22860,87,2.3,1.5
2019,5,22,23:00,UTC,0,1007.4,86,0,-1,14.6,12.2,19120,30,4.5,3.5
2019,5,23,00:00,UTC,0,1007.6,89,0,-1,14.9,13.1,23160,22,4.6,2.9
2019,5,23,01:00,UTC,1,1007.6,92,0,-1,15,13.7,13910,27,8,5.2
2019,5,23,02:00,UTC,8,1008.2,90,0,-1,15.3,13.7,27920,30,6.9,4.8
2019,5,23,03:00,UTC,7,1008.4,88,0,-1,15.5,13.5,37470,48,6.5,4.5
2019,5,23,04:00,UTC,8,1008.6,82,0,-1,15.4,12.4,44230,48,9.1,5.5
2019,5,23,05:00,UTC,7,1009.2,81,0,-1,15.4,12.1,48290,47,9.8,5.9
2019,5,23,06:00,UTC,8,1009.8,82,0,-1,14.6,11.5,50000,53,9.2,6.7
2019,5,23,07:00,UTC,8,1010.6,81,0,-1,14.3,11.1,40900,50,7.4,4.8
2019,5,23,08:00,UTC,8,1011.3,91,0,-1,12.4,11.1,12710,86,9.5,6.7
2019,5,23,09:00,UTC,8,1011.9,86,0,-1,12,9.7,34690,95,9.2,5.6
2019,5,23,10:00,UTC,1,1012.3,70,0,-1,15.1,9.6,29910,104,7.9,5
2019,5,23,11:00,UTC,0,1012.6,71,0,-1,13.1,8,28110,107,9.4,6.6
2019,5,23,12:00,UTC,1,1012.8,72,0,-1,12.9,8,33140,99,9.1,6
2019,5,23,13:00,UTC,1,1012.6,70,0,-1,12.8,7.4,25910,102,10.6,5.9
2019,5,23,14:00,UTC,0,1012.5,70,0,-1,12.1,6.8,35780,86,10.7,5.8
2019,5,23,15:00,UTC,1,1012.7,70,0,-1,11.6,6.2,34860,102,9.1,5.7
2019,5,23,16:00,UTC,0,1012.6,67,0,-1,10.8,4.9,31040,81,12,8.4
2019,5,23,17:00,UTC,0,1012.8,71,0,-1,10.3,5.3,38620,96,9,5.5
2019,5,23,18:00,UTC,1,1013.3,74,0,-1,9.7,5.4,50000,94,9.1,5.9
2019,5,23,19:00,UTC,5,1013,73,0,-1,9.7,5.1,50000,79,8.6,4.8
2019,5,23,20:00,UTC,7,1013.2,68,0,-1,10,4.4,50000,87,7.7,4.5
2019,5,23,21:00,UTC,7,1013.5,69,0,-1,9.8,4.3,50000,89,11.3,6.8
2019,5,23,22:00,UTC,7,1013.2,70,0,-1,9.7,4.4,50000,88,10.7,5.3
2019,5,23,23:00,UTC,7,1012.8,60,0,-1,9.7,2.3,50000,77,13.5,7.3
2019,5,24,00:00,UTC,8,1012.4,64,0,-1,9.6,3,50000,83,9.9,5.7
2019,5,24,01:00,UTC,8,1012.2,68,0,-1,9.5,3.9,50000,90,11.5,6.3
2019,5,24,02:00,UTC,8,1012.4,68,0,-1,9.3,3.7,50000,88,10,6.3
2019,5,24,03:00,UTC,8,1012,75,0,-1,9.1,4.9,49520,95,9.7,6.6
2019,5,24,04:00,UTC,8,1011.6,79,0,-1,9.1,5.6,50000,93,9.4,5.8
2019,5,24,05:00,UTC,7,1011.6,80,0,-1,9,5.6,50000,85,9.7,6.8
2019,5,24,06:00,UTC,7,1011.9,89,0,-1,8.3,6.7,14410,85,9.4,6.1
2019,5,24,07:00,UTC,7,1011.5,88,0,-1,8.7,6.8,33420,74,10.7,5.1
2019,5,24,08:00,UTC,7,1011.2,84,0,-1,9,6.5,46580,77,11.2,6.3
2019,5,24,09:00,UTC,7,1011.2,86,0,-1,9.2,6.9,46080,78,10.3,6.2
2019,5,24,10:00,UTC,7,1011.1,86,0,-1,9.2,6.9,42930,84,9,5.4
2019,5,24,11:00,UTC,7,1010.9,80,0,-1,9.5,6.2,43410,88,9.1,5.4
2019,5,24,12:00,UTC,7,1010.7,78,0,-1,9.7,6.1,47160,80,9.1,5.4
2019,5,24,13:00,UTC,7,1010.5,85,0,-1,9.2,6.8,15510,73,7.7,5
2019,5,24,14:00,UTC,7,1010.2,80,0,-1,9.8,6.6,34610,80,8.9,4.8
2019,5,24,15:00,UTC,7,1009.9,80,0,-1,10.1,6.8,38970,86,8.5,5.8
2019,5,24,16:00,UTC,7,1009.5,86,0,-1,9.7,7.4,27190,75,7.3,4.7
2019,5,24,17:00,UTC,7,1009.2,87,0,-1,9.8,7.7,25480,79,5.8,3.6
2019,5,24,18:00,UTC,7,1009,96,0,-1,9.4,8.7,4950,75,5.7,3.6
2019,5,24,19:00,UTC,7,1008.9,96,0,-1,9.5,8.9,6280,90,4.6,2.7
2019,5,24,20:00,UTC,7,1008.5,98,0,-1,9.3,9,2080,95,5.2,3
2019,5,24,21:00,UTC,7,1008.1,98,0,-1,9,8.7,2450,116,4.8,3.6
2019,5,24,22:00,UTC,7,1007.5,99,0,-1,8.8,8.5,1280,93,4.5,3.4
2019,5,24,23:00,UTC,7,1007.1,99,0,-1,8.9,8.7,1930,92,4.1,2.8
2019,5,25,00:00,UTC,7,1006.3,98,0,-1,9,8.6,19080,102,6,4.3
2019,5,25,01:00,UTC,7,1005.5,98,0,-1,8.6,8.3,3240,105,5.9,3.9
2019,5,25,02:00,UTC,9,1004.8,98,0,-1,8.6,8.4,1160,97,5.7,3.6
2019,5,25,03:00,UTC,9,1004,99,0,-1,8.5,8.3,1980,92,6.2,4.2
2019,5,25,04:00,UTC,7,1003.7,99,0,-1,8.8,8.6,11050,100,4.1,3.1
2019,5,25,05:00,UTC,7,1002.9,97,1,-1,9.2,8.8,6560,115,6.2,4.7
2019,5,25,06:00,UTC,7,1002.4,94,0,-1,10.7,9.7,15040,157,7.6,4.3
2019,5,25,07:00,UTC,7,1001.9,94,0,-1,11.5,10.5,15850,173,8.2,4.3
2019,5,25,08:00,UTC,7,1001.7,88,0,-1,11.4,9.5,26810,193,9.6,7.1
2019,5,25,09:00,UTC,5,1001.4,82,0,-1,12.9,9.9,29300,199,8.6,4.8
2019,5,25,10:00,UTC,7,1001.2,80,0,-1,12.5,9.2,44320,220,8.7,5.6
2019,5,25,11:00,UTC,1,1000.7,68,0,-1,14.2,8.4,28300,208,10.1,5.4
2019,5,25,12:00,UTC,1,1000.4,69,0,-1,14.2,8.5,28950,199,10.5,7.3
2019,5,25,13:00,UTC,7,1000.3,73,0,-1,12.9,8.1,38630,199,9.9,6.8
2019,5,25,14:00,UTC,7,1000.2,73,0,-1,13.2,8.4,36360,209,12.3,7.5
2019,5,25,15:00,UTC,7,1000.5,82,0,-1,11.3,8.4,50000,204,11.1,7.9
2019,5,25,16:00,UTC,8,1000.6,88,0,-1,10.4,8.6,12290,206,9.7,7.2
2019,5,25,17:00,UTC,7,1000.6,87,0,-1,10.6,8.5,44660,204,7.8,5.1
2019,5,25,18:00,UTC,8,1000.5,89,0,-1,10.6,8.9,44310,221,6,3.8
2019,5,25,19:00,UTC,5,1000.7,89,0,-1,10.8,9,50000,236,7.3,4.1
2019,5,25,20:00,UTC,7,1000.8,86,0,-1,11.2,8.9,50000,257,9.3,5.6
2019,5,25,21:00,UTC,8,1001.4,90,0,-1,10.8,9.1,36750,264,7.9,5.1
2019,5,25,22:00,UTC,5,1001.7,90,0,-1,10.1,8.6,50000,273,8.3,4.8
2019,5,25,23:00,UTC,5,1001.8,89,0,-1,10,8.2,50000,265,6.5,4.1
2019,5,26,00:00,UTC,7,1002.1,90,0,-1,9.4,7.9,50000,250,6.7,4.5
2019,5,26,01:00,UTC,3,1002,89,0,-1,8.7,7,50000,253,7.5,5.1
2019,5,26,02:00,UTC,5,1002.1,88,0,-1,8,6.2,50000,256,7.5,4.7
2019,5,26,03:00,UTC,7,1002.5,86,0,-1,8.5,6.4,50000,262,6.2,4.1
2019,5,26,04:00,UTC,8,1002.3,88,0,-1,8.3,6.4,50000,231,6.2,3.9
2019,5,26,05:00,UTC,7,1002,83,0,-1,8.9,6.3,48040,215,4.2,2.2
2019,5,26,06:00,UTC,5,1001.2,72,0,-1,10.9,6.1,41720,140,3,1.6
2019,5,26,07:00,UTC,5,1000.8,79,0,-1,10.8,7.3,48060,146,6.4,3.5
2019,5,26,08:00,UTC,7,1000.7,93,0.6,-1,9,7.9,15540,149,5.1,3.3
2019,5,26,09:00,UTC,7,1000.2,91,0.3,-1,9.1,7.6,19810,114,4.1,2.9
2019,5,26,10:00,UTC,7,999.1,90,0,-1,9.6,8,19760,115,7.4,5.3
2019,5,26,11:00,UTC,7,998.2,95,0,-1,9.3,8.6,27210,118,9.1,6
2019,5,26,12:00,UTC,7,997.7,96,2.2,-1,9.5,8.9,13890,150,5.7,3.6
2019,5,26,13:00,UTC,8,997.2,97,1.3,-1,9.5,9,8110,194,7.4,4.6
2019,5,26,14:00,UTC,7,996.3,95,0.4,-1,9.6,8.9,10740,168,7.1,4.6
2019,5,26,15:00,UTC,8,995.8,95,0.4,-1,9,8.3,24060,198,8.6,5.8
2019,5,26,16:00,UTC,8,995.2,95,0.8,-1,8.5,7.7,18970,199,9.6,5.1
2019,5,26,17:00,UTC,7,994.8,96,0,-1,8.6,7.9,16140,194,10.2,6.3
2019,5,26,18:00,UTC,8,994.2,96,1.2,-1,8.5,8,11820,200,9,5.3
2019,5,26,19:00,UTC,7,994.3,95,0,-1,8.7,8,15220,214,12.3,7.4
2019,5,26,20:00,UTC,7,994.4,95,0,-1,8.9,8.1,25460,213,10.6,6.6
2019,5,26,21:00,UTC,7,994.2,95,1,-1,8.9,8,10630,206,10.4,5.9
2019,5,26,22:00,UTC,7,994.1,94,0,-1,8.7,7.8,25340,204,7.9,5.6
2019,5,26,23:00,UTC,8,994.2,96,0,-1,8.7,8.1,24040,232,6.1,3.5
2019,5,27,00:00,UTC,7,994.6,95,0,-1,8.8,8,11430,241,6.5,4.6
2019,5,27,01:00,UTC,7,995.2,96,0,-1,8.5,8,39140,254,6.3,4
2019,5,27,02:00,UTC,7,995.9,96,0,-1,8.8,8.3,35830,248,5.2,3.5
2019,5,27,03:00,UTC,7,996.7,96,0,-1,9.2,8.5,38180,245,4.3,2.9
2019,5,27,04:00,UTC,7,997.5,94,0,-1,9.1,8.2,49620,235,5.7,3.3
2019,5,27,05:00,UTC,7,998.4,91,0,-1,9.2,7.8,50000,238,7,4.6
2019,5,27,06:00,UTC,7,998.8,88,0,-1,9.8,7.9,50000,240,6.4,4.2
2019,5,27,07:00,UTC,7,999.4,86,0,-1,10.4,8.1,50000,244,5.7,3.9
2019,5,27,08:00,UTC,7,1000,83,0,-1,11.4,8.6,47850,242,5.9,3.5
2019,5,27,09:00,UTC,7,1000.7,89,0,-1,10.7,9,41250,193,6.5,4.2
2019,5,27,10:00,UTC,8,1001.1,89,0,-1,10.7,9,14910,209,7.6,5.5
2019,5,27,11:00,UTC,,,,,,,,,,,
2019,5,27,12:00,UTC,7,1002,74,0,-1,13,8.5,37920,212,10.3,6.2
2019,5,27,13:00,UTC,3,1002.1,73,0,-1,13.3,8.5,26270,199,8.4,5.9
2019,5,27,14:00,UTC,7,1002.4,71,0,-1,12.1,7,41760,209,8.9,6.5
2019,5,27,15:00,UTC,1,1002.4,64,0,-1,12.5,5.8,50000,204,8.2,5.4
2019,5,27,16:00,UTC,5,1002.6,65,0,-1,11.2,5,41280,197,8.1,6
2019,5,27,17:00,UTC,7,1002.4,67,0,-1,11.1,5.1,50000,186,5.7,3.4
2019,5,27,18:00,UTC,7,1002.7,68,0,-1,10.6,4.9,50000,189,5.5,3.4
2019,5,27,19:00,UTC,8,1002.9,76,0,-1,10.1,6,50000,168,3.1,1.9
2019,5,27,20:00,UTC,7,1002.9,78,0,-1,9.8,6.1,50000,132,4.4,3
2019,5,27,21:00,UTC,7,1002.9,87,0,-1,9,7,48790,132,3.6,2.5
2019,5,27,22:00,UTC,8,1002.9,93,0,-1,9.2,8.2,49840,103,3.1,2
2019,5,27,23:00,UTC,7,1002.9,94,0,-1,9.5,8.5,47350,113,2.9,1.5
2019,5,28,00:00,UTC,8,1003,94,0,-1,9.6,8.7,13870,121,4.2,3
2019,5,28,01:00,UTC,8,1003,98,0.6,-1,9.5,9.2,2530,127,3.5,2.4
2019,5,28,02:00,UTC,7,1003.2,98,0,-1,9.5,9.2,6520,201,9.8,5.4
2019,5,28,03:00,UTC,8,1003.8,98,0,-1,9.3,9,12190,204,6.7,4.4
2019,5,28,04:00,UTC,7,1004.5,98,0,-1,9.7,9.4,6270,234,5.9,3.4
2019,5,28,05:00,UTC,7,1005.1,93,0,-1,10.8,9.7,46160,219,6.1,3.8
2019,5,28,06:00,UTC,7,1006,91,0,-1,10.7,9.3,41720,199,8.7,6.1
2019,5,28,07:00,UTC,7,1007,88,0,-1,10,8.1,44290,204,7.5,4.3
2019,5,28,08:00,UTC,7,1007.6,86,0,-1,11.1,8.9,38880,,,
2019,5,28,09:00,UTC,5,1007.7,78,0,-1,13.5,9.8,37460,219,6.4,4
2019,5,28,10:00,UTC,1,1008.1,72,0,-1,15.2,10.1,29160,167,5.8,3.2
2019,5,28,11:00,UTC,0,1008.1,69,0,-1,15.2,9.6,34220,145,5.8,3.4
2019,5,28,12:00,UTC,1,1008.1,67,0,-1,16.1,9.9,35130,151,6.2,2.9
2019,5,28,13:00,UTC,1,1008.2,68,0,-1,15.5,9.6,36350,86,5.3,3.4
2019,5,28,14:00,UTC,5,1008,73,0,-1,14.2,9.4,45070,101,6.7,4.1
2019,5,28,15:00,UTC,7,1008,71,0,-1,14.5,9.4,45230,108,6.7,5.1
2019,5,28,16:00,UTC,5,1007.6,80,0,-1,13.6,10.1,30450,123,6.7,3.7
2019,5,28,17:00,UTC,7,1007.6,83,0,-1,12.4,9.5,27690,143,3.8,2.3
2019,5,28,18:00,UTC,7,1007.5,89,0.8,-1,11.5,9.8,24550,194,2.6,1.7
2019,5,28,19:00,UTC,8,1007.3,91,0,-1,11.7,10.4,29470,72,1.1,0.8
2019,5,28,20:00,UTC,8,1007.3,92,0,-1,11.7,10.5,19380,87,1.9,1.3
2019,5,28,21:00,UTC,7,1007,91,0,-1,11.4,10,16840,54,1.5,1
2019,5,28,22:00,UTC,8,1006,92,0,-1,11.3,10.2,14590,359,3.1,2.3
2019,5,28,23:00,UTC,8,1005.6,93,0.3,-1,11.3,10.2,9250,17,3.3,2.2
2019,5,29,00:00,UTC,8,1005.1,97,1,-1,10.8,10.3,3830,11,5.7,3
2019,5,29,01:00,UTC,8,1004.5,98,0.4,-1,10.9,10.5,3730,352,2.9,2
2019,5,29,02:00,UTC,8,1003.9,98,0.7,-1,10.9,10.6,2880,307,3.3,1.9
2019,5,29,03:00,UTC,8,1003.8,98,0.4,-1,10.8,10.5,5540,297,5.5,3.2
2019,5,29,04:00,UTC,7,1003.8,98,0.7,-1,11,10.7,13500,298,5.2,3.1
2019,5,29,05:00,UTC,7,1003.8,96,0.3,-1,11.6,11.1,25800,302,4.4,2.5
2019,5,29,06:00,UTC,7,1004.6,94,0,-1,12.1,11.2,50000,284,5,3.3
2019,5,29,07:00,UTC,7,1005.1,89,0,-1,13.1,11.2,50000,278,5.3,3
2019,5,29,08:00,UTC,7,1005.7,85,0,-1,13.3,10.8,48420,253,7.5,4.8
2019,5,29,09:00,UTC,3,1006.5,69,0,-1,16,10.4,46210,235,7.9,5.5
2019,5,29,10:00,UTC,3,1007.2,76,0,-1,15.2,11,28250,212,10.6,6.9
2019,5,29,11:00,UTC,0,1008.2,70,0,-1,15.7,10.3,24570,206,11.6,8.3
2019,5,29,12:00,UTC,0,1008.8,70,0,-1,15.3,9.9,30730,202,9.5,6.8
2019,5,29,13:00,UTC,0,1009.1,73,0,-1,15.5,10.6,28600,203,9,6.2
2019,5,29,14:00,UTC,0,1009.4,58,0,-1,15,6.9,26130,208,12.7,8
2019,5,29,15:00,UTC,0,1010.2,30,0,-1,16.1,-1.3,29620,230,13.7,8.3
2019,5,29,16:00,UTC,0,1011.2,44,0,-1,15.5,3.2,39460,245,10.3,7
2019,5,29,17:00,UTC,1,1012.5,49,0,-1,14.3,3.8,37400,282,10.7,5.8
2019,5,29,18:00,UTC,0,1014,43,0,-1,11.9,-0.1,50000,280,13.8,8.4
2019,5,29,19:00,UTC,0,1015.2,43,0,-1,10.5,-1.4,50000,281,8.1,5.2
2019,5,29,20:00,UTC,0,1016.2,52,0,-1,8.8,-0.5,50000,274,4.5,3.1
2019,5,29,21:00,UTC,0,1017.2,56,0,-1,7.8,-0.5,50000,259,5.3,3.4
2019,5,29,22:00,UTC,0,1017.9,61,0,-1,6.9,-0.2,50000,261,4.7,3.5
2019,5,29,23:00,UTC,0,1018.6,65,0,-1,6.3,0.2,50000,240,4.8,3.2
2019,5,30,00:00,UTC,0,1019.1,65,0,-1,6.6,0.6,50000,224,4.9,3.8
2019,5,30,01:00,UTC,0,1019.5,71,0,-1,6.1,1.1,50000,233,4.9,3.7
2019,5,30,02:00,UTC,0,1020.1,75,0,-1,5.9,1.8,50000,230,4.2,2.9
2019,5,30,03:00,UTC,0,1020.4,74,0,-1,7.9,3.6,50000,236,5.3,3.3
2019,5,30,04:00,UTC,0,1020.7,62,0,-1,10.6,3.6,40410,233,5.7,3.5
2019,5,30,05:00,UTC,0,1021,58,0,-1,12.1,4,33990,214,5.9,3.9
2019,5,30,06:00,UTC,0,1021.3,54,0,-1,13.3,4.2,50000,222,6.1,4.1
2019,5,30,07:00,UTC,0,1021.5,63,0,-1,13.5,6.7,45960,198,6.6,4.7
2019,5,30,08:00,UTC,0,1021.9,53,0,-1,14.6,5,39330,187,8.5,5.5
2019,5,30,09:00,UTC,0,1022,41,0,-1,14.7,1.4,34270,204,10.8,7.3
2019,5,30,10:00,UTC,0,1022.1,39,0,-1,14.8,0.9,34820,196,12.5,7.1
2019,5,30,11:00,UTC,0,1021.9,35,0,-1,15.2,-0.2,36650,210,12.2,6.6
2019,5,30,12:00,UTC,0,1021.7,33,0,-1,16.4,0,41630,218,9.4,6.5
2019,5,30,13:00,UTC,0,1021.4,32,0,-1,16,-0.6,50000,213,10.5,7.3
2019,5,30,14:00,UTC,0,1020.7,33,0,-1,16.1,-0.3,50000,203,10.9,7.6
2019,5,30,15:00,UTC,0,1020.1,32,0,-1,16,-0.7,40980,220,13.3,8.1
2019,5,30,16:00,UTC,0,1019.6,45,0,-1,14.8,3,50000,213,10.6,6.8
2019,5,30,17:00,UTC,0,1018.8,46,0,-1,13.7,2.2,50000,223,12,6.2
2019,5,30,18:00,UTC,0,1018.2,44,0,-1,12.9,0.8,50000,221,10.1,5.8
2019,5,30,19:00,UTC,0,1017.8,52,0,-1,11.9,2.2,50000,205,8.2,5.6
2019,5,30,20:00,UTC,3,1017.3,71,0,-1,10.5,5.4,50000,155,6.9,4.4
2019,5,30,21:00,UTC,3,1016.3,57,0,-1,11.3,3.1,50000,173,9.5,6
2019,5,30,22:00,UTC,7,1015.5,54,0,-1,11.3,2.2,50000,174,10.8,6.5
2019,5,30,23:00,UTC,8,1014.4,55,0,-1,10.9,2.2,50000,177,11.6,7.3
2019,5,31,00:00,UTC,7,1013.1,56,0,-1,10.5,2.1,50000,172,11.9,6.4
2019,5,31,01:00,UTC,8,1012,72,0,-1,9.3,4.5,12700,181,10.8,6.6
2019,5,31,02:00,UTC,8,1011.2,78,0,-1,9.3,5.5,16240,194,16.5,9.2
2019,5,31,03:00,UTC,8,1010.1,95,2.5,-1,8.6,7.9,5810,198,14.3,7.7
2019,5,31,04:00,UTC,8,1009.4,97,0.7,-1,8.4,7.9,3700,198,15.8,9.1
2019,5,31,05:00,UTC,8,1009.2,98,1,-1,8.8,8.5,4100,207,14.3,9.1
2019,5,31,06:00,UTC,8,1009.2,98,0,-1,9.9,9.6,6570,206,6.8,4.7
2019,5,31,07:00,UTC,7,1009.7,96,0,-1,11.2,10.6,18040,211,9.2,6.5
2019,5,31,08:00,UTC,5,1010.1,74,0,-1,13,8.5,41790,243,11.4,6.9
2019,5,31,09:00,UTC,0,1010.5,50,0,-1,14.3,3.8,35940,239,12.1,6.5
2019,5,31,10:00,UTC,0,1010.8,38,0,-1,15.5,1.3,28790,239,12.6,7.8
2019,5,31,11:00,UTC,0,1011.1,48,0,-1,15.5,4.6,40520,205,12.6,8.3
2019,5,31,12:00,UTC,0,1011.4,52,0,-1,15.7,5.8,38260,203,11.7,7.1
2019,5,31,13:00,UTC,0,1012,53,0,-1,15.1,5.6,40570,200,12.4,7.7
2019,5,31,14:00,UTC,0,1012.4,58,0,-1,15,6.7,44670,208,11.6,7.7
2019,5,31,15:00,UTC,1,1012.7,58,0,-1,14.8,6.7,50000,229,10.8,6.8
2019,5,31,16:00,UTC,0,1013.1,31,0,-1,15.1,-1.8,50000,263,11.7,6.7
2019,5,31,17:00,UTC,0,1013.6,30,0,-1,13.8,-3.3,49910,262,9.9,6.5
2019,5,31,18:00,UTC,0,1014,34,0,-1,12.5,-2.8,50000,244,7,4.7
2019,5,31,19:00,UTC,0,1014.6,39,0,-1,11.6,-1.7,50000,243,7.2,5.1
2019,5,31,20:00,UTC,0,1015,53,0,-1,10.7,1.4,50000,232,7,4.5
2019,5,31,21:00,UTC,0,1015,64,0,-1,10,3.5,50000,230,6,4.1
2019,5,31,22:00,UTC,1,1015.2,71,0,-1,9.3,4.3,50000,228,5.6,3.6
2019,5,31,23:00,UTC,7,1015.4,77,0,-1,9.6,5.7,50000,225,6.5,4.4
2019,6,1,00:00,UTC,5,1015.6,83,0,-1,9,6.2,50000,238,6.7,4.3
2019,6,1,01:00,UTC,1,1015.9,87,0,-1,8.3,6.2,49080,256,5.7,3.8
2019,6,1,02:00,UTC,0,1016.2,92,0,-1,7.3,6.1,43720,242,3.8,2.7
2019,6,1,03:00,UTC,0,1016.4,86,0,-1,9,6.8,44250,224,3.8,2.4
2019,6,1,04:00,UTC,0,1016.6,79,0,-1,10.9,7.4,37660,218,3.2,2.1
2019,6,1,05:00,UTC,0,1016.7,71,0,-1,12.1,7,41470,208,4.8,3.5
2019,6,1,06:00,UTC,0,1016.6,66,0,-1,13.6,7.5,33900,212,4.2,2.8
2019,6,1,07:00,UTC,0,1016.7,62,0,-1,14.7,7.5,40840,200,7,4.2
2019,6,1,08:00,UTC,0,1016.9,52,0,-1,15.1,5.3,36330,212,7.8,5.1
2019,6,1,09:00,UTC,1,1016.8,56,0,-1,16.2,7.3,34520,210,7.6,4.9
2019,6,1,10:00,UTC,1,1016.5,53,0,-1,16.6,6.8,38950,205,9.7,5.1
2019,6,1,11:00,UTC,1,1016.1,49,0,-1,16.9,6.2,41930,217,9.9,5.8
2019,6,1,12:00,UTC,3,1015.4,57,0,-1,16.2,7.7,38340,224,10.3,5.5
2019,6,1,13:00,UTC,7,1014.7,58,0,-1,16.1,7.7,44780,223,10.5,6.8
2019,6,1,14:00,UTC,7,1013.8,55,0,-1,15.7,6.8,48470,212,11.7,6.3
2019,6,1,15:00,UTC,7,1013.4,66,0,-1,14.1,7.8,45770,201,7.8,4.7
2019,6,1,16:00,UTC,7,1012.8,70,0,-1,13.3,7.9,50000,221,8,5.8
2019,6,1,17:00,UTC,7,1012,84,0,-1,12,9.4,18600,219,10.3,5.3
2019,6,1,18:00,UTC,7,1011.2,91,0,-1,11.2,9.7,25410,206,8.7,5.3
2019,6,1,19:00,UTC,8,1010.4,93,0,-1,10.8,9.7,32390,209,5.1,3
2019,6,1,20:00,UTC,8,1009.9,91,2.2,-1,10.4,9,9560,188,9.9,6.3
2019,6,1,21:00,UTC,8,1009.1,94,0.8,-1,9.8,8.9,7890,197,9.3,5.9
2019,6,1,22:00,UTC,8,1008.1,94,0,-1,10.1,9.1,29760,196,8,5
2019,6,1,23:00,UTC,8,1007.6,96,0,-1,10.5,9.8,19270,203,9.1,5.5
2019,6,2,00:00,UTC,8,1007,97,0.7,-1,10.9,10.5,7640,205,9.5,6.6
2019,6,2,01:00,UTC,8,1006.5,96,0,-1,11.1,10.5,7640,204,9.3,5.8
2019,6,2,02:00,UTC,8,1006.3,97,0,-1,10.7,10.2,7720,218,8.1,5.3
2019,6,2,03:00,UTC,8,1006.2,97,0,-1,10.8,10.2,7850,200,7.4,4.7
2019,6,2,04:00,UTC,8,1006,95,0,-1,10.9,10.2,12680,214,7.2,4.9
2019,6,2,05:00,UTC,8,1006.1,95,0,-1,11.7,10.8,35480,221,7.1,4.9
2019,6,2,06:00,UTC,8,1006.4,92,0,-1,12.3,11.1,25550,242,7.9,5
2019,6,2,07:00,UTC,8,1007.1,92,0,-1,12.6,11.2,13510,241,7.3,5
2019,6,2,08:00,UTC,8,1008,93,0,-1,12.2,11,7790,268,9.1,5.2
2019,6,2,09:00,UTC,7,1008.7,81,0,-1,13.3,10.1,48520,288,7,3.7
2019,6,2,10:00,UTC,8,1010,81,0,-1,12.7,9.5,50000,283,7.3,4.4
2019,6,2,11:00,UTC,7,1011,70,0,-1,13.9,8.5,34160,278,9.1,4.9
2019,6,2,12:00,UTC,5,1011.7,59,0,-1,15.2,7.3,38030,303,7.9,4.7
2019,6,2,13:00,UTC,1,1012.2,60,0,-1,15.6,7.8,50000,299,6,3.3
2019,6,2,14:00,UTC,1,1012.4,50,0,-1,17.3,6.9,50000,265,8.4,4.6
2019,6,2,15:00,UTC,5,1012.6,47,0,-1,16.9,5.6,46380,266,9.8,7
2019,6,2,16:00,UTC,0,1012.7,47,0,-1,17,5.6,50000,280,8.9,5.1
2019,6,2,17:00,UTC,1,1012.8,46,0,-1,16.6,4.9,50000,273,7.7,4.3
2019,6,2,18:00,UTC,0,1013.6,40,0,-1,15.5,2.1,50000,276,10.1,6.3
2019,6,2,19:00,UTC,0,1014.7,42,0,-1,13.8,1,50000,280,10.6,5.9
2019,6,2,20:00,UTC,0,1015.7,49,0,-1,12,1.5,43610,275,7.3,4.6
2019,6,2,21:00,UTC,0,1016.5,55,0,-1,10.6,2,50000,282,7.6,4.7
2019,6,2,22:00,UTC,0,1017.3,60,0,-1,9.4,2,50000,282,5.7,3.6
2019,6,2,23:00,UTC,0,1017.7,67,0,-1,7.9,2.1,50000,283,5.2,4.1
2019,6,3,00:00,UTC,0,1018.4,72,0,-1,7.2,2.4,50000,283,5,3.9
2019,6,3,01:00,UTC,0,1018.9,76,0,-1,6.3,2.4,50000,290,5.1,4
2019,6,3,02:00,UTC,0,1019.6,77,0,-1,6.4,2.6,50000,298,4.3,2.9
2019,6,3,03:00,UTC,0,1020,68,0,-1,8.7,3.1,50000,330,3,1.1
2019,6,3,04:00,UTC,0,1020.4,56,0,-1,11,2.6,42820,320,2.2,1.2
2019,6,3,05:00,UTC,0,1020.7,49,0,-1,12.7,2.4,40770,48,2.4,1.2
2019,6,3,06:00,UTC,0,1020.8,46,0,-1,14.4,2.8,32470,105,3.6,2.1
2019,6,3,07:00,UTC,1,1021.1,45,0,-1,15.3,3.3,37780,127,5.7,4
2019,6,3,08:00,UTC,5,1021.3,54,0,-1,15.8,6.6,41750,145,4.7,2.6
2019,6,3,09:00,UTC,7,1021.4,52,0,-1,14.4,4.7,39480,152,7.3,4.7
2019,6,3,10:00,UTC,0,1021.4,49,0,-1,15.1,4.4,45500,137,5.8,4
2019,6,3,11:00,UTC,3,1021,40,0,-1,15.7,2.3,42280,157,6.7,4.1
2019,6,3,12:00,UTC,3,1020.6,39,0,-1,16.5,2.4,37330,159,6.1,4
2019,6,3,13:00,UTC,0,1019.9,41,0,-1,16.8,3.5,37960,131,5.4,3.8
2019,6,3,14:00,UTC,0,1019.2,41,0,-1,16.2,3.1,50000,92,6.4,4.2
2019,6,3,15:00,UTC,0,1018.7,44,0,-1,15.4,3.1,44950,94,7.5,5.1
2019,6,3,16:00,UTC,0,1017.9,47,0,-1,14.7,3.4,50000,92,8.4,6.1
2019,6,3,17:00,UTC,0,1017.8,49,0,-1,14.2,3.7,50000,102,6.3,3.7
2019,6,3,18:00,UTC,7,1017,57,0,-1,13.5,5,50000,99,5,3.5
2019,6,3,19:00,UTC,7,1016.4,68,0,-1,13.2,7.5,41910,117,3.9,2.5
2019,6,3,20:00,UTC,7,1016,74,0,-1,13.3,8.8,50000,112,3,2.2
2019,6,3,21:00,UTC,7,1016.1,66,0,-1,13.9,7.7,50000,157,3.4,2.1
2019,6,3,22:00,UTC,1,1015.2,63,0,-1,14.5,7.6,50000,157,8.9,5.5
2019,6,3,23:00,UTC,3,1014.9,64,0,-1,14.8,7.9,50000,174,8.2,4.7
2019,6,4,00:00,UTC,7,1014.7,83,2.3,-1,13,10.2,37800,185,9.6,6
2019,6,4,01:00,UTC,3,1014.3,80,0,-1,13.4,10.1,50000,194,9.6,5.7
2019,6,4,02:00,UTC,5,1014,80,0,-1,13.6,10.3,47410,205,9.5,6
2019,6,4,03:00,UTC,1,1013.6,79,0,-1,14.6,11,48400,212,8.1,5.7
2019,6,4,04:00,UTC,3,1014.5,76,0,-1,15.6,11.3,42870,213,11.7,7.5
2019,6,4,05:00,UTC,7,1014.7,96,1.1,-1,13.8,13.1,11070,217,7.3,4.1
2019,6,4,06:00,UTC,5,1014.8,91,0,-1,13.8,12.3,29230,214,8.4,5.8
2019,6,4,07:00,UTC,3,1015,81,0,-1,15.9,12.7,33330,213,9.2,5.8
2019,6,4,08:00,UTC,5,1014,79,0,-1,16.1,12.3,34100,193,8.6,5.7
2019,6,4,09:00,UTC,1,1014.7,72,0,-1,19,13.9,30420,223,9.7,4.8
2019,6,4,10:00,UTC,5,1015.3,65,0,-1,21.3,14.4,31640,223,12.1,7.3
2019,6,4,11:00,UTC,1,1015.1,63,0,-1,22.1,14.6,34010,225,12.7,7.3
2019,6,4,12:00,UTC,0,1014.8,63,0,-1,21.9,14.5,38750,216,10.4,7.3
2019,6,4,13:00,UTC,1,1014.7,63,0,-1,22,14.6,41100,229,9.2,5.8
2019,6,4,14:00,UTC,0,1014.5,55,0,-1,23.9,14.4,40530,238,9.5,5.5
2019,6,4,15:00,UTC,3,1014.5,56,0,-1,23.5,14.3,44030,214,9.1,6.3
2019,6,4,16:00,UTC,1,1014.5,59,0,-1,22.9,14.5,48180,224,8.9,5.6
2019,6,4,17:00,UTC,0,1014.5,65,0,-1,20.8,13.9,41770,216,7.1,4.1
2019,6,4,18:00,UTC,0,1014.3,70,0,-1,19.4,13.7,40670,217,5.4,3.6
2019,6,4,19:00,UTC,0,1014.6,76,0,-1,16.8,12.6,36720,189,3.2,2.1
2019,6,4,20:00,UTC,0,1014.8,84,0,-1,15.1,12.4,31290,206,3.1,2.1
2019,6,4,21:00,UTC,0,1015,88,0,-1,14.4,12.4,33740,178,3.5,2.1
2019,6,4,22:00,UTC,0,1015.2,90,0,-1,13.8,12.2,28740,202,3.8,2.8
2019,6,4,23:00,UTC,0,1015.5,92,0,-1,13.7,12.5,20690,151,2.3,1.4
2019,6,5,00:00,UTC,7,1015.9,92,0,-1,13.6,12.3,17200,211,1.9,1.1
2019,6,5,01:00,UTC,5,1015.7,91,0,-1,13.8,12.4,14080,220,2.1,1.2
2019,6,5,02:00,UTC,0,1015.9,96,0,-1,12.8,12.1,7140,0,0.7,0
2019,6,5,03:00,UTC,0,1015.8,89,0,-1,14.9,13.1,12570,130,2.6,2.1
2019,6,5,04:00,UTC,0,1015.9,81,0,-1,16,12.8,20180,132,3,2
2019,6,5,05:00,UTC,0,1016.7,76,0,-1,17.7,13.4,33290,213,2,0.9
2019,6,5,06:00,UTC,0,1016.9,69,0,-1,19.4,13.6,28510,144,1.1,0.5
2019,6,5,07:00,UTC,0,1016.7,62,0,-1,20.9,13.4,33350,94,2.4,1.2
2019,6,5,08:00,UTC,0,1017.2,61,0,-1,22.5,14.5,27150,142,3.5,2.5
2019,6,5,09:00,UTC,0,1017.4,54,0,-1,23,13.2,27080,129,3.8,2.8
2019,6,5,10:00,UTC,0,1017.8,55,0,-1,23.5,14,30400,148,4,2.2
2019,6,5,11:00,UTC,0,1017.9,52,0,-1,23.3,12.8,25940,149,4.2,3.3
2019,6,5,12:00,UTC,1,1018.1,45,0,-1,23.7,11.2,35620,126,4.3,3.3
2019,6,5,13:00,UTC,0,1018,46,0,-1,24.3,11.9,34100,112,3.5,2
2019,6,5,14:00,UTC,0,1018,48,0,-1,24.1,12.4,34650,92,3.9,2.2
2019,6,5,15:00,UTC,0,1018,50,0,-1,23.4,12.5,36130,105,4.5,2.7
2019,6,5,16:00,UTC,0,1018.1,52,0,-1,23.8,13.5,34380,138,3.7,2.8
2019,6,5,17:00,UTC,0,1018.3,60,0,-1,21.9,13.8,33690,94,3.5,2
2019,6,5,18:00,UTC,0,1018.5,65,0,-1,20.7,13.8,41530,78,2,1
2019,6,5,19:00,UTC,0,1018.9,68,0,-1,19.8,13.6,41410,84,1.8,1.3
2019,6,5,20:00,UTC,0,1019.1,71,0,-1,19,13.6,39390,91,2.4,2
2019,6,5,21:00,UTC,0,1019.2,74,0,-1,18.2,13.6,44830,80,2.1,1.6
2019,6,5,22:00,UTC,0,1019.4,80,0,-1,17.6,14.1,37470,96,2.8,2.1
2019,6,5,23:00,UTC,0,1019.7,83,0,-1,16.9,13.9,37850,63,2.4,2.1
2019,6,6,00:00,UTC,0,1019.9,90,0,-1,15.1,13.4,26880,57,2.1,1.8
2019,6,6,01:00,UTC,0,1020.1,91,0,-1,14.9,13.3,24040,67,2.6,2.3
2019,6,6,02:00,UTC,0,1020.2,89,0,-1,14.8,13.1,16160,66,2.5,2.1
2019,6,6,03:00,UTC,0,1020.2,76,0,-1,17.6,13.4,32810,65,3,2.3
2019,6,6,04:00,UTC,0,1020.2,73,0,-1,18.8,13.9,36820,48,2.5,1.6
2019,6,6,05:00,UTC,0,1020.3,66,0,-1,21.5,14.9,41370,63,2.3,1.5
2019,6,6,06:00,UTC,0,1020.5,60,0,-1,23.7,15.6,32690,103,2.9,1.6
2019,6,6,07:00,UTC,0,1020.6,61,0,-1,22.7,14.8,34390,86,3,2
2019,6,6,08:00,UTC,0,1020.8,61,0,-1,23.8,15.9,37540,88,3.7,2.3
2019,6,6,09:00,UTC,0,1020.9,55,0,-1,24.9,15.2,27830,97,3.7,2.3
2019,6,6,10:00,UTC,0,1020.8,46,0,-1,26.3,13.7,25900,93,4.8,3.4
2019,6,6,11:00,UTC,0,1020.6,46,0,-1,26.4,14,31360,96,4.5,3.1
2019,6,6,12:00,UTC,0,1020.6,46,0,-1,26.6,14.2,28820,100,5.7,3.7
2019,6,6,13:00,UTC,0,1020.3,49,0,-1,26.4,15,29420,86,6.2,4.4
2019,6,6,14:00,UTC,0,1019.9,53,0,-1,25.6,15.2,30490,109,6.5,4.5
2019,6,6,15:00,UTC,0,1019.4,52,0,-1,25.3,14.8,30980,106,6.3,4.4
2019,6,6,16:00,UTC,0,1019.3,48,0,-1,25.1,13.2,36470,91,4.9,3
2019,6,6,17:00,UTC,0,1019.1,52,0,-1,23.9,13.5,35300,71,5.2,2.8
2019,6,6,18:00,UTC,0,1019.1,54,0,-1,22.9,13.2,45960,99,4.6,3.1
2019,6,6,19:00,UTC,0,1019,59,0,-1,21.5,13,50000,92,6.1,3.5
2019,6,6,20:00,UTC,0,1019.2,60,0,-1,20.2,12.3,50000,82,3.7,2.1
2019,6,6,21:00,UTC,0,1019.3,63,0,-1,19.8,12.5,50000,79,3.4,2.3
2019,6,6,22:00,UTC,0,1019.3,67,0,-1,19,12.7,47150,88,3.8,2.7
2019,6,6,23:00,UTC,0,1018.9,67,0,-1,19.3,13,49440,91,4.7,3.7
2019,6,7,00:00,UTC,0,1018.9,68,0,-1,19.2,13,46940,78,3.9,3.1
2019,6,7,01:00,UTC,1,1018.8,71,0,-1,18.9,13.4,40610,82,4.2,3.3
2019,6,7,02:00,UTC,0,1018.6,71,0,-1,19,13.6,44570,77,3.5,2.6
2019,6,7,03:00,UTC,1,1018.5,71,0,-1,19.6,14.2,34780,79,3.1,2.4
2019,6,7,04:00,UTC,0,1018.5,69,0,-1,20.7,14.8,30230,95,3.1,2.3
2019,6,7,05:00,UTC,0,1018.5,67,0,-1,22.2,15.8,25630,91,3,2
2019,6,7,06:00,UTC,0,1018.8,65,0,-1,23.2,16.4,21400,123,3.4,2.4
2019,6,7,07:00,UTC,0,1018.7,59,0,-1,24.2,15.8,30000,89,2.8,1.8
2019,6,7,08:00,UTC,0,1018.8,60,0,-1,24.5,16.4,23810,90,4.2,2.7
2019,6,7,09:00,UTC,0,1019,59,0,-1,25.1,16.5,29570,93,4.4,3
2019,6,7,10:00,UTC,0,1019.2,56,0,-1,26.1,16.7,24750,102,5.7,4.2
2019,6,7,11:00,UTC,0,1019.1,57,0,-1,26,16.8,31070,96,5.9,3.8
2019,6,7,12:00,UTC,0,1019,57,0,-1,26,16.8,32680,88,6.2,4.7
2019,6,7,13:00,UTC,1,1018.8,58,0,-1,24.8,16.1,32590,83,5.3,3.5
2019,6,7,14:00,UTC,0,1019,64,0,-1,22.7,15.6,24650,144,9.2,6.1
2019,6,7,15:00,UTC,3,1018.5,66,0,-1,23.6,17,28030,170,7.1,4.4
2019,6,7,16:00,UTC,7,1017.9,57,0,-1,24.7,15.7,42730,65,3.3,2
2019,6,7,17:00,UTC,1,1018.1,51,0,-1,25.1,14.4,47490,127,6,3.6
2019,6,7,18:00,UTC,1,1018.4,61,0,-1,23.5,15.6,47950,96,3.2,2.3
2019,6,7,19:00,UTC,1,1018.4,67,0,-1,22.4,16,45690,74,4.7,2.3
2019,6,7,20:00,UTC,1,1018.7,76,0,-1,19.2,14.8,41150,114,3,1.9
2019,6,7,21:00,UTC,7,1018.3,78,0,-1,19.6,15.7,36060,74,2.9,2.2
2019,6,7,22:00,UTC,7,1018.2,77,0,-1,19.6,15.3,39190,73,3.5,2.3
2019,6,7,23:00,UTC,7,1018.1,75,0,-1,19.6,15,39190,78,2.9,1.7
2019,6,8,00:00,UTC,1,1018,77,0,-1,18.9,14.8,40650,78,3.3,2
2019,6,8,01:00,UTC,1,1018,79,0,-1,18.5,14.7,35170,100,3.3,2.4
2019,6,8,02:00,UTC,0,1017.7,81,0,-1,18,14.6,36940,90,3.9,3
2019,6,8,03:00,UTC,0,1018,79,0,-1,18.9,15.1,32740,106,3.5,2
2019,6,8,04:00,UTC,1,1017.9,74,0,-1,20.7,15.9,35840,147,2,0.9
2019,6,8,05:00,UTC,1,1018.3,69,0,-1,22.3,16.4,27360,146,2.3,1.2
2019,6,8,06:00,UTC,1,1018.4,66,0,-1,23,16.4,27660,84,2.1,1.2
2019,6,8,07:00,UTC,3,1018.4,61,0,-1,24.5,16.4,29580,124,3.1,1.8
2019,6,8,08:00,UTC,1,1018.3,57,0,-1,25.2,16.1,40590,119,3.8,2.7
2019,6,8,09:00,UTC,1,1018.2,49,0,-1,26.9,15.2,30060,124,4.9,2.5
2019,6,8,10:00,UTC,0,1018,54,0,-1,26.2,16.1,28170,97,4.5,3.2
2019,6,8,11:00,UTC,0,1017.7,50,0,-1,26.7,15.5,32480,102,5.9,4.3
2019,6,8,12:00,UTC,0,1017.5,55,0,-1,25.8,16,35920,97,5.4,3.5
2019,6,8,13:00,UTC,0,1017,54,0,-1,26.9,16.7,31730,125,5.8,3.3
2019,6,8,14:00,UTC,0,1016.7,54,0,-1,26.9,16.9,38030,156,4.6,2.5
2019,6,8,15:00,UTC,0,1016.5,53,0,-1,27.4,16.9,30790,117,3.7,2.4
2019,6,8,16:00,UTC,5,1016.3,60,0,-1,25.1,16.8,31700,113,4.7,2.7
2019,6,8,17:00,UTC,1,1015.9,61,0,-1,24.7,16.6,46230,136,6.8,4.6
2019,6,8,18:00,UTC,3,1016,68,0,-1,22.9,16.5,40210,123,3.8,2.3
2019,6,8,19:00,UTC,1,1016.2,70,0,-1,21.8,16,45610,143,3.1,2.3
2019,6,8,20:00,UTC,1,1016.2,76,0,-1,20.3,15.9,50000,166,2.8,1.8
2019,6,8,21:00,UTC,3,1016.2,81,0,-1,19.5,16.2,40480,85,3,2
2019,6,8,22:00,UTC,5,1016,83,0,-1,19.4,16.4,33470,119,5.5,3.2
2019,6,8,23:00,UTC,5,1016.1,86,0,-1,18.9,16.6,27840,132,3.4,2.3
2019,6,9,00:00,UTC,7,1015.7,84,0,-1,18.7,16,34550,193,3.6,2.3
2019,6,9,01:00,UTC,7,1015.8,86,0,-1,18.1,15.8,27630,154,5.7,4.1
2019,6,9,02:00,UTC,7,1015.9,88,0,-1,18.3,16.3,26550,200,8,5.5
2019,6,9,03:00,UTC,7,1015.7,93,0,-1,17.4,16.3,10320,206,6.9,4.4
2019,6,9,04:00,UTC,7,1016.4,96,0,-1,17.4,16.7,5500,204,4.9,3.3
2019,6,9,05:00,UTC,7,1017,98,0,-1,16.6,16.2,3290,222,4.9,3.5
2019,6,9,06:00,UTC,0,1017.6,87,0,-1,19,16.8,27820,221,5.6,3.4
2019,6,9,07:00,UTC,0,1018.1,77,0,-1,19.4,15.1,32630,204,7.4,4.8
2019,6,9,08:00,UTC,0,1018.8,75,0,-1,19.8,15.3,32570,190,8,5.3
2019,6,9,09:00,UTC,1,1019.4,68,0,-1,20.8,14.7,43820,211,8.8,5.3
2019,6,9,10:00,UTC,1,1019.8,67,0,-1,20.8,14.5,31060,201,12.1,8.1
2019,6,9,11:00,UTC,1,1019.9,52,0,-1,21.7,11.3,34980,215,15.2,8.6
2019,6,9,12:00,UTC,0,1019.9,58,0,-1,21.6,12.9,34840,208,12.5,7
2019,6,9,13:00,UTC,0,1020.1,57,0,-1,21.1,12.1,43110,209,10.7,6.5
2019,6,9,14:00,UTC,1,1020.4,56,0,-1,20.4,11.3,35300,211,11.4,7.7
2019,6,9,15:00,UTC,0,1020.7,50,0,-1,19.9,9.1,41810,206,13.1,8.1
2019,6,9,16:00,UTC,0,1020.6,49,0,-1,19.3,8.3,45010,216,12.4,8.4
2019,6,9,17:00,UTC,0,1020.5,57,0,-1,18.1,9.3,37020,208,11.8,6.3
2019,6,9,18:00,UTC,0,1020.4,54,0,-1,17.1,7.6,50000,216,13.3,7
2019,6,9,19:00,UTC,0,1020.3,67,0,-1,15.7,9.5,50000,225,13.4,8
2019,6,9,20:00,UTC,0,1020.6,76,0,-1,14.6,10.3,40520,213,10.7,6.3
2019,6,9,21:00,UTC,0,1020.6,77,0,-1,14.4,10.4,38640,216,10,6.6
2019,6,9,22:00,UTC,0,1020.5,80,0,-1,14.1,10.7,31160,217,9.3,6.5
2019,6,9,23:00,UTC,0,1020.3,84,0,-1,13.7,11,33680,214,10,6.8
2019,6,10,00:00,UTC,1,1020.1,87,0,-1,13.4,11.2,26970,212,10.3,6.4
2019,6,10,01:00,UTC,0,1020,88,0,-1,13.1,11.2,31540,205,9.1,6.2
2019,6,10,02:00,UTC,1,1019.9,89,0,-1,13.2,11.4,27510,209,8.4,5.5
2019,6,10,03:00,UTC,0,1019.8,83,0,-1,14.4,11.5,32650,220,8.9,5.3
2019,6,10,04:00,UTC,1,1020,78,0,-1,14.9,11,28770,218,11.1,6.3
2019,6,10,05:00,UTC,1,1020,66,0,-1,14.9,8.5,28340,245,12.4,7.4
2019,6,10,06:00,UTC,0,1020.1,57,0,-1,16.5,7.9,30410,226,11.1,6.6
2019,6,10,07:00,UTC,1,1020.3,62,0,-1,17.3,10,36050,200,9.5,5.8
2019,6,10,08:00,UTC,0,1020.4,63,0,-1,17.4,10.4,38060,200,11.4,7.4
2019,6,10,09:00,UTC,0,1020.7,61,0,-1,18.2,10.5,36390,208,11.5,7
2019,6,10,10:00,UTC,0,1020.9,61,0,-1,17.9,10.1,31880,205,14.9,8.9
2019,6,10,11:00,UTC,0,1021.1,54,0,-1,19,9.4,30420,204,11.3,7.2
2019,6,10,12:00,UTC,0,1021,51,0,-1,19,8.7,28630,208,12.1,7.9
2019,6,10,13:00,UTC,0,1020.6,50,0,-1,19.3,8.4,34520,208,12.5,8
2019,6,10,14:00,UTC,0,1020.5,47,0,-1,19.4,7.8,36020,215,12.3,7.5
2019,6,10,15:00,UTC,0,1020.6,48,0,-1,19.3,7.9,44780,211,10.9,6.7
2019,6,10,16:00,UTC,0,1020.4,47,0,-1,18.8,7.4,47280,216,9.5,6.5
2019,6,10,17:00,UTC,0,1020.3,51,0,-1,17.9,7.6,46050,217,8.9,5.7
2019,6,10,18:00,UTC,1,1020.4,49,0,-1,17.3,6.5,47380,222,10.6,5.8
2019,6,10,19:00,UTC,1,1020.6,53,0,-1,16.5,6.8,50000,252,8.6,6.1
2019,6,10,20:00,UTC,7,1020.8,58,0,-1,15.4,7.1,50000,250,8,5.5
2019,6,10,21:00,UTC,1,1021,64,0,-1,14.5,7.8,50000,248,6.5,4.6
2019,6,10,22:00,UTC,0,1021.4,70,0,-1,13.4,8.1,50000,245,6.5,4.5
2019,6,10,23:00,UTC,0,1021.9,74,0,-1,12.8,8.3,48710,246,6.3,4
2019,6,11,00:00,UTC,0,1021.9,77,0,-1,12.4,8.4,50000,233,4.6,3.3
2019,6,11,01:00,UTC,0,1022,78,0,-1,11.9,8.2,41950,234,4.8,2.9
2019,6,11,02:00,UTC,0,1022.2,79,0,-1,12.3,8.8,50000,222,3.3,2.2
2019,6,11,03:00,UTC,0,1022.2,78,0,-1,13.6,9.8,40680,238,3.3,2.2
2019,6,11,04:00,UTC,0,1022.3,69,0,-1,15,9.4,38690,253,4.3,3.1
2019,6,11,05:00,UTC,0,1022.6,65,0,-1,16.7,10.1,33440,237,2.9,1.7
2019,6,11,06:00,UTC,0,1022.7,62,0,-1,17.6,10.2,31380,229,4,2.4
2019,6,11,07:00,UTC,1,1022.7,61,0,-1,18.7,11.1,30830,218,5,3.4
2019,6,11,08:00,UTC,1,1022.8,55,0,-1,19.3,9.9,33110,194,5.5,3.8
2019,6,11,09:00,UTC,5,1022.9,44,0,-1,20.6,8,27680,196,6.4,4.8
2019,6,11,10:00,UTC,3,1022.9,43,0,-1,20.9,8,29940,197,6.3,4.5
2019,6,11,11:00,UTC,0,1022.5,40,0,-1,21.9,7.7,42500,134,5.7,3.2
2019,6,11,12:00,UTC,0,1022.4,44,0,-1,20.7,8.1,44950,150,6.2,3.8
2019,6,11,13:00,UTC,0,1022.4,44,0,-1,21.9,8.9,38990,154,5.7,3.4
2019,6,11,14:00,UTC,1,1022.3,39,0,-1,21.4,7.1,37400,157,5.9,3.5
2019,6,11,15:00,UTC,0,1022.1,38,0,-1,21,6.3,45460,151,5.8,3.7
2019,6,11,16:00,UTC,0,1021.7,49,0,-1,19.6,8.6,49840,140,3.8,2.5
2019,6,11,17:00,UTC,5,1021.2,51,0,-1,18.2,7.8,50000,130,3.1,2
2019,6,11,18:00,UTC,7,1021.5,50,0,-1,17.7,7,50000,134,1.8,1
2019,6,11,19:00,UTC,5,1021.8,54,0,-1,16.9,7.5,50000,129,2.4,1.6
2019,6,11,20:00,UTC,7,1021.7,61,0,-1,16.5,8.9,50000,6,2.1,1.2
2019,6,11,21:00,UTC,7,1021.9,61,0,-1,17,9.3,50000,359,8.1,4.3
2019,6,11,22:00,UTC,1,1021.8,56,0,-1,16.7,7.9,50000,18,9,5.3
2019,6,11,23:00,UTC,5,1022.7,53,0,-1,15.7,6.1,50000,21,10,5.9
2019,6,12,00:00,UTC,7,1023.4,52,0,-1,14.7,5,50000,19,10.2,5.4
2019,6,12,01:00,UTC,3,1023.8,52,0,-1,13.5,3.9,50000,17,10.7,5.4
2019,6,12,02:00,UTC,7,1023.7,51,0,-1,12.7,3,50000,19,9.3,5.3
2019,6,12,03:00,UTC,3,1024.1,54,0,-1,12.7,3.5,50000,19,9.2,5.2
2019,6,12,04:00,UTC,3,1024.1,55,0,-1,13.1,4.4,49140,29,9.5,6.3
2019,6,12,05:00,UTC,5,1024.8,58,0,-1,13.5,5.5,48670,27,7.4,4.6
2019,6,12,06:00,UTC,3,1024.7,53,0,-1,14.9,5.5,42550,32,6.5,3.5
2019,6,12,07:00,UTC,3,1025,50,0,-1,15.9,5.5,50000,46,8.7,4.8
2019,6,12,08:00,UTC,1,1025,48,0,-1,17.3,6.1,47430,51,8.8,5.2
2019,6,12,09:00,UTC,0,1025.4,46,0,-1,18.1,6.2,45980,52,7.8,4.7
2019,6,12,10:00,UTC,1,1025.5,44,0,-1,18.1,5.5,39330,82,9.9,6.5
2019,6,12,11:00,UTC,7,1025.6,45,0,-1,17.5,5.5,42100,84,10.8,6.3
2019,6,12,12:00,UTC,1,1025.4,48,0,-1,16.8,5.7,46410,92,11.7,8.2
2019,6,12,13:00,UTC,5,1025.5,46,0,-1,16.6,5.1,46890,88,12.4,7.3
2019,6,12,14:00,UTC,5,1025.3,52,0,-1,15.9,5.9,48240,86,10.9,7
2019,6,12,15:00,UTC,1,1024.9,50,0,-1,15.5,5,50000,85,13.5,7.3
2019,6,12,16:00,UTC,5,1024.9,52,0,-1,15,5.4,47560,80,11.6,7
2019,6,12,17:00,UTC,5,1024.7,52,0,-1,14.5,4.7,50000,76,12.1,7.7
2019,6,12,18:00,UTC,5,1024.7,55,0,-1,14.2,5.3,50000,70,12.4,7.6
2019,6,12,19:00,UTC,7,1024.7,63,0,-1,13.8,6.9,50000,77,11.3,6.5
2019,6,12,20:00,UTC,7,1025,62,0,-1,13.5,6.2,50000,84,13,7.5
2019,6,12,21:00,UTC,5,1024.8,56,0,-1,13.2,4.7,50000,73,13.1,8.5
2019,6,12,22:00,UTC,1,1024.7,55,0,-1,12.8,4,50000,73,13.5,8.2
2019,6,12,23:00,UTC,5,1024.3,58,0,-1,12.6,4.7,50000,72,13.4,7.7
2019,6,13,00:00,UTC,1,1023.8,62,0,-1,12.5,5.5,50000,73,14,8.1
2019,6,13,01:00,UTC,1,1023.5,68,0,-1,12.5,6.8,50000,75,12.1,7.5
2019,6,13,02:00,UTC,3,1022.8,68,0,-1,12.5,6.8,50000,75,13.6,7.6
2019,6,13,03:00,UTC,7,1022.8,69,0,-1,12.6,7.1,44650,78,12.9,8.2
2019,6,13,04:00,UTC,1,1021.7,69,0,-1,12.7,7.2,45190,73,15.4,8.4
2019,6,13,05:00,UTC,3,1021,68,0,-1,12.7,6.9,45950,72,13.2,9
2019,6,13,06:00,UTC,8,1020.5,68,0,-1,13.2,7.3,42940,71,14.6,8.6
2019,6,13,07:00,UTC,7,1021.5,71,0,-1,12.7,7.5,45420,82,12.7,8.6
2019,6,13,08:00,UTC,7,1020.9,69,0,-1,13.8,8.2,43430,71,13.5,8.5
2019,6,13,09:00,UTC,1,1020.5,64,0,-1,15.2,8.4,28490,71,16.2,9.4
2019,6,13,10:00,UTC,7,1020.3,68,0,-1,15.1,9.2,44360,77,13.8,8.3
2019,6,13,11:00,UTC,7,1019.9,72,0,-1,14.7,9.7,48340,78,16.8,8.4
2019,6,13,12:00,UTC,7,1019.6,87,0.7,-1,13.4,11.3,9460,72,16.6,9.8
2019,6,13,13:00,UTC,1,1019,85,0,-1,14.7,12.1,28170,75,13.1,8.1
2019,6,13,14:00,UTC,1,1018.3,74,0,-1,15.9,11.3,37580,77,12.7,8.4
2019,6,13,15:00,UTC,1,1018.2,72,0,-1,16.2,11.1,34380,83,13.6,9.1
2019,6,13,16:00,UTC,7,1018.2,73,0,-1,15.9,11.1,46300,86,12.1,7.6
2019,6,13,17:00,UTC,7,1016.3,77,0,-1,15.9,11.8,50000,69,12.4,7.1
2019,6,13,18:00,UTC,7,1015.9,76,0,-1,15.9,11.7,44150,78,12.7,8
2019,6,13,19:00,UTC,5,1015.9,81,0,-1,15.4,12.2,42760,65,8.9,5
2019,6,13,20:00,UTC,1,1016,86,0,-1,15,12.7,43170,76,7.9,4.3
2019,6,13,21:00,UTC,7,1016.3,88,0,-1,14.9,13,35940,83,5.6,3.6
2019,6,13,22:00,UTC,7,1015.5,90,0,-1,14.7,13.1,32580,59,4.2,2.9
2019,6,13,23:00,UTC,5,1015.4,92,0,-1,14.5,13.1,27630,44,4,2.7
2019,6,14,00:00,UTC,3,1015.1,92,0,-1,14.4,13.1,25360,65,4.2,2.5
2019,6,14,01:00,UTC,3,1014.9,93,0,-1,14.2,13.1,30220,69,3.9,2.7
2019,6,14,02:00,UTC,7,1015,92,0,-1,14.7,13.5,35790,89,2.4,1.3
2019,6,14,03:00,UTC,7,1014.8,92,0,-1,15,13.7,20080,60,2.3,1.4
2019,6,14,04:00,UTC,7,1014.9,90,0,-1,15.5,13.8,24960,50,1.1,0.6
2019,6,14,05:00,UTC,7,1014.9,88,0,-1,15.9,13.8,31660,33,2.4,1.5
2019,6,14,06:00,UTC,7,1014.9,86,0,-1,16.6,14.4,25390,92,2.7,1.7
2019,6,14,07:00,UTC,7,1015.3,87,0,-1,16.4,14.2,12830,125,3.4,2.3
2019,6,14,08:00,UTC,7,1015.8,93,0,-1,15.3,14.2,3900,104,5.5,3.2
2019,6,14,09:00,UTC,7,1016.6,94,0,-1,14.1,13.2,2690,97,5.6,3.5
2019,6,14,10:00,UTC,7,1017.1,91,0,-1,14.4,13,4710,116,5.5,4
2019,6,14,11:00,UTC,7,1017.2,95,0,-1,13.8,12.9,2900,114,5.5,4.5
2019,6,14,12:00,UTC,7,1017.1,93,0,-1,13.7,12.5,5830,134,4.4,3.5
2019,6,14,13:00,UTC,7,1016.9,89,0,-1,14,12.1,10440,154,4.9,3.4
2019,6,14,14:00,UTC,8,1016.7,93,0,-1,13.7,12.5,4830,203,5.5,3.4
2019,6,14,15:00,UTC,8,1016.3,92,0,-1,12.9,11.7,6850,194,7.4,4.6
2019,6,14,16:00,UTC,8,1016.1,92,0,-1,14,12.6,11130,226,3.3,1.6
2019,6,14,17:00,UTC,8,1016.1,94,0,-1,14.3,13.3,5540,212,4.7,3
2019,6,14,18:00,UTC,7,1015.8,93,0,-1,14.2,13.1,13600,218,4.7,3.1
2019,6,14,19:00,UTC,8,1016.2,93,0,-1,14.2,13.1,12110,210,6.2,3.5
2019,6,14,20:00,UTC,8,1016.5,93,0,-1,14.5,13.5,16390,216,5.1,3.7
2019,6,14,21:00,UTC,8,1016.7,90,0,-1,15.2,13.5,24200,245,7.9,4.8
2019,6,14,22:00,UTC,5,1016.6,90,0,-1,14.3,12.7,18560,245,6.6,4.2
2019,6,14,23:00,UTC,7,1016.8,89,0,-1,13.7,12,24160,245,10,6.5
2019,6,15,00:00,UTC,7,1016.6,87,0,-1,13.6,11.4,39620,262,8,5.1
2019,6,15,01:00,UTC,8,1016.6,86,0,-1,13.5,11.3,37770,261,8.7,5.3
2019,6,15,02:00,UTC,8,1016.6,86,0,-1,13.3,11,43210,266,9.4,6
2019,6,15,03:00,UTC,7,1016.8,87,0,-1,13.4,11.2,33650,277,5.4,3
2019,6,15,04:00,UTC,7,1016.9,84,0,-1,13.9,11.3,44020,279,6.2,3.8
2019,6,15,05:00,UTC,7,1016.7,82,0,-1,14.4,11.4,43200,281,7.1,4.3
2019,6,15,06:00,UTC,7,1016.9,77,0,-1,15.8,11.8,40930,278,5.8,3.4
2019,6,15,07:00,UTC,7,1016.8,74,0,-1,16.2,11.7,48370,283,6.6,3.4
2019,6,15,08:00,UTC,5,1017,70,0,-1,17.5,11.9,37750,262,5.8,3.1
2019,6,15,09:00,UTC,3,1017,67,0,-1,18.6,12.3,41050,238,6.5,3.4
2019,6,15,10:00,UTC,1,1017.1,67,0,-1,19.8,13.6,37330,209,6.9,5
2019,6,15,11:00,UTC,1,1016.9,71,0,-1,18.8,13.4,28420,208,7.1,5.1
2019,6,15,12:00,UTC,0,1016.5,67,0,-1,20.4,14.1,32740,202,5.6,3.5
2019,6,15,13:00,UTC,1,1016.5,69,0,-1,19.4,13.5,43990,209,7.2,4.8
2019,6,15,14:00,UTC,5,1016.4,72,0,-1,19.3,14,44870,206,6.5,3.5
2019,6,15,15:00,UTC,1,1016.2,70,0,-1,20,14.2,47160,220,5.1,3.1
2019,6,15,16:00,UTC,1,1015.8,67,0,-1,20.8,14.5,47670,200,3.9,2.5
2019,6,15,17:00,UTC,0,1015.8,65,0,-1,20.3,13.5,50000,218,4.5,3.5
2019,6,15,18:00,UTC,5,1015.5,68,0,-1,19.7,13.6,50000,222,3.1,2.2
2019,6,15,19:00,UTC,0,1015.8,75,0,-1,18.5,14,50000,224,1.7,1.3
2019,6,15,20:00,UTC,3,1016.2,70,0,-1,18.2,12.7,50000,40,5.9,3.8
2019,6,15,21:00,UTC,0,1016.4,75,0,-1,16.5,12.1,50000,29,4.5,3.2
2019,6,15,22:00,UTC,0,1016.4,83,0,-1,14.9,12,50000,35,2.4,1.9
2019,6,15,23:00,UTC,0,1016.4,84,0,-1,14.5,11.8,50000,48,3.3,2.5
2019,6,16,00:00,UTC,0,1016.5,86,0,-1,13.4,11.2,50000,71,1.8,1.2
2019,6,16,01:00,UTC,0,1016.7,95,0,-1,12.4,11.5,45450,138,1.6,1.3
2019,6,16,02:00,UTC,0,1016.3,96,0,-1,12.2,11.5,42310,76,1.4,1
2019,6,16,03:00,UTC,0,1016,87,0,-1,14.1,12,44990,57,1.3,0.6
2019,6,16,04:00,UTC,0,1016.1,73,0,-1,16.6,11.8,46110,88,2.4,1.2
2019,6,16,05:00,UTC,0,1016.3,69,0,-1,17.7,11.8,37820,173,3.3,2
2019,6,16,06:00,UTC,0,1016.1,63,0,-1,18.4,11.2,37330,164,3.8,2.5
2019,6,16,07:00,UTC,0,1015.9,63,0,-1,19.8,12.5,40650,143,4.1,1.9
2019,6,16,08:00,UTC,0,1015.7,63,0,-1,19.7,12.5,36690,136,5.6,3.3
2019,6,16,09:00,UTC,3,1015.8,62,0,-1,19.9,12.3,45630,160,5.7,3.5
2019,6,16,10:00,UTC,0,1015.2,61,0,-1,22,14.2,33180,192,6.8,2.9
2019,6,16,11:00,UTC,0,1014.9,54,0,-1,21.5,11.7,37940,199,6.9,4.9
2019,6,16,12:00,UTC,1,1014.6,55,0,-1,22.2,12.7,40210,206,9.8,5.7
2019,6,16,13:00,UTC,0,1014.2,53,0,-1,22.3,12.4,40190,215,9.4,7
2019,6,16,14:00,UTC,0,1013.7,51,0,-1,23.2,12.3,44480,205,7.7,4.2
2019,6,16,15:00,UTC,0,1013.1,52,0,-1,23.5,13,40860,215,8.8,5.2
2019,6,16,16:00,UTC,1,1012.8,53,0,-1,22.4,12.5,50000,206,9.4,6.9
2019,6,16,17:00,UTC,1,1012.6,53,0,-1,22.4,12.5,50000,213,8.5,6.3
2019,6,16,18:00,UTC,0,1012.7,60,0,-1,20.7,12.6,50000,214,5.9,4.5
2019,6,16,19:00,UTC,0,1012.9,61,0,-1,19.9,12.2,50000,217,4.7,3.7
2019,6,16,20:00,UTC,0,1013,63,0,-1,18.7,11.6,45340,246,6.4,4.6
2019,6,16,21:00,UTC,0,1013.1,65,0,-1,17.8,11.2,50000,251,5.5,3.9
2019,6,16,22:00,UTC,0,1013.3,68,0,-1,17.2,11.3,50000,265,5.6,3.9
2019,6,16,23:00,UTC,0,1013.5,74,0,-1,16.3,11.6,50000,282,5,3.4
2019,6,17,00:00,UTC,0,1013.4,77,0,-1,15.1,11.2,50000,291,4.3,3.6
2019,6,17,01:00,UTC,0,1013.4,78,0,-1,14.1,10.3,50000,295,3.9,3.3
2019,6,17,02:00,UTC,0,1013.5,76,0,-1,14.1,10,50000,284,3.6,3.2
2019,6,17,03:00,UTC,0,1013.4,68,0,-1,16.6,10.7,49440,283,2.2,1.8
2019,6,17,04:00,UTC,0,1013.2,65,0,-1,18.2,11.4,35710,243,0.9,0.5
2019,6,17,05:00,UTC,0,1013,64,0,-1,20.1,13,27130,169,3.8,1.9
2019,6,17,06:00,UTC,3,1012.9,58,0,-1,21.1,12.4,28990,209,3.6,2
2019,6,17,07:00,UTC,7,1012.9,61,0,-1,21.3,13.5,36550,201,5.2,3.3
2019,6,17,08:00,UTC,7,1012.8,63,0,-1,21.9,14.6,35630,195,4.5,2.8
2019,6,17,09:00,UTC,0,1012.5,59,0,-1,22.7,14.2,29600,186,6.2,4.3
2019,6,17,10:00,UTC,1,1012.1,55,0,-1,24.1,14.6,35380,219,8.5,4.9
2019,6,17,11:00,UTC,5,1012.1,53,0,-1,24,14,35340,207,7.4,4
2019,6,17,12:00,UTC,5,1012.2,55,0,-1,23.7,14,29830,205,10.6,6
2019,6,17,13:00,UTC,1,1012.2,55,0,-1,23.6,14.1,33500,217,8.8,6.1
2019,6,17,14:00,UTC,7,1012.3,51,0,-1,24.4,13.6,36820,232,3.7,2
2019,6,17,15:00,UTC,3,1012.2,56,0,-1,24.5,15.1,43800,202,6.8,4.2
2019,6,17,16:00,UTC,0,1012.1,62,0,-1,21.6,13.9,36910,211,9.5,6.4
2019,6,17,17:00,UTC,1,1012,58,0,-1,20.7,12.2,48100,210,8.3,5.5
2019,6,17,18:00,UTC,5,1012,60,0,-1,19.1,11,47330,213,9.9,6.7
2019,6,17,19:00,UTC,0,1012.4,58,0,-1,18,9.6,50000,226,6.4,4.7
2019,6,17,20:00,UTC,0,1012.7,69,0,-1,16.2,10.5,48790,220,6,4.3
2019,6,17,21:00,UTC,0,1012.9,69,0,-1,15.5,9.9,50000,230,6.7,4.6
2019,6,17,22:00,UTC,0,1013.1,74,0,-1,14.9,10.2,49630,241,6.7,4.4
2019,6,17,23:00,UTC,0,1013.1,76,0,-1,14.2,10,50000,239,6.5,4.2
2019,6,18,00:00,UTC,0,1013.1,79,0,-1,14.1,10.5,35830,243,7.5,4.7
2019,6,18,01:00,UTC,0,1013,81,0,-1,13.8,10.7,46810,251,7.2,5.3
2019,6,18,02:00,UTC,0,1013.1,80,0,-1,14.2,10.7,44780,250,7.1,4.9
2019,6,18,03:00,UTC,0,1013.2,73,0,-1,15.5,10.8,49110,250,7.7,5.3
2019,6,18,04:00,UTC,0,1013.4,64,0,-1,17.4,10.6,29230,257,8.3,6
2019,6,18,05:00,UTC,0,1013.6,59,0,-1,19.2,10.9,33400,262,8.3,5.2
2019,6,18,06:00,UTC,0,1013.8,54,0,-1,20.7,11.1,34330,261,6.6,4.4
2019,6,18,07:00,UTC,0,1014.1,51,0,-1,23.3,12.5,33780,233,5.2,3.1
2019,6,18,08:00,UTC,0,1014.3,49,0,-1,23.4,12.1,31750,214,8.4,6
2019,6,18,09:00,UTC,0,1014.5,53,0,-1,23,12.9,39090,219,9,5.3
2019,6,18,10:00,UTC,0,1014.7,53,0,-1,22.7,12.6,25150,210,11.4,6.7
2019,6,18,11:00,UTC,0,1014.8,54,0,-1,22.3,12.7,26540,199,10.8,7.4
2019,6,18,12:00,UTC,0,1015,59,0,-1,21.8,13.4,22420,197,10.3,6.1
2019,6,18,13:00,UTC,0,1015,55,0,-1,22.4,12.8,28260,210,9.1,5.4
2019,6,18,14:00,UTC,0,1015,54,0,-1,22.1,12.5,29700,206,10.9,6.8
2019,6,18,15:00,UTC,0,1014.8,57,0,-1,21.6,12.6,35350,214,9.4,6.7
2019,6,18,16:00,UTC,0,1014.7,61,0,-1,20.5,12.8,41260,212,9.5,6.1
2019,6,18,17:00,UTC,0,1014.6,65,0,-1,19.4,12.7,38010,215,9.2,6.5
2019,6,18,18:00,UTC,0,1014.8,68,0,-1,18.7,12.7,42780,223,8,5.7
2019,6,18,19:00,UTC,0,1014.9,76,0,-1,17,12.6,38020,219,8.1,5.6
2019,6,18,20:00,UTC,0,1015.2,80,0,-1,16,12.6,29800,222,6.8,5.3
2019,6,18,21:00,UTC,0,1015.5,83,0,-1,15.4,12.6,29680,234,6.1,4
2019,6,18,22:00,UTC,0,1015.7,85,0,-1,15.2,12.6,27640,237,7.5,4.8
2019,6,18,23:00,UTC,0,1015.6,87,0,-1,14.5,12.3,26300,235,5.7,4
2019,6,19,00:00,UTC,0,1015.7,89,0,-1,14.1,12.3,27710,228,6.5,4.1
2019,6,19,01:00,UTC,0,1015.7,93,0,-1,13.5,12.4,19890,211,4.5,3
2019,6,19,02:00,UTC,1,1015.8,94,0,-1,13.4,12.5,16040,212,3.4,2.2
2019,6,19,03:00,UTC,0,1015.7,90,0,-1,14.5,12.8,22230,222,4.5,2.2
2019,6,19,04:00,UTC,3,1015.5,84,0,-1,15.9,13.2,27750,209,6.7,4.5
2019,6,19,05:00,UTC,0,1015.4,79,0,-1,17.5,13.7,24890,204,6.6,3.9
2019,6,19,06:00,UTC,0,1015.1,72,0,-1,18.8,13.8,31140,206,7.1,4.7
2019,6,19,07:00,UTC,0,1014.9,69,0,-1,19.6,13.7,44080,195,7.5,5.5
2019,6,19,08:00,UTC,0,1015.1,61,0,-1,20.7,13,35450,192,8.3,4.8
2019,6,19,09:00,UTC,1,1015.1,60,0,-1,20.3,12.2,36910,204,10.7,7.3
2019,6,19,10:00,UTC,0,1015.1,54,0,-1,22.1,12.4,31480,207,10.9,7.1
2019,6,19,11:00,UTC,0,1015,53,0,-1,22,12,39830,220,13.6,8.6
2019,6,19,12:00,UTC,0,1015,52,0,-1,22.2,12.1,31410,213,10.9,7.9
2019,6,19,13:00,UTC,0,1014.7,49,0,-1,22.9,11.5,36750,215,11.9,7.5
2019,6,19,14:00,UTC,0,1014.4,48,0,-1,23.5,11.8,34490,204,9.6,6.3
2019,6,19,15:00,UTC,0,1014,49,0,-1,23.3,11.8,46760,212,9.5,6.3
2019,6,19,16:00,UTC,0,1013.6,52,0,-1,22.1,11.8,41440,216,8.8,5.3
2019,6,19,17:00,UTC,0,1013.4,57,0,-1,20.8,12,40280,207,7.6,5.5
2019,6,19,18:00,UTC,0,1013.4,59,0,-1,20.3,12,44590,212,7.1,4.7
2019,6,19,19:00,UTC,1,1013.4,61,0,-1,19.4,11.7,50000,223,6.1,4.1
2019,6,19,20:00,UTC,0,1013.5,64,0,-1,18.5,11.6,50000,218,4.3,3.4
2019,6,19,21:00,UTC,0,1013.6,70,0,-1,17.5,12,47930,225,4,3.4
2019,6,19,22:00,UTC,0,1013.6,72,0,-1,17,11.8,49920,243,4.7,3.5
2019,6,19,23:00,UTC,0,1013.8,72,0,-1,16.6,11.6,50000,219,3.6,2.7
2019,6,20,00:00,UTC,3,1013.8,78,0,-1,16.3,12.4,46630,159,1.9,1.1
2019,6,20,01:00,UTC,0,1013.8,83,0,-1,14.9,12.1,48670,187,2.2,1.6
2019,6,20,02:00,UTC,7,1013.9,78,0,-1,16,12,47110,172,1.8,1.2
2019,6,20,03:00,UTC,7,1013.6,71,0,-1,17.2,12,44110,179,1.8,1.1
2019,6,20,04:00,UTC,1,1013.4,73,0,-1,17.7,12.7,43060,126,2.2,1.4
2019,6,20,05:00,UTC,0,1013.5,70,0,-1,18.8,13.2,34880,160,2.8,1.3
2019,6,20,06:00,UTC,0,1013.5,63,0,-1,20.9,13.5,27660,193,1.8,0.8
2019,6,20,07:00,UTC,0,1013.2,55,0,-1,22.2,12.7,29810,130,3.8,2.3
2019,6,20,08:00,UTC,0,1013,48,0,-1,23.9,12.3,37220,135,4.4,2.7
2019,6,20,09:00,UTC,0,1012.9,45,0,-1,24.3,11.7,26840,148,5.6,3.7
2019,6,20,10:00,UTC,0,1012.6,41,0,-1,24.8,10.9,39720,112,6.2,4.3
2019,6,20,11:00,UTC,0,1012.5,44,0,-1,24.4,11.3,33080,93,7.5,4.9
2019,6,20,12:00,UTC,1,1012.3,47,0,-1,24.4,12.3,40090,100,7.2,4.5
2019,6,20,13:00,UTC,7,1011.7,42,0,-1,23.6,10,40180,97,6.2,4.3
2019,6,20,14:00,UTC,1,1011.2,41,0,-1,23.7,9.7,35840,78,6.2,4.2
2019,6,20,15:00,UTC,1,1010.6,43,0,-1,23.3,10.1,37420,97,6.9,4.4
2019,6,20,16:00,UTC,1,1010.1,45,0,-1,22.7,10.2,50000,83,7.6,5.2
2019,6,20,17:00,UTC,1,1010,54,0,-1,21.3,11.7,47500,102,8,5.4
2019,6,20,18:00,UTC,1,1009.7,67,0,-1,20.5,14,45560,97,4.5,2.7
2019,6,20,19:00,UTC,0,1009.7,68,0,-1,20,13.9,50000,99,5.2,3.5
2019,6,20,20:00,UTC,1,1009.6,71,0,-1,19.6,14.3,49600,104,4,2.6
2019,6,20,21:00,UTC,5,1010,73,0,-1,19.5,14.5,47350,182,5.9,3.4
2019,6,20,22:00,UTC,0,1009.4,75,0,-1,18.9,14.4,45660,197,4.8,3.4
2019,6,20,23:00,UTC,0,1009.2,79,0,-1,18.4,14.7,39690,150,2.7,2
2019,6,21,00:00,UTC,0,1009.3,83,0,-1,17.7,14.8,40710,132,4,2.5
2019,6,21,01:00,UTC,0,1009.3,86,0,-1,17.6,15.3,40580,158,6.4,3.2
2019,6,21,02:00,UTC,0,1009.1,88,0,-1,17.8,15.8,33110,191,5.2,3.6
2019,6,21,03:00,UTC,0,1008.8,85,0,-1,18.6,16,33560,186,5.4,3.6
2019,6,21,04:00,UTC,1,1008.9,80,0,-1,19.5,16,37040,,,
2019,6,21,05:00,UTC,0,1008.9,79,0,-1,19.6,15.9,32800,183,5.3,3.1
2019,6,21,06:00,UTC,0,1008.6,73,0,-1,21.3,16.3,35160,181,6.2,3.5
2019,6,21,07:00,UTC,0,1008.8,74,0,-1,21.3,16.4,31890,186,8.1,5.7
2019,6,21,08:00,UTC,1,1008.8,70,0,-1,22.6,16.8,28400,191,8.7,5.3
2019,6,21,09:00,UTC,0,1008.9,67,0,-1,23.1,16.7,29050,195,7.9,6.2
2019,6,21,10:00,UTC,0,1009,64,0,-1,24.8,17.5,26750,198,9.6,6.3
2019,6,21,11:00,UTC,1,1009.2,63,0,-1,24.5,17.2,23190,210,10,5.6
2019,6,21,12:00,UTC,0,1009,60,0,-1,25.3,17.1,24080,220,8.3,5.7
2019,6,21,13:00,UTC,0,1008.9,57,0,-1,25.3,16.2,24350,199,9.4,5.6
2019,6,21,14:00,UTC,0,1009,56,0,-1,25,15.6,42370,199,9.9,5.6
2019,6,21,15:00,UTC,0,1008.9,57,0,-1,24.4,15.3,44420,207,9.7,5.3
2019,6,21,16:00,UTC,0,1009.1,58,0,-1,23.1,14.3,40470,209,11.4,6.8
2019,6,21,17:00,UTC,0,1009.4,68,0,-1,19.7,13.7,47150,204,10,6.8
2019,6,21,18:00,UTC,0,1009.5,72,0,-1,18.5,13.3,50000,210,8.7,6
2019,6,21,19:00,UTC,0,1009.9,77,0,-1,17.5,13.3,38960,208,7.7,4.8
2019,6,21,20:00,UTC,0,1010.2,85,0,-1,16.4,13.8,38130,219,6.7,4.7
2019,6,21,21:00,UTC,1,1010.7,80,0,-1,16.4,12.9,48080,229,5.5,3.9
2019,6,21,22:00,UTC,0,1010.9,83,0,-1,15.7,12.9,46000,234,7.7,5.2
2019,6,21,23:00,UTC,0,1011.3,86,0,-1,15.3,12.9,46970,223,5.8,4.3
2019,6,22,00:00,UTC,5,1011.1,88,0,-1,14.9,12.9,45740,230,6.1,4
2019,6,22,01:00,UTC,1,1010.9,89,0,-1,14.4,12.6,40770,237,6.1,3.5
2019,6,22,02:00,UTC,1,1011.2,87,0,-1,14.8,12.6,45220,218,5.9,4.3
2019,6,22,03:00,UTC,7,1011.3,88,0,-1,15.4,13.4,40760,211,6.9,4.1
2019,6,22,04:00,UTC,1,1011.4,82,0,-1,16.6,13.5,35430,223,6.1,4.1
2019,6,22,05:00,UTC,1,1011.6,74,0,-1,17.5,12.9,26900,254,9.4,6.2
2019,6,22,06:00,UTC,5,1011.9,63,0,-1,17.7,10.7,44500,285,6.4,3.6
2019,6,22,07:00,UTC,7,1012.3,84,0,-1,14.6,12,43520,240,4.7,3.2
2019,6,22,08:00,UTC,1,1012.8,70,0,-1,17.5,12,45140,214,9.3,6.4
2019,6,22,09:00,UTC,3,1013.2,64,0,-1,18.7,11.7,40970,208,12.3,7.4
2019,6,22,10:00,UTC,3,1013.5,63,0,-1,18.3,11.1,45530,200,11.5,8
2019,6,22,11:00,UTC,3,1014.1,53,0,-1,19.9,10.1,32280,213,12.6,8.2
2019,6,22,12:00,UTC,1,1014.7,60,0,-1,18.6,10.7,39910,202,12.3,8.3
2019,6,22,13:00,UTC,7,1015.8,59,0,-1,17.2,9.2,37540,265,8.5,5.4
2019,6,22,14:00,UTC,1,1015.9,54,0,-1,18.8,9.3,41580,242,14.3,8.4
2019,6,22,15:00,UTC,1,1016,47,0,-1,19.9,8.4,42920,243,13.6,9.2
2019,6,22,16:00,UTC,1,1016.6,46,0,-1,19.3,7.4,50000,265,12.7,7.6
2019,6,22,17:00,UTC,0,1017.2,45,0,-1,18.7,6.3,50000,271,11.8,6.1
2019,6,22,18:00,UTC,0,1017.8,49,0,-1,17.5,6.5,50000,273,9.7,5.3
2019,6,22,19:00,UTC,0,1018.2,50,0,-1,16.7,6.2,50000,265,7.8,4.8
2019,6,22,20:00,UTC,0,1018.7,56,0,-1,15.5,6.7,50000,241,7.2,4.7
2019,6,22,21:00,UTC,0,1019.4,61,0,-1,14.8,7.2,50000,222,7.3,4.7
2019,6,22,22:00,UTC,5,1019.7,78,0,-1,14.1,10.3,50000,221,6.2,4.2
2019,6,22,23:00,UTC,7,1019.9,79,0,-1,14,10.4,50000,232,6,4.3
2019,6,23,00:00,UTC,0,1020.3,82,0,-1,13.3,10.4,50000,244,6.6,4.7
2019,6,23,01:00,UTC,0,1020.6,83,0,-1,12.4,9.5,50000,241,4.6,3.4
2019,6,23,02:00,UTC,0,1021.1,80,0,-1,12.4,9,50000,271,4.5,3.4
2019,6,23,03:00,UTC,0,1021.4,73,0,-1,13.9,9.1,50000,275,5,3.3
2019,6,23,04:00,UTC,0,1022,63,0,-1,15.5,8.4,43390,281,4.1,2.3
2019,6,23,05:00,UTC,0,1022.2,54,0,-1,16.8,7.6,50000,291,4.6,2.8
2019,6,23,06:00,UTC,0,1022.4,46,0,-1,18.3,6.4,45020,293,4.5,2.5
2019,6,23,07:00,UTC,0,1022.2,40,0,-1,19.4,5.4,35300,304,5.8,2.9
2019,6,23,08:00,UTC,0,1022.3,33,0,-1,20.8,4.1,49800,249,6.2,4
2019,6,23,09:00,UTC,0,1022.7,50,0,-1,19.7,9,34170,193,7.1,5.1
2019,6,23,10:00,UTC,0,1022.7,46,0,-1,20.4,8.3,45600,199,7.5,4.4
2019,6,23,11:00,UTC,3,1022.7,41,0,-1,20.1,6.5,45060,210,8.2,5.5
2019,6,23,12:00,UTC,7,1022.4,36,0,-1,22.1,6.3,36460,203,9.7,6.2
2019,6,23,13:00,UTC,3,1022.3,37,0,-1,21.8,6.5,36650,184,7.9,5.2
2019,6,23,14:00,UTC,5,1022.3,48,0,-1,20.7,9.3,38760,191,7.7,5.7
2019,6,23,15:00,UTC,5,1022,54,0,-1,20.1,10.4,48500,189,7.8,4.7
2019,6,23,16:00,UTC,7,1021.9,57,0,-1,18.8,10,50000,218,6.8,4.5
2019,6,23,17:00,UTC,5,1021.7,55,0,-1,18.6,9.3,48700,211,6.4,4.7
2019,6,23,18:00,UTC,7,1021.7,61,0,-1,17.7,10,50000,223,5.2,3.3
2019,6,23,19:00,UTC,5,1021.7,66,0,-1,17.2,10.9,50000,218,6,4.2
2019,6,23,20:00,UTC,7,1021.9,72,0,-1,16.7,11.7,50000,229,4.8,3.6
2019,6,23,21:00,UTC,7,1022.3,68,0,-1,16.6,10.8,50000,241,6.2,4.3
2019,6,23,22:00,UTC,7,1022.6,68,0,-1,16.3,10.5,50000,252,6.6,4.1
2019,6,23,23:00,UTC,7,1023.1,68,0,-1,16,10.1,50000,268,6.7,4.9
2019,6,24,00:00,UTC,7,1023.5,71,0,-1,15.4,10.2,50000,279,5.8,3.8
2019,6,24,01:00,UTC,1,1024,78,0,-1,14.1,10.3,50000,294,5.3,3.6
2019,6,24,02:00,UTC,0,1024.5,80,0,-1,13.8,10.4,50000,294,4,2.9
2019,6,24,03:00,UTC,0,1024.8,70,0,-1,15.4,9.9,50000,315,4.9,2.2
2019,6,24,04:00,UTC,0,1025.2,59,0,-1,16.8,8.8,45100,332,7.7,3.5
2019,6,24,05:00,UTC,0,1025.6,53,0,-1,17.6,8,41330,327,6.2,3.8
2019,6,24,06:00,UTC,0,1026,47,0,-1,18.9,7.2,37110,307,5,2.8
2019,6,24,07:00,UTC,0,1026.1,40,0,-1,19.9,6,37520,316,5.3,2.9
2019,6,24,08:00,UTC,0,1026.4,35,0,-1,21.3,5.1,41280,311,6.8,4.2
2019,6,24,09:00,UTC,1,1026.5,33,0,-1,21.9,4.7,30280,269,9.3,5.5
2019,6,24,10:00,UTC,1,1026.8,34,0,-1,21.3,4.8,45180,298,8.9,4
2019,6,24,11:00,UTC,3,1026.8,32,0,-1,22.3,4.7,44460,291,8.6,4.8
2019,6,24,12:00,UTC,3,1026.9,27,0,-1,23.8,3.4,31860,278,11.6,6.6
2019,6,24,13:00,UTC,3,1026.9,30,0,-1,24.1,5.5,44830,294,10.1,5.1
2019,6,24,14:00,UTC,1,1026.7,29,0,-1,23.8,4.9,35030,273,11.4,7.2
2019,6,24,15:00,UTC,0,1026.9,26,0,-1,23.2,2.5,44320,256,12.5,6.3
2019,6,24,16:00,UTC,0,1027.1,25,0,-1,22.6,1.3,47350,311,7.9,4.6
2019,6,24,17:00,UTC,0,1027.2,28,0,-1,21.4,2.1,50000,310,8,4.7
2019,6,24,18:00,UTC,0,1027.6,30,0,-1,20.2,1.8,50000,304,7.2,4.6
2019,6,24,19:00,UTC,0,1028,36,0,-1,18.6,3.1,50000,278,6.1,3.8
2019,6,24,20:00,UTC,0,1028.7,44,0,-1,16.7,4.3,50000,294,5.1,3.5
2019,6,24,21:00,UTC,0,1029.1,51,0,-1,15.3,5.1,50000,293,5.3,3.5
2019,6,24,22:00,UTC,0,1029.4,55,0,-1,14.5,5.7,50000,306,5.4,3.4
2019,6,24,23:00,UTC,0,1029.7,62,0,-1,13.3,6.1,50000,301,4.6,3.1
2019,6,25,00:00,UTC,0,1029.7,68,0,-1,12.2,6.5,50000,304,4.7,3
2019,6,25,01:00,UTC,0,1029.7,75,0,-1,10.9,6.6,50000,317,3.5,2.4
2019,6,25,02:00,UTC,0,1029.7,78,0,-1,10.6,7,50000,312,3.7,2.5
2019,6,25,03:00,UTC,3,1029.9,68,0,-1,13.4,7.6,46770,309,4.1,2.5
2019,6,25,04:00,UTC,3,1030.1,69,0,-1,13.9,8.2,44200,321,2.9,1.6
2019,6,25,05:00,UTC,1,1030,62,0,-1,15.6,8.2,47480,345,2.1,1.1
2019,6,25,06:00,UTC,5,1030.2,58,0,-1,16.5,8.1,42440,282,1.8,1.2
2019,6,25,07:00,UTC,1,1029.8,55,0,-1,17.9,8.6,48160,244,2.6,1.4
2019,6,25,08:00,UTC,0,1029.4,42,0,-1,20.2,6.8,41380,275,4.1,2
2019,6,25,09:00,UTC,3,1029.6,56,0,-1,18.4,9.4,40470,206,6.8,5.5
2019,6,25,10:00,UTC,5,1029.2,47,0,-1,20.3,8.5,40770,223,4.3,2.5
2019,6,25,11:00,UTC,1,1028.7,44,0,-1,21.8,9.2,34290,199,5.3,3.2
2019,6,25,12:00,UTC,1,1028.4,47,0,-1,20.8,9,34650,201,9.4,5.9
2019,6,25,13:00,UTC,0,1027.9,39,0,-1,22.4,7.8,35150,194,8.1,6.1
2019,6,25,14:00,UTC,0,1027.2,39,0,-1,21.8,7.2,30020,208,9.1,5.7
2019,6,25,15:00,UTC,3,1026.7,42,0,-1,21.1,7.7,39390,211,11.5,7.8
2019,6,25,16:00,UTC,7,1026.5,44,0,-1,19.7,7,35700,223,6.1,4.3
2019,6,25,17:00,UTC,3,1026,47,0,-1,19.1,7.6,50000,215,6.2,4.2
2019,6,25,18:00,UTC,3,1025.7,49,0,-1,19,8.1,50000,238,5.3,3.4
2019,6,25,19:00,UTC,7,1025.6,49,0,-1,18.8,7.9,50000,299,10.2,5.8
2019,6,25,20:00,UTC,7,1025.9,76,0.3,-1,15.6,11.3,28590,306,5.5,3.5
2019,6,25,21:00,UTC,7,1026,85,0,-1,14.3,11.8,26860,298,5.9,4
2019,6,25,22:00,UTC,8,1025.7,88,1.2,-1,13.5,11.5,37570,312,3.9,2.3
2019,6,25,23:00,UTC,8,1025.2,89,0,-1,13.4,11.7,35010,332,4.1,2.6
2019,6,26,00:00,UTC,7,1024.8,90,0,-1,13,11.3,50000,13,2.8,1.5
2019,6,26,01:00,UTC,7,1024.3,89,0,-1,13,11.2,50000,338,2.7,1.5
2019,6,26,02:00,UTC,7,1024.1,89,0,-1,13,11.1,50000,340,2.1,1.5
2019,6,26,03:00,UTC,5,1023.5,83,0,-1,13.4,10.6,50000,353,4,2.5
2019,6,26,04:00,UTC,5,1023,81,0,-1,13.8,10.6,50000,15,2.2,1.3
2019,6,26,05:00,UTC,5,1022.6,78,0,-1,14.5,10.7,49080,69,1.5,0.9
2019,6,26,06:00,UTC,7,1022.2,73,0,-1,14.8,9.9,50000,83,1.7,0.7
2019,6,26,07:00,UTC,7,1021.9,77,0,-1,14.9,11,41350,148,2.9,1.6
2019,6,26,08:00,UTC,7,1021.2,68,0,-1,16,10.1,36130,117,3.1,1.9
2019,6,26,09:00,UTC,7,1020.8,59,0,-1,17.1,8.9,44750,109,4.4,3.3
2019,6,26,10:00,UTC,7,1020.4,58,0,-1,17.4,9.2,46520,106,4.9,3.2
2019,6,26,11:00,UTC,1,1019.6,60,0,-1,19.4,11.3,40920,131,6.6,4
2019,6,26,12:00,UTC,3,1018.9,62,0,-1,18.2,10.7,33650,132,6.1,4.8
2019,6,26,13:00,UTC,7,1018.5,61,0,-1,18.8,11.1,41110,140,4.8,3.1
2019,6,26,14:00,UTC,5,1017.4,56,0,-1,17.6,8.8,50000,148,5.9,3.8
2019,6,26,15:00,UTC,7,1016.6,63,0,-1,17,10,50000,142,5,3.5
2019,6,26,16:00,UTC,7,1015.9,74,0,-1,15.9,11.2,33330,144,4.5,2.6
2019,6,26,17:00,UTC,7,1015.3,79,0,-1,15.4,11.8,47290,126,3,1.9
2019,6,26,18:00,UTC,7,1014.5,88,0.2,-1,14.8,12.8,28410,129,2.7,1.6
2019,6,26,19:00,UTC,7,1013.8,91,0.6,-1,14.6,13.1,31750,117,2.9,2.3
2019,6,26,20:00,UTC,8,1013.3,92,0.5,-1,14.2,12.9,18750,135,3.2,2.4
2019,6,26,21:00,UTC,8,1012.5,94,0.1,-1,14.1,13.1,13870,88,2.1,1.5
2019,6,26,22:00,UTC,8,1011.7,94,0,-1,13.9,12.9,28240,92,2.8,1.9
2019,6,26,23:00,UTC,8,1010.8,95,0,-1,13.9,13,22900,114,3.2,2.2
2019,6,27,00:00,UTC,8,1010.1,95,0,-1,13.7,12.9,7170,113,2.7,2
2019,6,27,01:00,UTC,8,1009.8,96,0.3,-1,13.5,12.9,10060,166,2.1,1.3
2019,6,27,02:00,UTC,8,1009.1,97,0,-1,13.6,13,3990,9,2.1,1.4
2019,6,27,03:00,UTC,8,1008.4,98,0,-1,13.6,13.2,4390,327,1.9,1.1
2019,6,27,04:00,UTC,8,1008,96,0,-1,13.6,13.1,10900,337,3.3,2.3
2019,6,27,05:00,UTC,8,1007.8,97,0.6,-1,13.7,13.2,4170,332,3.1,1.7
2019,6,27,06:00,UTC,7,1007.7,96,0.3,-1,14,13.4,5960,346,4.4,2.8
2019,6,27,07:00,UTC,7,1007.6,96,0,-1,14,13.3,4510,350,4.1,2.6
2019,6,27,08:00,UTC,8,1007.7,93,0,-1,14.8,13.6,12510,324,4.9,2.6
2019,6,27,09:00,UTC,8,1008,92,0,-1,15,13.8,33020,320,4.7,2.5
2019,6,27,10:00,UTC,7,1008.2,95,1,-1,14.8,13.9,9990,324,6.7,3.5
2019,6,27,11:00,UTC,7,1008.1,83,0,-1,16.9,14,40700,322,6.9,2.8
2019,6,27,12:00,UTC,7,1008.2,65,0,-1,18.5,11.9,42620,334,7.8,3.9
2019,6,27,13:00,UTC,5,1008.1,64,0,-1,18.7,11.6,50000,312,10.6,6.5
2019,6,27,14:00,UTC,1,1008.4,55,0,-1,19.5,10.3,40890,320,12.6,6.3
2019,6,27,15:00,UTC,1,1008.8,48,0,-1,19.8,8.3,47290,317,11.8,6.2
2019,6,27,16:00,UTC,1,1009,48,0,-1,18.9,7.6,50000,327,10,5.2
2019,6,27,17:00,UTC,3,1009.4,47,0,-1,18.7,7,48060,335,11.7,6.2
2019,6,27,18:00,UTC,3,1010.1,55,0,-1,16.7,7.6,50000,324,11.2,6.3
2019,6,27,19:00,UTC,1,1010.6,57,0,-1,15.9,7.5,50000,317,9.9,4.6
2019,6,27,20:00,UTC,0,1011.2,58,0,-1,15,6.7,50000,324,8.9,5.2
2019,6,27,21:00,UTC,1,1011.7,64,0,-1,13.7,6.9,50000,307,6.6,3.7
2019,6,27,22:00,UTC,0,1012,66,0,-1,12.9,6.7,50000,298,6.9,4.3
2019,6,27,23:00,UTC,0,1012.2,70,0,-1,12,6.8,50000,302,6.7,4.3
2019,6,28,00:00,UTC,0,1012.5,73,0,-1,11.4,6.7,50000,300,7.1,4.7
2019,6,28,01:00,UTC,0,1012.7,74,0,-1,10.7,6.4,50000,298,7.5,4.4
2019,6,28,02:00,UTC,0,1013,72,0,-1,10.8,6.1,50000,301,7.2,4.2
2019,6,28,03:00,UTC,0,1013.2,65,0,-1,12.7,6.3,50000,316,7.2,4.4
2019,6,28,04:00,UTC,0,1013.2,56,0,-1,14.5,5.9,44360,324,7,3.7
2019,6,28,05:00,UTC,0,1013.3,49,0,-1,15.9,5.3,41870,327,8.4,4.1
2019,6,28,06:00,UTC,0,1013.2,42,0,-1,17.5,4.6,43690,315,10,5.2
2019,6,28,07:00,UTC,0,1013.3,35,0,-1,18.4,2.6,35020,306,9.2,5.5
2019,6,28,08:00,UTC,0,1013.4,33,0,-1,19.6,3.1,38910,310,8.1,3.6
2019,6,28,09:00,UTC,0,1013.3,35,0,-1,19.3,3.4,36290,315,9.4,5.3
2019,6,28,10:00,UTC,0,1013.3,30,0,-1,20,1.6,38970,321,9.7,5.7
2019,6,28,11:00,UTC,0,1013.3,26,0,-1,20.6,0.4,37860,319,11.2,5.8
2019,6,28,12:00,UTC,0,1013.2,26,0,-1,20.5,0.3,32930,335,11.4,5.3
2019,6,28,13:00,UTC,0,1012.7,27,0,-1,22.2,2.1,48180,300,7.2,3.8
2019,6,28,14:00,UTC,3,1012.5,25,0,-1,22.1,1.3,40430,300,8.5,5.3
2019,6,28,15:00,UTC,1,1012.6,30,0,-1,20.6,2.5,50000,286,10.1,5.3
2019,6,28,16:00,UTC,1,1012.4,31,0,-1,20.4,2.8,50000,307,9.3,5.9
2019,6,28,17:00,UTC,0,1012.5,33,0,-1,19.6,2.7,50000,309,9.5,5.5
2019,6,28,18:00,UTC,0,1012.7,40,0,-1,17.8,4,50000,296,9.8,5.3
2019,6,28,19:00,UTC,0,1012.9,44,0,-1,16.1,3.9,50000,286,7.8,4.8
2019,6,28,20:00,UTC,0,1013.2,50,0,-1,14.4,4.2,50000,291,10.1,5.6
2019,6,28,21:00,UTC,0,1013.1,57,0,-1,13.1,4.9,50000,293,8.6,5.4
2019,6,28,22:00,UTC,0,1013.1,65,0,-1,12.1,5.6,50000,299,8.5,5
2019,6,28,23:00,UTC,0,1013.3,69,0,-1,11.4,5.8,50000,302,8.1,5.1
2019,6,29,00:00,UTC,0,1013.2,72,0,-1,10.9,5.9,50000,305,6.9,4.6
2019,6,29,01:00,UTC,3,1013.1,75,0,-1,10,5.9,50000,303,5.8,3.4
2019,6,29,02:00,UTC,1,1012.9,76,0,-1,10.1,6,50000,294,6.2,4
2019,6,29,03:00,UTC,5,1012.5,73,0,-1,11.2,6.6,50000,297,4.5,2.8
2019,6,29,04:00,UTC,7,1012.3,72,0,-1,11.9,6.9,49230,274,6.6,4.5
2019,6,29,05:00,UTC,7,1011.9,68,0,-1,12.9,7,49760,267,6,3.6
2019,6,29,06:00,UTC,7,1011.2,62,0,-1,14.8,7.5,46800,252,5.9,3.6
2019,6,29,07:00,UTC,7,1011.1,61,0,-1,14.8,7.3,50000,254,5.2,3.4
2019,6,29,08:00,UTC,7,1010.3,54,0,-1,17.2,7.7,41240,227,6.8,4.2
2019,6,29,09:00,UTC,3,1009.6,56,0,-1,18,9.2,50000,186,7.9,5.9
2019,6,29,10:00,UTC,3,1008.9,59,0,-1,18.4,10.2,43080,205,7.1,4.4
2019,6,29,11:00,UTC,7,1008.2,64,0,-1,17.9,11.1,38430,203,8.6,6.3
2019,6,29,12:00,UTC,5,1007.5,56,0,-1,20.3,11.3,40400,204,9.4,6.5
2019,6,29,13:00,UTC,3,1007.1,68,0,-1,18.9,12.9,39020,203,10.6,7.6
2019,6,29,14:00,UTC,1,1006.8,67,0,-1,19.6,13.3,43790,203,8.7,5.6
2019,6,29,15:00,UTC,3,1006,66,0,-1,19.1,12.6,45070,209,8.7,6.6
2019,6,29,16:00,UTC,1,1005.5,41,0,-1,21.5,7.6,48730,280,10.9,7.1
2019,6,29,17:00,UTC,0,1005.6,47,0,-1,20.1,8.4,50000,278,13.8,8.4
2019,6,29,18:00,UTC,0,1005.7,46,0,-1,18.7,6.9,50000,278,12.4,7
2019,6,29,19:00,UTC,0,1005.8,51,0,-1,17.6,7.5,50000,291,11.4,6.5
2019,6,29,20:00,UTC,0,1006.2,57,0,-1,16.4,8,50000,275,7.1,4.4
2019,6,29,21:00,UTC,1,1006,64,0,-1,15.2,8.3,50000,267,5.6,3.7
2019,6,29,22:00,UTC,0,1005.8,69,0,-1,14.3,8.7,50000,244,5.9,4.1
2019,6,29,23:00,UTC,0,1005.9,71,0,-1,14.4,9.2,50000,268,6.4,4.3
2019,6,30,00:00,UTC,7,1005.9,75,0,-1,13.8,9.3,50000,271,4.8,3.3
2019,6,30,01:00,UTC,7,1006.3,75,0,-1,14,9.6,50000,251,6.8,4.3
2019,6,30,02:00,UTC,7,1006.5,73,0,-1,14.3,9.6,50000,259,7.2,4.7
2019,6,30,03:00,UTC,7,1006.6,72,0,-1,14.6,9.6,50000,261,6.8,4.5
2019,6,30,04:00,UTC,7,1006.8,71,0,-1,14.9,9.7,50000,269,5.8,3.4
2019,6,30,05:00,UTC,7,1007,71,0,-1,15.1,10,50000,264,6.5,3.9
2019,6,30,06:00,UTC,7,1007,66,0,-1,16.4,10,45740,281,5.9,3.5
2019,6,30,07:00,UTC,7,1007.1,62,0,-1,17,9.6,50000,258,6.8,4.3
2019,6,30,08:00,UTC,7,1007.2,52,0,-1,18.9,8.9,42890,257,8,4.9
2019,6,30,09:00,UTC,5,1007.3,46,0,-1,20.4,8.4,34460,258,8.9,5.7
2019,6,30,10:00,UTC,0,1007.1,41,0,-1,22.1,8.2,33010,249,9.1,5
2019,6,30,11:00,UTC,0,1006.5,38,0,-1,23.4,8.3,39490,268,10.3,5.5
2019,6,30,12:00,UTC,5,1006.4,58,0,-1,19.8,11.4,48070,203,6.7,4.8
2019,6,30,13:00,UTC,1,1006,53,0,-1,21.3,11.3,43540,196,7.5,5.3
2019,6,30,14:00,UTC,1,1005.7,47,0,-1,22.4,10.7,50000,200,7.6,4.7
2019,6,30,15:00,UTC,3,1005.3,50,0,-1,21.3,10.3,50000,200,7.3,4.6
2019,6,30,16:00,UTC,1,1004.2,46,0,-1,22.1,10,50000,180,6.6,4.3
2019,6,30,17:00,UTC,0,1003.3,52,0,-1,19.9,9.7,50000,142,4.3,2.5
2019,6,30,18:00,UTC,5,1002.5,53,0,-1,19.2,9.5,50000,141,5.3,3.9
2019,6,30,19:00,UTC,3,1001.4,62,0,-1,18,10.6,50000,115,7.3,4.8
2019,6,30,20:00,UTC,7,1000.6,59,0,-1,18.3,10.1,50000,122,9,4.8
2019,6,30,21:00,UTC,1,999.2,63,0,-1,18,10.8,50000,119,8.4,6.1
2019,6,30,22:00,UTC,3,998.4,77,0,-1,17.4,13.3,50000,180,8.4,5.3
2019,6,30,23:00,UTC,1,997.3,73,0,-1,17.4,12.6,50000,193,9.8,5.7
2019,7,1,00:00,UTC,5,996.1,79,0,-1,16.8,13.2,50000,169,6.7,4.5
2019,7,1,01:00,UTC,1,995.1,81,0,-1,16.2,12.9,46590,176,7.2,3.7
2019,7,1,02:00,UTC,1,994.2,82,0,-1,16.2,13.2,45250,153,5.1,2.8
2019,7,1,03:00,UTC,1,993.5,83,0,-1,16.6,13.6,45840,165,5.1,3.2
2019,7,1,04:00,UTC,3,992.7,83,0,-1,17.3,14.5,27150,203,6.7,4.3
2019,7,1,05:00,UTC,0,992.6,77,0,-1,19.1,14.9,32020,245,6.3,4.6
2019,7,1,06:00,UTC,0,992.8,67,0,-1,21.5,15.1,28770,257,8.4,4.9
2019,7,1,07:00,UTC,0,992.9,57,0,-1,23.7,14.7,33060,239,7.7,5.3
2019,7,1,08:00,UTC,0,993.2,52,0,-1,25,14.6,27830,210,7.9,5.6
2019,7,1,09:00,UTC,3,993.6,60,0,-1,22.9,14.6,28380,203,12.2,7.7
2019,7,1,10:00,UTC,0,994.1,60,0,-1,22.7,14.5,19610,204,11.5,7.4
2019,7,1,11:00,UTC,0,994.4,59,0,-1,22.3,13.9,20650,204,13,8.4
2019,7,1,12:00,UTC,3,995.1,64,0,-1,20.1,13.2,31300,206,13.5,9
2019,7,1,13:00,UTC,0,995.4,57,0,-1,21.8,12.8,32090,203,13.9,9.1
2019,7,1,14:00,UTC,0,995.9,60,0,-1,20.9,12.8,23730,204,12.1,7.7
2019,7,1,15:00,UTC,0,996.2,62,0,-1,20.5,13,30270,217,13.1,8.9
2019,7,1,16:00,UTC,1,996.5,65,0,-1,19.8,12.9,36200,212,11.8,8.3
2019,7,1,17:00,UTC,0,996.8,70,0,-1,17.9,12.3,38400,219,11,7.7
2019,7,1,18:00,UTC,0,996.9,71,0,-1,17.5,12.2,39380,211,11.3,5.9
2019,7,1,19:00,UTC,0,997.3,80,0,-1,16.1,12.6,34710,217,8.3,5.6
2019,7,1,20:00,UTC,0,997.2,85,0,-1,15.2,12.7,33220,215,8,5.7
2019,7,1,21:00,UTC,5,997,86,0,-1,14.8,12.6,33650,207,6.8,4.6
2019,7,1,22:00,UTC,3,996.9,89,0,-1,14.4,12.6,26810,215,6,3.5
2019,7,1,23:00,UTC,5,997,89,0,-1,14.7,12.9,29390,242,6.8,4.6
2019,7,2,00:00,UTC,1,997.3,91,0,-1,14.1,12.6,29000,228,5.7,3.4
2019,7,2,01:00,UTC,1,997.1,90,0,-1,13.8,12.2,34640,235,4.8,3.1
2019,7,2,02:00,UTC,7,997.1,84,0,-1,14.8,12,45290,246,6.4,4.5
2019,7,2,03:00,UTC,5,997.2,82,0,-1,15,12,50000,241,5.9,4.2
2019,7,2,04:00,UTC,7,997.4,80,0,-1,15.4,12,32680,244,5.9,4.3
2019,7,2,05:00,UTC,7,997.7,81,0,-1,15.7,12.3,49040,218,6.3,4.6
2019,7,2,06:00,UTC,7,997.8,80,0,-1,16.4,13,42800,219,5.2,3.6
2019,7,2,07:00,UTC,7,998.1,88,0,-1,16.5,14.4,41930,210,3.3,2.3
2019,7,2,08:00,UTC,5,998,65,0,-1,19.7,12.9,33520,202,6.2,4.6
2019,7,2,09:00,UTC,7,998,91,2.3,-1,15.7,14.2,9330,195,6.8,3.8
2019,7,2,10:00,UTC,7,998.5,95,0,-1,13,12.2,27480,196,3.3,2.4
2019,7,2,11:00,UTC,7,998.6,95,2.4,-1,14.9,14.2,19440,224,7.1,5.2
2019,7,2,12:00,UTC,7,998.3,82,0,-1,15.7,12.6,46730,265,7.7,5.2
2019,7,2,13:00,UTC,1,998.3,75,0,-1,19.3,14.7,44720,233,7.3,4.7
2019,7,2,14:00,UTC,7,998.4,74,0,-1,18.2,13.4,50000,255,5.9,3.6
2019,7,2,15:00,UTC,5,998.3,67,0,-1,18.1,11.9,50000,260,7.2,4.8
2019,7,2,16:00,UTC,1,998.6,70,0,-1,17.7,12.2,50000,303,7.7,4.7
2019,7,2,17:00,UTC,7,998.8,84,0,-1,16.4,13.7,39410,292,8.3,5.4
2019,7,2,18:00,UTC,7,999.3,96,4.3,-1,13.9,13.2,5110,292,6.2,3.8
2019,7,2,19:00,UTC,7,999.4,95,0,-1,14.1,13.3,45570,310,7,4.4
2019,7,2,20:00,UTC,7,999.5,95,0,-1,13.5,12.8,42260,297,8.7,4.8
2019,7,2,21:00,UTC,7,999.9,93,0,-1,13.1,11.9,50000,308,7.9,4.7
2019,7,2,22:00,UTC,8,1000.1,91,0,-1,12.5,11,50000,306,8.5,5.2
2019,7,2,23:00,UTC,7,1000.3,89,0,-1,12.3,10.5,50000,309,8.6,5.3
2019,7,3,00:00,UTC,7,1000.4,84,0,-1,12.5,9.8,45230,307,9.1,4.8
2019,7,3,01:00,UTC,7,1000.6,87,0,-1,12,10,50000,301,7.6,4.3
2019,7,3,02:00,UTC,8,1000.8,81,0,-1,12.1,8.8,50000,303,8.5,5.5
2019,7,3,03:00,UTC,8,1001,78,0,-1,11.7,8,50000,303,8.4,4.1
2019,7,3,04:00,UTC,7,1001.1,74,0,-1,11.8,7.4,50000,297,7.6,4.7
2019,7,3,05:00,UTC,7,1001.2,71,0,-1,12.2,7.2,50000,302,8.4,5.1
2019,7,3,06:00,UTC,3,1001.5,68,0,-1,12.5,6.7,42810,299,8.2,5.5
2019,7,3,07:00,UTC,1,1001.7,57,0,-1,14.4,6,46440,311,8.6,5
2019,7,3,08:00,UTC,1,1002.1,50,0,-1,16.3,5.8,41930,305,9.7,5.2
2019,7,3,09:00,UTC,1,1002.3,42,0,-1,17.8,4.8,29910,308,13.7,7.8
2019,7,3,10:00,UTC,1,1002.6,36,0,-1,18.7,3.2,41250,312,12.8,6.1
2019,7,3,11:00,UTC,5,1002.8,39,0,-1,18.2,3.9,43710,303,15.7,8.5
2019,7,3,12:00,UTC,5,1003,32,0,-1,20.1,2.9,46090,305,10.7,5.2
2019,7,3,13:00,UTC,5,1003.5,34,0,-1,19,2.6,50000,321,9.7,5.2
2019,7,3,14:00,UTC,1,1003.9,32,0,-1,19.4,2.3,50000,297,10.7,6.3
2019,7,3,15:00,UTC,5,1004.3,36,0,-1,18.4,2.8,50000,278,10.7,5.6
2019,7,3,16:00,UTC,3,1005,35,0,-1,17.3,1.7,50000,279,14.5,7.6
2019,7,3,17:00,UTC,5,1005.5,39,0,-1,16.3,2.2,50000,286,12.6,6.8
2019,7,3,18:00,UTC,7,1005.8,41,0,-1,15.2,2.1,50000,278,12.7,6.8
2019,7,3,19:00,UTC,5,1006.2,40,0,-1,14.3,0.8,50000,278,11.9,6
2019,7,3,20:00,UTC,7,1006.3,45,0,-1,13.6,1.9,50000,277,9.6,5.3
2019,7,3,21:00,UTC,7,1006.4,47,0,-1,12.5,1.4,50000,278,10,6.2
2019,7,3,22:00,UTC,0,1006.8,51,0,-1,11.2,1.3,50000,283,7.7,4.8
2019,7,3,23:00,UTC,7,1006.8,55,0,-1,10.7,2,50000,288,8.6,4.5
2019,7,4,00:00,UTC,7,1007,61,0,-1,10.4,3.2,50000,285,10.7,5.6
2019,7,4,01:00,UTC,7,1007.2,66,0,-1,9.7,3.8,50000,283,8.1,4.3
2019,7,4,02:00,UTC,7,1007.3,74,0,-1,9.4,4.9,50000,280,5.7,4
2019,7,4,03:00,UTC,3,1007.2,75,0,-1,10.1,5.9,50000,271,7.7,4.4
2019,7,4,04:00,UTC,0,1007.1,67,0,-1,12,5.9,50000,281,8.3,4
2019,7,4,05:00,UTC,0,1007,58,0,-1,13.7,5.7,44020,266,7.2,4
2019,7,4,06:00,UTC,0,1007,50,0,-1,15.2,4.8,37870,268,8.1,5.1
2019,7,4,07:00,UTC,1,1006.7,45,0,-1,16.6,4.5,40820,258,10.1,6
2019,7,4,08:00,UTC,1,1006.4,37,0,-1,17.4,2.5,48980,262,9.2,4
2019,7,4,09:00,UTC,1,1006.2,38,0,-1,18.4,3.7,36240,254,8.3,4.8
2019,7,4,10:00,UTC,3,1006.3,53,0,-1,16.5,6.8,42440,209,10.4,6.8
2019,7,4,11:00,UTC,5,1006.2,43,0,-1,18.1,5.3,36440,206,10.9,7.2
2019,7,4,12:00,UTC,3,1006.1,40,0,-1,18.2,4.5,38590,211,12.1,8.1
2019,7,4,13:00,UTC,5,1006.3,47,0,-1,16.8,5.4,49420,249,8.5,3.6
2019,7,4,14:00,UTC,5,1006.1,48,0,-1,16.6,5.4,50000,226,5.1,3.1
2019,7,4,15:00,UTC,7,1005.7,61,0,-1,15.3,7.8,49510,218,9.2,6.4
2019,7,4,16:00,UTC,7,1005.2,61,0,-1,14.4,7,50000,216,8,4.6
2019,7,4,17:00,UTC,3,1004.9,65,0,-1,14.2,7.7,49810,206,9.2,5.6
2019,7,4,18:00,UTC,7,1004.3,71,0,-1,12.9,7.7,50000,212,9.6,5.8
2019,7,4,19:00,UTC,3,1003.7,68,0,-1,12,6.3,50000,212,6.6,4.3
2019,7,4,20:00,UTC,7,1002.7,72,0,-1,12.4,7.5,50000,167,6.3,3.2
2019,7,4,21:00,UTC,7,1001.8,72,0,-1,12.7,7.8,50000,145,7.1,4.6
2019,7,4,22:00,UTC,1,1000.9,72,0,-1,12.4,7.5,50000,136,8.1,4.9
2019,7,4,23:00,UTC,7,999.8,78,0,-1,12.5,8.8,50000,138,10.2,6
2019,7,5,00:00,UTC,8,998.6,82,0,-1,12.3,9.3,29300,123,9.5,5.8
2019,7,5,01:00,UTC,5,996.9,94,2.6,-1,11,10.1,9440,105,10.4,6.7
2019,7,5,02:00,UTC,7,995.9,97,9.5,-1,10.8,10.4,3290,114,9.8,6.9
2019,7,5,03:00,UTC,7,995.1,96,0.4,-1,11.1,10.5,13650,150,10.6,6.1
2019,7,5,04:00,UTC,7,994.7,93,0,-1,11.5,10.3,41730,147,10.6,6.1
2019,7,5,05:00,UTC,7,994.4,94,0,-1,11.5,10.6,24060,146,7.3,5.3
2019,7,5,06:00,UTC,1,994.1,89,0,-1,12.3,10.5,48750,141,7.8,5.2
2019,7,5,07:00,UTC,1,993.8,77,0,-1,14.5,10.6,36980,148,7,4.3
2019,7,5,08:00,UTC,1,993.9,72,0,-1,14.8,9.7,37300,128,7.9,5.2
2019,7,5,09:00,UTC,5,993.9,68,0,-1,14.2,8.3,50000,131,7.7,5.3
2019,7,5,10:00,UTC,7,993.9,74,0,-1,14.1,9.5,46070,88,7.4,5.7
2019,7,5,11:00,UTC,3,993.9,70,0,-1,14.7,9.2,49950,94,8.5,5.1
2019,7,5,12:00,UTC,1,993.7,49,0,-1,15.7,5,50000,88,9,5.1
2019,7,5,13:00,UTC,1,993.8,48,0,-1,15.8,4.8,50000,87,9,6.6
2019,7,5,14:00,UTC,1,993.9,52,0,-1,16.2,6.4,48740,74,9.6,4.5
2019,7,5,15:00,UTC,5,994.3,54,0,-1,14.4,5.3,50000,67,9.9,5.5
2019,7,5,16:00,UTC,7,994.4,65,0,-1,13.8,7.4,50000,54,7.7,4.8
2019,7,5,17:00,UTC,7,994.5,72,0,-1,13.5,8.5,50000,46,6.9,4.2
2019,7,5,18:00,UTC,7,994.7,77,0,-1,13,9,46680,21,6.9,4.6
2019,7,5,19:00,UTC,7,994.8,91,2.8,-1,10.7,9.2,7740,333,6.3,3.7
2019,7,5,20:00,UTC,8,994.8,97,3,-1,10.4,9.9,6050,303,4.5,3.1
2019,7,5,21:00,UTC,7,994.3,98,2.6,-1,10.1,9.8,8400,287,6.5,4.3
2019,7,5,22:00,UTC,7,994.2,96,0.8,-1,11,10.5,14230,318,6.6,3.9
2019,7,5,23:00,UTC,8,994.1,95,0.4,-1,11.4,10.6,23060,327,7.4,4.6
2019,7,6,00:00,UTC,7,994.4,93,0.6,-1,11.6,10.6,29080,328,7.1,4.6
2019,7,6,01:00,UTC,7,994.5,93,0,-1,11.4,10.4,50000,327,6.7,4.3
2019,7,6,02:00,UTC,7,994.7,94,0,-1,11,10.1,50000,318,5.7,3.1
2019,7,6,03:00,UTC,7,995,93,0,-1,11.2,10.1,50000,313,6.8,4
2019,7,6,04:00,UTC,7,995.1,87,0,-1,12.1,10,50000,317,6.8,3.4
2019,7,6,05:00,UTC,7,995.2,85,0,-1,12.4,9.9,50000,325,6.1,3.9
2019,7,6,06:00,UTC,7,995.6,78,0,-1,14.2,10.4,47930,321,7.4,3.6
2019,7,6,07:00,UTC,7,995.9,73,0,-1,15.4,10.5,42120,329,4.9,2.6
2019,7,6,08:00,UTC,7,996.5,73,0,-1,15.3,10.5,48660,318,4.5,2.3
2019,7,6,09:00,UTC,7,996.8,61,0,-1,16.7,9.2,45190,339,4.5,2.6
2019,7,6,10:00,UTC,7,996.9,53,0,-1,17.9,8.2,39400,337,4.7,2.7
2019,7,6,11:00,UTC,5,997,52,0,-1,19.6,9.3,36240,185,4.9,1.6
2019,7,6,12:00,UTC,7,998.2,94,1.9,-1,13.3,12.3,8700,222,5,1.9
2019,7,6,13:00,UTC,7,998.6,94,0,-1,12.2,11.3,19890,72,3.2,2
2019,7,6,14:00,UTC,5,998.5,87,0,-1,14.2,12,41400,249,4.7,2.4
2019,7,6,15:00,UTC,7,998.3,86,0,-1,14.9,12.4,50000,209,1.4,1.1
2019,7,6,16:00,UTC,5,998.7,79,0,-1,16.5,12.9,50000,227,3.6,2.4
2019,7,6,17:00,UTC,1,998.6,81,0,-1,14.3,11,50000,250,3.9,2.5
2019,7,6,18:00,UTC,0,998.7,74,0,-1,14.8,10.2,50000,244,1.3,0.8
2019,7,6,19:00,UTC,0,998.8,86,0,-1,12.6,10.3,50000,220,3,2
2019,7,6,20:00,UTC,0,998.9,89,0,-1,12,10.3,50000,236,3.7,3
2019,7,6,21:00,UTC,8,998.9,90,0,-1,12.3,10.7,50000,244,3,2.4
2019,7,6,22:00,UTC,8,999,91,0,-1,12.5,11,50000,253,3.2,2.5
2019,7,6,23:00,UTC,1,999.3,95,0,-1,11.6,10.8,50000,256,2,1.5
2019,7,7,00:00,UTC,0,999.3,97,0,-1,10.8,10.4,33950,275,1.4,1.1
2019,7,7,01:00,UTC,1,999.3,98,0,-1,10.4,10.1,46510,5,1.3,0.7
2019,7,7,02:00,UTC,1,999.3,99,0,-1,10.5,10.4,48360,4,2.5,2
2019,7,7,03:00,UTC,5,999.4,99,0,-1,10.8,10.6,33830,304,2,1.6
2019,7,7,04:00,UTC,8,999.4,96,0,-1,12,11.3,50000,329,3,2
2019,7,7,05:00,UTC,7,999.3,86,0,-1,13.5,11.1,43970,7,1.4,0.8
2019,7,7,06:00,UTC,7,999.3,80,0,-1,14.4,11,48110,22,2.5,1.2
2019,7,7,07:00,UTC,7,999.3,75,0,-1,16.1,11.7,50000,60,2.1,1
2019,7,7,08:00,UTC,7,999.3,68,0,-1,17.3,11.4,41510,84,2.7,0.9
2019,7,7,09:00,UTC,3,999.4,64,0,-1,18.3,11.4,41830,103,3.1,1.6
2019,7,7,10:00,UTC,7,999.8,81,0,-1,15.5,12.2,36440,94,4.1,2.8
2019,7,7,11:00,UTC,7,999.6,88,1.7,-1,15.5,13.5,40130,52,1.2,0.6
2019,7,7,12:00,UTC,5,999.6,75,0,-1,17.5,13.1,46110,108,3,1.9
2019,7,7,13:00,UTC,7,999.7,71,0,-1,18.1,12.7,45840,141,1.8,0.7
2019,7,7,14:00,UTC,8,1000.2,75,0,-1,15.1,10.6,50000,359,6.5,3.8
2019,7,7,15:00,UTC,5,1000.1,78,0,-1,15.5,11.7,50000,9,5.6,3.3
2019,7,7,16:00,UTC,7,999.8,89,0,-1,14.5,12.7,44730,6,4.4,2.5
2019,7,7,17:00,UTC,7,999.6,87,0,-1,15,12.8,50000,348,2.3,1.1
2019,7,7,18:00,UTC,7,999.7,85,0,-1,15,12.6,50000,2,3.4,2.2
2019,7,7,19:00,UTC,7,999.9,91,0,-1,14.3,12.9,50000,321,1.5,0.7
2019,7,7,20:00,UTC,8,999.7,89,0,-1,14.5,12.7,50000,331,5.9,3.2
2019,7,7,21:00,UTC,7,1000,91,0,-1,13.8,12.3,50000,5,4,2.5
2019,7,7,22:00,UTC,7,999.9,94,0,-1,13.1,12.2,30300,345,4.8,2.9
2019,7,7,23:00,UTC,8,1000,96,0,-1,13,12.4,49960,329,4.7,3.1
2019,7,8,00:00,UTC,8,999.8,95,0,-1,13.1,12.4,40880,340,4.6,2.9
2019,7,8,01:00,UTC,7,999.9,96,0,-1,12.8,12.2,36270,334,2.9,1.8
2019,7,8,02:00,UTC,7,999.8,97,0,-1,12.7,12.2,38340,332,3.2,2
2019,7,8,03:00,UTC,7,999.8,95,0,-1,13.2,12.4,47210,4,4.6,2.7
2019,7,8,04:00,UTC,7,1000,93,0,-1,13.9,12.7,44600,57,3.1,2
2019,7,8,05:00,UTC,7,1000.4,90,0,-1,14.3,12.7,41850,86,3.6,2.4
2019,7,8,06:00,UTC,5,1000.7,84,0,-1,14.9,12.3,39280,48,3.7,2.3
2019,7,8,07:00,UTC,3,1001.1,80,0,-1,15.7,12.1,46520,77,3.2,1.8
2019,7,8,08:00,UTC,7,1001.5,70,0,-1,15.9,10.5,42500,55,3.5,1.9
2019,7,8,09:00,UTC,7,1002,68,0,-1,16.4,10.5,50000,51,3.5,2.1
2019,7,8,10:00,UTC,3,1002.5,63,0,-1,17,9.8,43280,41,4.3,2.2
2019,7,8,11:00,UTC,1,1002.5,61,0,-1,18.6,10.9,39000,15,4.7,2.8
2019,7,8,12:00,UTC,1,1002.6,60,0,-1,18.2,10.3,49780,27,6.2,4.1
2019,7,8,13:00,UTC,0,1002.8,55,0,-1,18.9,9.6,50000,54,6.1,3.5
2019,7,8,14:00,UTC,7,1003,58,0,-1,19,10.5,50000,12,6.2,3.7
2019,7,8,15:00,UTC,1,1003,50,0,-1,19.6,9,45190,32,3.1,1.7
2019,7,8,16:00,UTC,7,1003.4,91,7.4,-1,13.6,12.2,4900,204,4.3,3.3
2019,7,8,17:00,UTC,7,1004,90,0,-1,13.8,12.2,39830,163,2.9,2
2019,7,8,18:00,UTC,7,1004.5,88,0,-1,14.4,12.4,50000,65,4.7,2.4
2019,7,8,19:00,UTC,7,1004.9,90,0.7,-1,14.2,12.6,40120,12,6.6,3.8
2019,7,8,20:00,UTC,7,1005.3,93,0.8,-1,13.2,12.1,14010,7,4.7,2.2
2019,7,8,21:00,UTC,7,1005.4,94,1.7,-1,12.4,11.5,11160,2,6.3,3.7
2019,7,8,22:00,UTC,7,1005.5,95,0.4,-1,12.1,11.2,29470,5,5.4,3.6
2019,7,8,23:00,UTC,7,1005.7,96,1.1,-1,11.7,11.1,4930,12,6.2,3.8
2019,7,9,00:00,UTC,7,1005.8,96,0,-1,11.6,10.9,45040,13,5.3,3.2
2019,7,9,01:00,UTC,7,1005.6,95,0,-1,11.4,10.7,43350,18,6.7,3.5
2019,7,9,02:00,UTC,7,1005.7,95,0,-1,11.4,10.6,21460,12,6.3,3.8
2019,7,9,03:00,UTC,7,1005.6,95,0,-1,11.3,10.6,10310,14,7.3,3.8
2019,7,9,04:00,UTC,7,1005.8,91,0,-1,11.3,9.9,50000,19,9.4,5.3
2019,7,9,05:00,UTC,7,1006,91,0,-1,11.4,10,13310,7,6.9,4.8
2019,7,9,06:00,UTC,7,1005.9,83,0,-1,12.5,9.6,50000,14,7.7,4.3
2019,7,9,07:00,UTC,7,1006.1,82,0,-1,12.6,9.7,49160,7,7.7,4.8
2019,7,9,08:00,UTC,7,1006.2,80,0,-1,12.9,9.5,47090,351,8.2,5
2019,7,9,09:00,UTC,7,1006.6,80,0,-1,12.8,9.5,50000,352,8.7,5.2
2019,7,9,10:00,UTC,7,1006.7,72,0,-1,14.3,9.4,50000,27,8.8,5
2019,7,9,11:00,UTC,7,1006.8,74,0,-1,14,9.5,50000,354,8.1,5.2
2019,7,9,12:00,UTC,7,1007,75,0,-1,13.8,9.4,44400,6,9.4,6.5
2019,7,9,13:00,UTC,7,1006.9,73,0,-1,14.4,9.6,50000,14,8.1,4.7
2019,7,9,14:00,UTC,7,1006.9,72,0,-1,14.4,9.4,50000,359,9.3,5.4
2019,7,9,15:00,UTC,7,1006.9,75,0,-1,14,9.6,47730,355,9.8,6.1
2019,7,9,16:00,UTC,7,1007.1,75,0,-1,13.9,9.6,50000,356,8.6,5.2
2019,7,9,17:00,UTC,7,1007,74,0,-1,14.2,9.5,50000,5,8.1,4.2
2019,7,9,18:00,UTC,7,1007.2,75,0,-1,13.8,9.5,47090,8,6.2,4.1
2019,7,9,19:00,UTC,8,1007.4,77,0,-1,13.4,9.5,45300,352,5.5,3.2
2019,7,9,20:00,UTC,8,1007.5,80,0,-1,13.2,9.7,41700,319,4.3,2.4
2019,7,9,21:00,UTC,8,1007.3,81,0,-1,12.8,9.6,44050,333,5.7,3.5
2019,7,9,22:00,UTC,7,1007.2,80,0,-1,12.5,9.2,45370,328,6.9,3.7
2019,7,9,23:00,UTC,7,1006.8,77,0,-1,12.3,8.4,50000,331,7,3.7
2019,7,10,00:00,UTC,8,1006.5,77,0,-1,12.2,8.3,49990,329,6.6,4
2019,7,10,01:00,UTC,8,1006.4,78,0,-1,12.1,8.4,50000,338,5.8,3
2019,7,10,02:00,UTC,8,1006.3,78,0,-1,12.2,8.6,47990,331,5,2.7
2019,7,10,03:00,UTC,7,1006.3,80,0,-1,12.2,8.9,50000,328,5.2,2.9
2019,7,10,04:00,UTC,7,1006.3,79,0,-1,12.6,9,45050,337,4.8,2.7
2019,7,10,05:00,UTC,1,1006.3,77,0,-1,13.3,9.3,45320,342,5.8,3.8
2019,7,10,06:00,UTC,1,1006.4,65,0,-1,15.1,8.6,46560,346,6.7,4.4
2019,7,10,07:00,UTC,3,1006.4,63,0,-1,16.3,9.1,38200,345,6.3,3.2
2019,7,10,08:00,UTC,1,1006.5,54,0,-1,17.9,8.5,46280,7,7.8,4.8
2019,7,10,09:00,UTC,1,1006.5,52,0,-1,18.5,8.4,36750,350,8.2,5
2019,7,10,10:00,UTC,1,1006.5,45,0,-1,19.4,7.3,41960,15,6.2,3.8
2019,7,10,11:00,UTC,1,1006.6,42,0,-1,20.1,6.8,45460,33,6.7,4
2019,7,10,12:00,UTC,1,1006.7,38,0,-1,21.2,6.4,37620,9,5.7,1.9
2019,7,10,13:00,UTC,3,1006.8,40,0,-1,20.7,6.4,47830,41,4.7,2
2019,7,10,14:00,UTC,5,1006.7,51,0,-1,20.8,10.2,43000,184,5.8,3.7
2019,7,10,15:00,UTC,3,1006.8,50,0,-1,20.5,9.7,44480,198,4,2.6
2019,7,10,16:00,UTC,3,1006.8,41,0,-1,21.3,7.6,46510,54,3.6,1.6
2019,7,10,17:00,UTC,7,1007,45,0,-1,20.1,7.8,50000,52,4.7,2.3
2019,7,10,18:00,UTC,0,1007.2,38,0,-1,19.8,5,50000,359,7.1,4.4
2019,7,10,19:00,UTC,0,1007.3,44,0,-1,18.4,6,50000,358,4.9,3.3
2019,7,10,20:00,UTC,0,1007.6,50,0,-1,17.2,6.8,50000,23,5.6,3.7
2019,7,10,21:00,UTC,1,1007.8,62,0,-1,14.9,7.6,50000,5,4.2,3
2019,7,10,22:00,UTC,7,1007.9,66,0,-1,14.3,7.9,50000,12,3.9,2.7
2019,7,10,23:00,UTC,7,1007.9,62,0,-1,14.8,7.6,50000,29,5,3.5
2019,7,11,00:00,UTC,7,1008,63,0,-1,14.2,7.2,50000,29,4.6,2.9
2019,7,11,01:00,UTC,7,1008,65,0,-1,13.7,7.2,50000,29,4.6,3.3
2019,7,11,02:00,UTC,7,1008,66,0,-1,13.3,7.2,49720,26,5.6,3.7
2019,7,11,03:00,UTC,7,1008,69,0,-1,12.8,7.3,50000,49,5.6,3.5
2019,7,11,04:00,UTC,7,1008.1,75,0,-1,12.8,8.5,47270,51,4.3,2.1
2019,7,11,05:00,UTC,7,1008.2,75,0,-1,13.5,9.2,50000,79,8.3,4.7
2019,7,11,06:00,UTC,3,1008.4,69,0,-1,13.9,8.3,40390,83,7.9,5.8
2019,7,11,07:00,UTC,7,1008.7,68,0,-1,14.3,8.5,46440,85,6.8,4.3
2019,7,11,08:00,UTC,7,1008.9,68,0,-1,14.5,8.7,50000,86,7.6,5.2
2019,7,11,09:00,UTC,8,1009.2,68,0,-1,13.4,7.6,50000,98,6.8,4.4
2019,7,11,10:00,UTC,8,1009.4,69,0,-1,12.6,7,50000,87,5.1,2.9
2019,7,11,11:00,UTC,7,1009.3,66,0,-1,13.3,7.1,49070,109,4.5,2.8
2019,7,11,12:00,UTC,8,1009.3,65,0,-1,13.4,7,50000,91,4.7,3
2019,7,11,13:00,UTC,7,1009.5,70,0,-1,13.1,7.9,50000,92,5.2,3.2
2019,7,11,14:00,UTC,7,1009.4,66,0,-1,13.5,7.2,50000,98,3.5,1.8
2019,7,11,15:00,UTC,5,1009.4,64,0,-1,14.2,7.5,47710,133,4.1,2.5
2019,7,11,16:00,UTC,3,1009.3,76,0,-1,13.7,9.6,49190,159,3.3,1.6
2019,7,11,17:00,UTC,7,1009.4,88,0.2,-1,11.9,10.1,44680,141,2.1,1.1
2019,7,11,18:00,UTC,3,1009.4,83,0,-1,11.2,8.5,50000,212,3.1,1.8
2019,7,11,19:00,UTC,7,1009.4,82,0,-1,11.2,8.3,50000,228,2.7,2
2019,7,11,20:00,UTC,5,1009.5,93,0,-1,10,8.9,50000,250,3.6,3
2019,7,11,21:00,UTC,0,1009.5,94,0,-1,9.7,8.7,50000,271,3,2.6
2019,7,11,22:00,UTC,0,1009.7,97,0,-1,8.8,8.3,32740,288,3.7,3.5
2019,7,11,23:00,UTC,0,1009.6,98,0,-1,8.4,8.1,16930,280,3.3,3
2019,7,12,00:00,UTC,0,1009.6,98,0,-1,8.5,8.2,20150,253,2.4,2.2
2019,7,12,01:00,UTC,5,1009.4,98,0,-1,8.5,8.2,16680,271,3.3,2.9
2019,7,12,02:00,UTC,5,1009.3,98,0,-1,8.2,8,22400,287,3,2.7
2019,7,12,03:00,UTC,7,1009.4,99,0,-1,8.7,8.5,28610,287,4,3.5
2019,7,12,04:00,UTC,5,1009.3,90,0,-1,11,9.3,50000,296,3.7,3
2019,7,12,05:00,UTC,1,1009.1,74,0,-1,13.2,8.6,39500,296,4.3,2.4
2019,7,12,06:00,UTC,7,1009.2,67,0,-1,14.4,8.3,45800,298,4.7,2.8
2019,7,12,07:00,UTC,3,1009.1,54,0,-1,16.5,7.3,40990,326,5.4,3
2019,7,12,08:00,UTC,7,1008.8,59,0,-1,16,8,50000,299,4.3,2.4
2019,7,12,09:00,UTC,7,1008.7,50,0,-1,16.6,6.2,47010,332,4.8,3.1
2019,7,12,10:00,UTC,1,1008.4,38,0,-1,18.7,4.2,37710,319,4.6,2.2
2019,7,12,11:00,UTC,3,1008.3,38,0,-1,18.9,4.1,47000,327,3.7,1.6
2019,7,12,12:00,UTC,0,1008.2,37,0,-1,20,4.8,45330,306,5.2,2.7
2019,7,12,13:00,UTC,5,1008.2,58,0,-1,17.9,9.5,46710,203,8.3,5.3
2019,7,12,14:00,UTC,0,1008.3,29,0,-1,19.8,1.2,42960,333,7.1,4.2
2019,7,12,15:00,UTC,1,1008.3,55,0,-1,17.2,8.1,50000,216,8,4.6
2019,7,12,16:00,UTC,7,1008,55,0,-1,18.7,9.5,50000,202,7.5,6
2019,7,12,17:00,UTC,5,1007.9,56,0,-1,17.8,8.8,50000,249,7.5,4.8
2019,7,12,18:00,UTC,1,1008,66,0,-1,16.6,10.1,29140,218,5.7,4
2019,7,12,19:00,UTC,1,1008.2,69,0,-1,15.4,9.8,50000,259,4.4,3.1
2019,7,12,20:00,UTC,7,1008.5,72,0,-1,14.8,9.8,50000,258,4.8,3.1
2019,7,12,21:00,UTC,8,1008.4,76,0,-1,14,10,50000,265,2.7,2.1
2019,7,12,22:00,UTC,8,1008.6,76,0,-1,13.8,9.8,50000,251,3.7,2.8
2019,7,12,23:00,UTC,8,1008.5,73,0,-1,13.9,9,50000,281,3.2,2.8
2019,7,13,00:00,UTC,8,1008.1,78,0,-1,13.3,9.5,50000,267,1.8,1.3
2019,7,13,01:00,UTC,8,1007.9,80,0,-1,13.1,9.9,50000,287,2.5,2.2
2019,7,13,02:00,UTC,8,1007.8,76,0,-1,13.1,9,50000,305,3.2,1.9
2019,7,13,03:00,UTC,7,1007.8,76,0,-1,12.8,8.7,50000,293,3.2,2.4
2019,7,13,04:00,UTC,7,1007.8,64,0,-1,14.4,7.7,45070,325,5.8,2.3
2019,7,13,05:00,UTC,7,1007.8,59,0,-1,14.8,6.8,50000,325,5.9,3.1
2019,7,13,06:00,UTC,1,1007.8,49,0,-1,16.8,6,48480,328,6.6,3.5
2019,7,13,07:00,UTC,0,1007.9,42,0,-1,18.4,5.3,40370,315,5.8,3.4
2019,7,13,08:00,UTC,0,1008,35,0,-1,18.7,3.1,38290,343,6,3.6
2019,7,13,09:00,UTC,0,1008,28,0,-1,19.9,0.6,31230,316,5.8,3.3
2019,7,13,10:00,UTC,0,1008.1,29,0,-1,20.3,1.5,45090,6,4.6,2.5
2019,7,13,11:00,UTC,5,1008.1,38,0,-1,19.4,4.8,50000,352,9.3,5.5
2019,7,13,12:00,UTC,5,1008.1,36,0,-1,19.6,4.3,49730,338,6.1,3.4
2019,7,13,13:00,UTC,3,1008.2,39,0,-1,19.6,5.4,50000,209,4.9,3
2019,7,13,14:00,UTC,5,1008.5,39,0,-1,19.6,5.2,50000,325,4.5,2.1
2019,7,13,15:00,UTC,7,1009.1,43,0,-1,18,5.4,50000,35,8.5,5.2
2019,7,13,16:00,UTC,7,1009.2,48,0,-1,17.4,6.2,50000,51,4.8,3.4
2019,7,13,17:00,UTC,7,1009.4,66,0,-1,16.4,9.9,50000,83,7.8,5.8
2019,7,13,18:00,UTC,7,1009.9,66,0,-1,16.2,9.9,50000,71,4.6,2.7
2019,7,13,19:00,UTC,3,1010.2,63,0,-1,15.4,8.4,50000,52,4.4,3
2019,7,13,20:00,UTC,7,1010.5,69,0,-1,14.5,8.9,50000,80,2.9,1.9
2019,7,13,21:00,UTC,7,1010.8,71,0,-1,14.4,9.2,50000,42,3.1,2.3
2019,7,13,22:00,UTC,7,1011,72,0,-1,14,9,50000,13,3.6,2.3
2019,7,13,23:00,UTC,7,1011.2,68,0,-1,13.3,7.4,50000,43,4.3,2.7
2019,7,14,00:00,UTC,5,1011.2,68,0,-1,12.6,7,50000,21,4.1,2.8
2019,7,14,01:00,UTC,1,1011.3,72,0,-1,11.4,6.5,50000,15,3.7,2.4
2019,7,14,02:00,UTC,1,1011.4,73,0,-1,11,6.4,50000,18,4.5,3
2019,7,14,03:00,UTC,1,1011.5,70,0,-1,11.3,6.1,50000,13,4.6,2.3
2019,7,14,04:00,UTC,0,1011.7,65,0,-1,12.7,6.2,45150,7,3,1.9
2019,7,14,05:00,UTC,0,1011.9,59,0,-1,13.8,5.9,46090,11,3.3,2.2
2019,7,14,06:00,UTC,0,1012,53,0,-1,14.6,5,46980,27,4.9,3
2019,7,14,07:00,UTC,0,1012.1,49,0,-1,15.5,4.8,42890,32,3.5,1.9
2019,7,14,08:00,UTC,1,1012.1,46,0,-1,16.1,4.5,43230,18,5.2,3.1
2019,7,14,09:00,UTC,1,1012,49,0,-1,17.3,6.5,39130,292,3.5,1.5
2019,7,14,10:00,UTC,7,1012,52,0,-1,18.2,8.3,38410,172,6.3,3.6
2019,7,14,11:00,UTC,3,1012,50,0,-1,16.7,6.3,41820,128,6.2,4.8
2019,7,14,12:00,UTC,1,1012,49,0,-1,17.4,6.5,48500,155,6.4,4.3
2019,7,14,13:00,UTC,7,1012.1,52,0,-1,16.6,6.6,50000,171,5.3,3.2
2019,7,14,14:00,UTC,1,1012,49,0,-1,17.8,6.9,49880,187,5.1,3.2
2019,7,14,15:00,UTC,0,1011.7,47,0,-1,18.4,6.8,45460,192,6,3.5
2019,7,14,16:00,UTC,7,1011.6,49,0,-1,17.7,7,50000,211,6.3,4.4
2019,7,14,17:00,UTC,7,1011.6,58,0,-1,16.4,8.1,50000,197,5.3,4
2019,7,14,18:00,UTC,1,1011.7,63,0,-1,15.5,8.6,50000,213,5.3,3.9
2019,7,14,19:00,UTC,7,1011.7,63,0,-1,15.5,8.5,50000,229,5.1,3.9
2019,7,14,20:00,UTC,7,1011.9,75,0,-1,14.8,10.3,50000,226,4.2,3
2019,7,14,21:00,UTC,7,1011.9,83,0,-1,14.2,11.3,50000,234,5.4,3.5
2019,7,14,22:00,UTC,7,1011.6,86,0,-1,14.2,11.8,50000,237,4.3,3.3
2019,7,14,23:00,UTC,7,1011.4,90,0,-1,13.7,12.1,50000,235,3.5,2.4
2019,7,15,00:00,UTC,7,1011.3,87,0,-1,14.2,12,50000,226,2.9,2.3
2019,7,15,01:00,UTC,5,1011.1,91,0,-1,13.7,12.2,50000,214,3.1,2.5
2019,7,15,02:00,UTC,1,1011,95,0,-1,12.7,12,49810,164,0.9,0.5
2019,7,15,03:00,UTC,1,1010.7,90,0,-1,13.6,12.1,41980,75,2.2,1.7
2019,7,15,04:00,UTC,1,1010.7,94,0,-1,13.8,12.8,43190,108,2.1,1.4
2019,7,15,05:00,UTC,3,1010.5,82,0,-1,16.8,13.7,31810,89,1.8,0.8
2019,7,15,06:00,UTC,5,1010.2,77,0,-1,18.1,14,43650,138,4.2,2.9
2019,7,15,07:00,UTC,5,1010.2,73,0,-1,18.2,13.2,41960,138,5.7,3.5
2019,7,15,08:00,UTC,5,1010,71,0,-1,18.1,12.7,42750,124,5.4,3.8
2019,7,15,09:00,UTC,7,1010,78,0,-1,17.4,13.5,32180,161,6.1,4
2019,7,15,10:00,UTC,1,1009.7,70,0,-1,18.8,13.3,37850,147,6.9,4
2019,7,15,11:00,UTC,5,1009.6,66,0,-1,18.6,12.1,41260,198,6.3,4.6
2019,7,15,12:00,UTC,7,1009.7,77,0,-1,17,13,25330,184,5.3,3
2019,7,15,13:00,UTC,7,1009.5,64,0,-1,17.8,10.8,46470,203,5.8,4.4
2019,7,15,14:00,UTC,7,1009.2,47,0,-1,20.4,8.8,43760,167,6.6,4.3
2019,7,15,15:00,UTC,0,1008.8,44,0,-1,20.5,7.8,50000,148,5.3,2.8
2019,7,15,16:00,UTC,5,1008.7,45,0,-1,19.3,7.2,50000,148,5.5,3.9
2019,7,15,17:00,UTC,7,1008.7,71,0,-1,16.8,11.5,50000,147,6.9,5.3
2019,7,15,18:00,UTC,7,1008.1,76,1.2,-1,15.9,11.6,41390,133,3.7,2.7
2019,7,15,19:00,UTC,5,1007.9,72,0,-1,15.8,10.8,50000,130,4.8,3.3
2019,7,15,20:00,UTC,7,1007.6,82,0,-1,16.1,13.1,24860,116,6.4,4.4
2019,7,15,21:00,UTC,5,1007.2,85,0,-1,15.9,13.5,50000,130,5.4,3.2
2019,7,15,22:00,UTC,1,1007,80,0,-1,15.8,12.3,50000,144,7.7,5
2019,7,15,23:00,UTC,7,1006.7,79,0,-1,15.9,12.2,50000,141,5.8,3.9
2019,7,16,00:00,UTC,1,1006.4,83,0,-1,15.4,12.6,50000,145,8.1,4.8
2019,7,16,01:00,UTC,8,1006.4,86,0,-1,15.1,12.8,47390,144,5.8,3.7
2019,7,16,02:00,UTC,7,1006.3,87,0,-1,15.3,13.2,37330,152,5.6,3.5
2019,7,16,03:00,UTC,8,1006.4,85,0,-1,15.4,12.9,43910,145,8.5,5.1
2019,7,16,04:00,UTC,7,1006.5,85,0.3,-1,15.1,12.7,28090,172,7.3,4.4
2019,7,16,05:00,UTC,7,1006.3,88,0.5,-1,15,13,18390,130,6.3,4
2019,7,16,06:00,UTC,7,1006.4,88,0,-1,15.4,13.4,31850,109,6.5,4.3
2019,7,16,07:00,UTC,7,1006.8,89,0,-1,15.8,14,34450,103,5.8,3.4
2019,7,16,08:00,UTC,7,1007,87,0.2,-1,15.5,13.3,21290,77,7.8,4.4
2019,7,16,09:00,UTC,7,1007,88,0,-1,16.7,14.7,21920,71,7.3,4.3
2019,7,16,10:00,UTC,7,1006.8,77,0,-1,17,13,50000,74,10.1,5.3
2019,7,16,11:00,UTC,5,1006.9,73,0,-1,19,14,33320,86,8.8,5.2
2019,7,16,12:00,UTC,5,1007.2,71,0,-1,18.8,13.5,45610,96,9.5,6.1
2019,7,16,13:00,UTC,7,1008.2,90,13.9,-1,14.2,12.6,3050,112,14.3,9.3
2019,7,16,14:00,UTC,7,1008.6,89,6.1,-1,14.2,12.4,3440,128,5.1,3.1
2019,7,16,15:00,UTC,7,1008.3,84,0,-1,15.4,12.7,42770,68,3.4,2
2019,7,16,16:00,UTC,3,1008.9,79,0,-1,16,12.4,42180,102,5,3.1
2019,7,16,17:00,UTC,5,1008.6,79,0,-1,16.7,13,44050,80,3.6,2.2
2019,7,16,18:00,UTC,1,1008.9,81,0,-1,16,12.7,50000,30,2.6,2
2019,7,16,19:00,UTC,0,1009.1,88,0,-1,14.9,12.9,44130,360,4.1,3.4
2019,7,16,20:00,UTC,1,1008.9,89,0,-1,14.7,13,44940,8,4.7,3.8
2019,7,16,21:00,UTC,0,1009,87,0,-1,14.6,12.5,47070,6,6,4.3
2019,7,16,22:00,UTC,0,1009.1,91,0,-1,13.5,12,29170,14,4.9,3
2019,7,16,23:00,UTC,0,1009.2,92,0,-1,12.6,11.4,30880,16,4.9,3
2019,7,17,00:00,UTC,0,1009.2,90,0,-1,12.7,11.1,32120,17,4.7,3.2
2019,7,17,01:00,UTC,0,1009.3,84,0,-1,13.3,10.7,39220,26,5.3,3.9
2019,7,17,02:00,UTC,0,1009.3,93,0,-1,11.4,10.3,25540,20,4.1,2.3
2019,7,17,03:00,UTC,0,1009.4,82,0,-1,13.2,10.2,50000,25,4.2,3
2019,7,17,04:00,UTC,0,1009.4,76,0,-1,14.5,10.2,47360,33,4.7,3.3
2019,7,17,05:00,UTC,0,1009.5,70,0,-1,16,10.6,45430,35,4.8,3
2019,7,17,06:00,UTC,0,1009.5,64,0,-1,17.9,11,41750,31,3.8,2.3
2019,7,17,07:00,UTC,0,1009.4,61,0,-1,19.6,11.7,36290,35,3.8,2.2
2019,7,17,08:00,UTC,0,1009.3,52,0,-1,20.8,10.6,41070,36,5.9,3.7
2019,7,17,09:00,UTC,0,1009.4,48,0,-1,22,10.6,45560,81,5.8,3.5
2019,7,17,10:00,UTC,0,1009.4,46,0,-1,22.8,10.6,41720,84,6.5,3.5
2019,7,17,11:00,UTC,5,1009.6,55,0,-1,22.2,12.7,49700,122,5.1,3.2
2019,7,17,12:00,UTC,1,1009.7,52,0,-1,22.1,11.8,40930,115,4.7,2.5
2019,7,17,13:00,UTC,7,1009.7,55,0,-1,20.2,10.8,50000,91,5.1,3.5
2019,7,17,14:00,UTC,7,1010.2,60,0,-1,20.2,12,46300,88,3.8,2.4
2019,7,17,15:00,UTC,1,1010.3,58,0,-1,19.8,11.2,50000,17,2.8,1.3
2019,7,17,16:00,UTC,1,1010.3,58,0,-1,20.2,11.5,50000,80,4.8,3.3
2019,7,17,17:00,UTC,0,1010.2,49,0,-1,19.7,8.8,46810,99,2.8,1.8
2019,7,17,18:00,UTC,7,1010.5,53,0,-1,18.9,9,50000,350,1.9,1.3
2019,7,17,19:00,UTC,7,1010.6,67,0,-1,18.2,12,50000,341,3,2.6
2019,7,17,20:00,UTC,1,1010.6,79,0,-1,16.4,12.8,50000,338,4.8,3.3
2019,7,17,21:00,UTC,0,1010.5,83,0,-1,15.2,12.3,50000,325,5.2,2.8
2019,7,17,22:00,UTC,0,1010.7,88,0,-1,13.9,12,50000,333,3.8,2.3
2019,7,17,23:00,UTC,0,1010.6,88,0,-1,13.8,11.8,50000,346,4.9,3.7
2019,7,18,00:00,UTC,0,1010.7,90,0,-1,13.4,11.9,50000,347,4.7,3.9
2019,7,18,01:00,UTC,0,1010.6,95,0,-1,12,11.3,37210,336,3.8,2.3
2019,7,18,02:00,UTC,0,1010.6,95,0,-1,12.2,11.4,43360,330,4.1,2.5
2019,7,18,03:00,UTC,0,1010.7,90,0,-1,12.9,11.3,45760,331,4.3,2.8
2019,7,18,04:00,UTC,0,1010.6,77,0,-1,15.4,11.4,43220,327,4.6,2.4
2019,7,18,05:00,UTC,0,1010.6,73,0,-1,16.8,11.8,40940,327,4.8,2.8
2019,7,18,06:00,UTC,0,1010.5,66,0,-1,18.5,12,41400,338,5.4,3.3
2019,7,18,07:00,UTC,0,1010.4,59,0,-1,20,11.6,33780,342,5.6,3.4
2019,7,18,08:00,UTC,0,1010.2,54,0,-1,21.3,11.5,33640,344,7.9,4.2
2019,7,18,09:00,UTC,0,1010.1,49,0,-1,22.1,10.7,44980,354,7.8,4.2
2019,7,18,10:00,UTC,0,1009.9,45,0,-1,23,10.5,40070,330,8.8,5.3
2019,7,18,11:00,UTC,1,1009.7,44,0,-1,23.6,10.5,40240,329,7.1,4.1
2019,7,18,12:00,UTC,1,1009.5,38,0,-1,23.8,8.8,36740,332,8.7,4.4
2019,7,18,13:00,UTC,3,1009.3,38,0,-1,24.8,9.5,43540,313,9,5.3
2019,7,18,14:00,UTC,1,1009.3,37,0,-1,24.4,8.6,35410,339,8.5,5.3
2019,7,18,15:00,UTC,1,1009.2,37,0,-1,24,8.3,50000,357,9.4,5.5
2019,7,18,16:00,UTC,0,1009.1,39,0,-1,23.4,8.7,50000,350,8.7,5.8
2019,7,18,17:00,UTC,1,1009.2,41,0,-1,22.9,8.8,50000,350,8.1,4.3
2019,7,18,18:00,UTC,0,1009.3,42,0,-1,22,8.5,50000,346,7.4,4.4
2019,7,18,19:00,UTC,0,1009.4,50,0,-1,19.5,9,50000,318,5,3
2019,7,18,20:00,UTC,0,1009.8,51,0,-1,18.3,8,50000,319,6.6,3.2
2019,7,18,21:00,UTC,0,1009.8,53,0,-1,17.9,8.1,50000,321,5.8,3.4
2019,7,18,22:00,UTC,0,1009.8,57,0,-1,17,8.5,50000,323,6.7,3.6
2019,7,18,23:00,UTC,0,1010.1,62,0,-1,16.3,9.1,50000,324,6.6,3.8
2019,7,19,00:00,UTC,0,1010,68,0,-1,15.4,9.5,50000,329,6,4.2
2019,7,19,01:00,UTC,0,1010,71,0,-1,15.1,9.8,50000,326,6.2,4.3
2019,7,19,02:00,UTC,0,1010.1,73,0,-1,14.4,9.7,50000,318,6.2,3.8
2019,7,19,03:00,UTC,0,1010.3,70,0,-1,15.2,9.9,50000,321,7.3,4.2
2019,7,19,04:00,UTC,0,1010.1,67,0,-1,16.4,10.2,47390,323,7.5,4.2
2019,7,19,05:00,UTC,0,1010,65,0,-1,17.9,11.2,,326,6.9,4.2
2019,7,19,06:00,UTC,0,1009.9,62,0,-1,19.5,11.9,41890,325,8.3,4.8
2019,7,19,07:00,UTC,0,1009.8,56,0,-1,20.3,11.3,38290,334,10.9,6.8
2019,7,19,08:00,UTC,0,1009.7,50,0,-1,21.4,10.5,41430,330,8.8,5
2019,7,19,09:00,UTC,1,1009.7,47,0,-1,22.7,11,37180,312,7.4,4.4
2019,7,19,10:00,UTC,1,1009.8,39,0,-1,23.8,9.1,41220,326,10.3,4.8
2019,7,19,11:00,UTC,1,1009.7,38,0,-1,23.6,8.5,42030,327,10,5.7
2019,7,19,12:00,UTC,3,1009.6,37,0,-1,24.3,8.6,40330,321,8.8,4.7
2019,7,19,13:00,UTC,1,1009.7,35,0,-1,24.7,8.1,38090,324,8.9,4.8
2019,7,19,14:00,UTC,7,1009.9,36,0,-1,23.7,7.9,50000,329,8,4.4
2019,7,19,15:00,UTC,5,1009.9,37,0,-1,24.4,8.7,50000,307,7.5,4.2
2019,7,19,16:00,UTC,1,1010,36,0,-1,24.1,8.1,50000,319,7.1,3.5
2019,7,19,17:00,UTC,5,1010.3,61,0,-1,21.2,13.4,48330,143,4.7,2.4
2019,7,19,18:00,UTC,7,1010.3,63,0,-1,20.5,13.2,50000,130,4.2,2.7
2019,7,19,19:00,UTC,5,1010.6,65,0,-1,19.4,12.7,50000,203,5.5,3.8
2019,7,19,20:00,UTC,1,1010.8,77,0,-1,17.5,13.4,50000,235,3.6,2.9
2019,7,19,21:00,UTC,0,1011.1,83,0,-1,16.4,13.6,50000,264,2.8,2.5
2019,7,19,22:00,UTC,0,1011.5,74,0,-1,15.4,10.9,50000,336,4.5,2.9
2019,7,19,23:00,UTC,0,1011.7,64,0,-1,15.8,9,50000,338,4.8,3.5
2019,7,20,00:00,UTC,0,1012.1,67,0,-1,15.2,9.2,50000,351,4.3,3.7
2019,7,20,01:00,UTC,0,1012.3,78,0,-1,13.2,9.4,50000,306,4.2,3.2
2019,7,20,02:00,UTC,0,1012.5,83,0,-1,12.4,9.5,50000,305,3.5,2.5
2019,7,20,03:00,UTC,0,1012.9,78,0,-1,14,10.1,50000,318,3.6,2.7
2019,7,20,04:00,UTC,0,1013,74,0,-1,16.4,11.7,44600,314,3.9,2.5
2019,7,20,05:00,UTC,0,1013.2,62,0,-1,18.9,11.6,45130,317,4.8,2.3
2019,7,20,06:00,UTC,0,1013.6,58,0,-1,20.3,11.8,38360,327,5.1,3.5
2019,7,20,07:00,UTC,0,1013.7,53,0,-1,21.4,11.4,40450,340,6.9,4.3
2019,7,20,08:00,UTC,1,1013.9,45,0,-1,22.8,10.2,48430,324,7.8,4.2
2019,7,20,09:00,UTC,1,1014.1,40,0,-1,23.4,9,41930,344,6.2,3.8
2019,7,20,10:00,UTC,1,1014.4,38,0,-1,24.3,8.9,37130,347,7.7,3.7
2019,7,20,11:00,UTC,5,1014.7,42,0,-1,23.4,9.8,44640,271,6.1,3.2
2019,7,20,12:00,UTC,5,1014.9,47,0,-1,24.1,12.1,43130,189,5,3.2
2019,7,20,13:00,UTC,1,1014.9,48,0,-1,24.5,12.9,44400,200,7.7,5.5
2019,7,20,14:00,UTC,3,1015,50,0,-1,24.7,13.4,46870,199,6.3,4
2019,7,20,15:00,UTC,1,1014.9,48,0,-1,23.9,12.3,50000,221,7.3,5.1
2019,7,20,16:00,UTC,0,1014.8,51,0,-1,23.7,13.1,50000,204,6.8,4.4
2019,7,20,17:00,UTC,1,1015.1,58,0,-1,21.8,13.1,50000,215,6.1,3.9
2019,7,20,18:00,UTC,1,1015.3,66,0,-1,20.6,14,50000,224,3.1,1.2
2019,7,20,19:00,UTC,1,1015.6,76,0,-1,19.2,14.8,50000,196,1.4,1
2019,7,20,20:00,UTC,0,1015.9,83,0,-1,18.2,15.2,49690,202,1.2,0.8
2019,7,20,21:00,UTC,0,1016.3,91,0,-1,17,15.6,37120,133,0.9,0.6
2019,7,20,22:00,UTC,1,1016.5,97,0,-1,16,15.6,14190,278,0.8,0.6
2019,7,20,23:00,UTC,0,1016.7,97,0,-1,15.8,15.3,19830,342,1.7,1.1
2019,7,21,00:00,UTC,0,1016.8,97,0,-1,15.2,14.8,22320,335,3,2.1
2019,7,21,01:00,UTC,0,1016.8,93,0,-1,14.3,13.2,39920,335,3,1.9
2019,7,21,02:00,UTC,0,1016.8,87,0,-1,14.1,12,50000,349,3.5,2.9
2019,7,21,03:00,UTC,0,1016.9,87,0,-1,15.1,12.9,48940,11,2.8,1.9
2019,7,21,04:00,UTC,0,1016.9,66,0,-1,18.3,11.8,50000,26,2.1,1.6
2019,7,21,05:00,UTC,0,1017,61,0,-1,20.2,12.3,39760,64,1.3,0.7
2019,7,21,06:00,UTC,0,1017.4,56,0,-1,22.3,13.2,43810,114,2.9,1.4
2019,7,21,07:00,UTC,0,1017.2,51,0,-1,22.8,12.1,34450,82,2.3,1.4
2019,7,21,08:00,UTC,0,1017.2,43,0,-1,24.2,11,41790,110,4.6,2.5
2019,7,21,09:00,UTC,0,1017.3,45,0,-1,24.9,12.1,34040,124,4.2,3
2019,7,21,10:00,UTC,0,1017.3,47,0,-1,25.2,13.2,31330,128,4.7,3
2019,7,21,11:00,UTC,0,1017.3,45,0,-1,25,12.1,44640,147,5.4,4.1
2019,7,21,12:00,UTC,0,1017.2,43,0,-1,26,12.4,37870,161,5.8,3.2
2019,7,21,13:00,UTC,0,1017.1,43,0,-1,25.4,11.9,43820,146,6,3.9
2019,7,21,14:00,UTC,0,1016.8,41,0,-1,25.2,10.8,49770,155,6.4,4.1
2019,7,21,15:00,UTC,0,1016.5,40,0,-1,24.7,10.3,48450,145,5.8,4.4
2019,7,21,16:00,UTC,0,1016.3,38,0,-1,25.2,9.7,50000,124,4.1,2.6
2019,7,21,17:00,UTC,0,1015.8,45,0,-1,23.7,10.9,50000,111,4,2.8
2019,7,21,18:00,UTC,0,1016,72,0,-1,21.5,16.3,50000,99,4.5,3.2
2019,7,21,19:00,UTC,0,1016.1,82,0,-1,20.3,17.2,50000,86,5.4,4.1
2019,7,21,20:00,UTC,0,1016.3,82,0,-1,19.7,16.5,50000,79,4.6,2.8
2019,7,21,21:00,UTC,0,1016.1,82,0,-1,19.1,16.1,47830,78,3.7,2.4
2019,7,21,22:00,UTC,0,1016,83,0,-1,18.8,15.8,48590,73,4,2.8
2019,7,21,23:00,UTC,0,1016,86,0,-1,18.6,16.1,45520,73,4.1,2.6
2019,7,22,00:00,UTC,0,1015.6,87,0,-1,18.2,16,41290,72,4.2,2.8
2019,7,22,01:00,UTC,0,1015.3,87,0,-1,18.1,16,50000,80,4.1,3.2
2019,7,22,02:00,UTC,0,1015.2,86,0,-1,18.1,15.8,49630,81,4.9,3.4
2019,7,22,03:00,UTC,0,1015,81,0,-1,18.7,15.5,49280,76,4.7,3.3
2019,7,22,04:00,UTC,0,1014.9,76,0,-1,20.2,15.8,44670,99,3.8,2.7
2019,7,22,05:00,UTC,0,1014.7,70,0,-1,21,15.4,38160,93,5,3.7
2019,7,22,06:00,UTC,0,1014.7,66,0,-1,21.6,15,44520,116,5.4,4
2019,7,22,07:00,UTC,0,1014.9,67,0,-1,22.2,15.7,39960,117,4.3,2.6
2019,7,22,08:00,UTC,1,1014.9,65,0,-1,22.6,15.7,38570,153,4.2,2.1
2019,7,22,09:00,UTC,3,1015.2,63,0,-1,23,15.5,37910,130,5.6,3.9
2019,7,22,10:00,UTC,7,1015.4,69,0,-1,22,16,37160,157,3.9,2.3
2019,7,22,11:00,UTC,7,1015.4,69,0,-1,21.9,15.9,44600,166,2.8,1.6
2019,7,22,12:00,UTC,5,1015.3,65,0,-1,21.7,14.8,36030,90,2.1,1.4
2019,7,22,13:00,UTC,7,1015,66,0,-1,22,15.4,42360,82,2.5,1.6
2019,7,22,14:00,UTC,7,1015.2,79,0,-1,20.9,17.1,29860,222,3.5,2.2
2019,7,22,15:00,UTC,7,1015.2,79,0,-1,20,16.2,41610,221,3.7,2.4
2019,7,22,16:00,UTC,7,1014.8,78,0,-1,20.6,16.6,42480,281,1.8,1.4
2019,7,22,17:00,UTC,7,1014.5,73,0,-1,20.5,15.6,46960,312,2.1,1.1
2019,7,22,18:00,UTC,7,1014.6,80,0,-1,19.9,16.4,,252,4.5,3.2
2019,7,22,19:00,UTC,8,1015,79,0,-1,19.1,15.4,,285,3.8,2.6
2019,7,22,20:00,UTC,7,1014.9,81,0,-1,18.5,15.1,,309,2.8,2.1
2019,7,22,21:00,UTC,8,1014.9,81,0,-1,18.1,14.7,,308,2.5,1.9
2019,7,22,22:00,UTC,1,1015,85,0,-1,17.2,14.6,,317,3.9,2.8
2019,7,22,23:00,UTC,5,1015.1,86,0,-1,16.7,14.4,,350,2.9,2.2
2019,7,23,00:00,UTC,5,1015.2,88,0,-1,16.4,14.5,,356,4.4,3.7
2019,7,23,01:00,UTC,8,1015.2,89,0,-1,16.4,14.5,,343,2.8,1.9
2019,7,23,02:00,UTC,8,1015,90,0,-1,16.4,14.7,,345,3.4,2.4
2019,7,23,03:00,UTC,7,1015,87,0,-1,17.3,15.1,37560,354,3.3,2.3
2019,7,23,04:00,UTC,7,1015,78,0,-1,19,15.1,43990,352,3,2.3
2019,7,23,05:00,UTC,7,1015.1,66,0,-1,21.6,14.9,30540,354,2.3,1.5
2019,7,23,06:00,UTC,1,1015.1,56,0,-1,22.9,13.6,36480,66,2.9,1.8
2019,7,23,07:00,UTC,1,1015.3,49,0,-1,23,11.9,37310,114,2.7,1
2019,7,23,08:00,UTC,0,1015.5,45,0,-1,24.5,11.7,43160,110,3.7,1.9
2019,7,23,09:00,UTC,0,1015.6,38,0,-1,25,9.9,27950,92,3.6,1.9
2019,7,23,10:00,UTC,1,1015.6,36,0,-1,25.8,9.7,35360,152,4.1,2.7
2019,7,23,11:00,UTC,1,1015.5,37,0,-1,25.8,9.8,35280,181,6,3.5
2019,7,23,12:00,UTC,3,1015.3,40,0,-1,24.7,10.3,40540,219,6.4,4.5
2019,7,23,13:00,UTC,5,1015.1,40,0,-1,25.6,11,40550,193,7.1,4.6
2019,7,23,14:00,UTC,0,1015,43,0,-1,24,10.6,45370,225,5.8,4.2
2019,7,23,15:00,UTC,3,1014.9,51,0,-1,24.6,13.7,41050,238,6.5,3.3
2019,7,23,16:00,UTC,7,1015.2,54,0,-1,23.6,13.7,50000,339,4.2,2.9
2019,7,23,17:00,UTC,7,1015.4,58,0,-1,22.6,14,47980,1,1.8,0.9
2019,7,23,18:00,UTC,3,1015.5,64,0,-1,21.7,14.5,,297,3.2,2.7
2019,7,23,19:00,UTC,5,1015.5,66,0,-1,21,14.3,,285,4.3,3.3
2019,7,23,20:00,UTC,5,1015.6,67,0,-1,20,13.8,,287,3.8,3.1
2019,7,23,21:00,UTC,0,1015.6,76,0,-1,18.7,14.4,,293,4.5,3.5
2019,7,23,22:00,UTC,0,1015.8,82,0,-1,17.8,14.6,,320,4,2.5
2019,7,23,23:00,UTC,0,1016,82,0,-1,17.8,14.8,,329,4.7,2.7
2019,7,24,00:00,UTC,0,1016,87,0,-1,16.7,14.5,,320,5,3
2019,7,24,01:00,UTC,0,1016,89,0,-1,16.1,14.3,,322,3.9,2.4
2019,7,24,02:00,UTC,0,1016,94,0,-1,15.2,14.2,,307,4,2.5
2019,7,24,03:00,UTC,0,1016,92,0,-1,15.9,14.5,35540,307,3.9,2.5
2019,7,24,04:00,UTC,0,1016.2,79,0,-1,18.5,14.8,33940,315,3.7,2.1
2019,7,24,05:00,UTC,0,1016.1,71,0,-1,20.9,15.3,35310,305,2.8,1.6
2019,7,24,06:00,UTC,0,1016.2,64,0,-1,22.7,15.6,39920,304,4.7,2.8
2019,7,24,07:00,UTC,0,1016.2,53,0,-1,24.2,14.1,41610,335,4.8,2.4
2019,7,24,08:00,UTC,0,1016.2,46,0,-1,25.6,13,36070,327,6.1,4
2019,7,24,09:00,UTC,0,1016.1,43,0,-1,26.9,13.1,44720,283,5.4,3
2019,7,24,10:00,UTC,3,1016.1,39,0,-1,27,11.9,32530,328,6.7,2.4
2019,7,24,11:00,UTC,1,1016,37,0,-1,27.8,11.6,48110,299,6,3.5
2019,7,24,12:00,UTC,5,1015.9,35,0,-1,27.9,11.1,37500,297,7.7,3.1
2019,7,24,13:00,UTC,1,1015.7,34,0,-1,27.8,10.5,36650,337,6.4,4.1
2019,7,24,14:00,UTC,1,1015.5,28,0,-1,28.5,8.5,43240,333,8.1,4.3
2019,7,24,15:00,UTC,1,1015.4,29,0,-1,28.6,8.7,37930,325,7.1,3.2
2019,7,24,16:00,UTC,0,1015.3,29,0,-1,28.5,9,49270,295,6.1,3.8
2019,7,24,17:00,UTC,0,1015.3,33,0,-1,27.3,9.6,50000,318,7.1,3.5
2019,7,24,18:00,UTC,0,1015.6,38,0,-1,25.7,10.4,50000,324,3.9,1.6
2019,7,24,19:00,UTC,0,1016,47,0,-1,23,11.1,50000,299,3.5,2.9
2019,7,24,20:00,UTC,0,1016.1,51,0,-1,21.4,10.9,50000,299,4.5,3.6
2019,7,24,21:00,UTC,0,1016.4,58,0,-1,21.1,12.6,50000,297,7.1,4.6
2019,7,24,22:00,UTC,0,1016.6,62,0,-1,20.7,13.2,50000,302,7,4.5
2019,7,24,23:00,UTC,0,1016.8,61,0,-1,20.3,12.5,50000,310,6.2,3.9
2019,7,25,00:00,UTC,0,1016.7,64,0,-1,19.4,12.4,50000,312,6.2,4.1
2019,7,25,01:00,UTC,0,1016.8,68,0,-1,18.7,12.6,50000,314,6.6,4
2019,7,25,02:00,UTC,0,1016.8,69,0,-1,18.6,12.8,50000,325,6.3,3.6
2019,7,25,03:00,UTC,0,1017.3,71,0,-1,18.4,13,50000,342,5.3,3.5
2019,7,25,04:00,UTC,0,1017.7,69,0,-1,19.4,13.4,43540,6,5.1,2.8
2019,7,25,05:00,UTC,0,1017.9,67,0,-1,20.6,14.4,40420,44,4.7,3
2019,7,25,06:00,UTC,0,1018.2,60,0,-1,21.9,13.7,41830,52,4.7,2.8
2019,7,25,07:00,UTC,0,1018.4,55,0,-1,23.1,13.5,36440,64,4.9,2.5
2019,7,25,08:00,UTC,0,1018.4,52,0,-1,23.5,13.2,39870,104,5.4,3.2
2019,7,25,09:00,UTC,0,1019.1,64,0,-1,22.8,15.6,37900,103,6.6,4.5
2019,7,25,10:00,UTC,0,1019.2,64,0,-1,22.6,15.4,34640,91,6.7,4.3
2019,7,25,11:00,UTC,0,1019.3,59,0,-1,22.3,13.8,37440,90,5.8,4.1
2019,7,25,12:00,UTC,0,1019.3,57,0,-1,23.7,14.6,36170,98,5.7,3.5
2019,7,25,13:00,UTC,0,1019,54,0,-1,23.6,13.9,37530,106,6.1,4.1
2019,7,25,14:00,UTC,0,1019,52,0,-1,23.5,13.1,48080,158,5.4,3.3
2019,7,25,15:00,UTC,0,1019.1,47,0,-1,24,11.9,46140,170,5.6,3.6
2019,7,25,16:00,UTC,0,1019.4,48,0,-1,23.6,11.9,48390,148,4.8,3.2
2019,7,25,17:00,UTC,0,1019.7,54,0,-1,22.3,12.4,50000,156,3,1.6
2019,7,25,18:00,UTC,0,1020,61,0,-1,20.7,12.9,50000,244,3.6,2.5
2019,7,25,19:00,UTC,0,1020,60,0,-1,20.1,12,50000,256,2.6,1.9
2019,7,25,20:00,UTC,0,1020.1,64,0,-1,19.3,12.3,50000,268,2.1,1.7
2019,7,25,21:00,UTC,0,1020.4,67,0,-1,18.5,12.2,50000,284,4.6,3.7
2019,7,25,22:00,UTC,0,1020.4,70,0,-1,18.1,12.6,50000,317,4.2,2.5
2019,7,25,23:00,UTC,0,1020.7,72,0,-1,18.3,13.2,50000,342,4.7,3.3
2019,7,26,00:00,UTC,0,1020.7,77,0,-1,17.4,13.4,50000,17,4,2.7
2019,7,26,01:00,UTC,0,1021.2,81,0,-1,16.7,13.4,49560,27,2.9,1.7
2019,7,26,02:00,UTC,0,1021.3,78,0,-1,18.1,14.3,50000,37,3.2,2.7
2019,7,26,03:00,UTC,0,1021.5,81,0,-1,18,14.6,48330,12,4.3,2.7
2019,7,26,04:00,UTC,0,1021.9,76,0,-1,19.5,15.1,42110,28,4.8,3.1
2019,7,26,05:00,UTC,0,1022.1,73,0,-1,20.7,15.7,36300,50,5,3.2
2019,7,26,06:00,UTC,0,1022.4,70,0,-1,22.1,16.3,32650,81,5.2,2.8
2019,7,26,07:00,UTC,1,1022.6,71,0,-1,22.1,16.6,41460,71,5,2.9
2019,7,26,08:00,UTC,1,1022.7,63,0,-1,23.9,16.3,32790,79,6.1,3.8
2019,7,26,09:00,UTC,1,1022.6,66,0,-1,24.3,17.5,39810,100,6,4.1
2019,7,26,10:00,UTC,0,1022.5,63,0,-1,24.8,17.3,28920,89,7.6,5.2
2019,7,26,11:00,UTC,0,1022.5,60,0,-1,25.2,16.9,35030,83,9.6,5.7
2019,7,26,12:00,UTC,0,1022.4,57,0,-1,25.1,16,40690,88,8.7,6.2
2019,7,26,13:00,UTC,0,1022.3,55,0,-1,25.9,16.1,44300,88,8.4,4.7
2019,7,26,14:00,UTC,0,1022.2,55,0,-1,26,16.3,38300,85,9.1,6.6
2019,7,26,15:00,UTC,0,1022,56,0,-1,26.1,16.6,31510,99,8.3,5.6
2019,7,26,16:00,UTC,0,1021.8,55,0,-1,26.1,16.5,43600,83,7.5,4.3
2019,7,26,17:00,UTC,0,1021.6,58,0,-1,25.3,16.3,43190,87,5.5,4.1
2019,7,26,18:00,UTC,1,1021.7,61,0,-1,24.7,16.7,42020,88,2.3,1.3
2019,7,26,19:00,UTC,0,1021.7,69,0,-1,22.5,16.5,48340,43,2,1.7
2019,7,26,20:00,UTC,0,1021.6,69,0,-1,22.2,16.2,43550,19,3.2,2.5
2019,7,26,21:00,UTC,0,1021.9,67,0,-1,22.1,15.7,48180,29,4,3
2019,7,26,22:00,UTC,0,1021.9,75,0,-1,20.4,15.8,37740,17,3.5,2.3
2019,7,26,23:00,UTC,0,1021.8,72,0,-1,20.9,15.6,38870,14,3.6,2.6
2019,7,27,00:00,UTC,0,1021.9,76,0,-1,19.9,15.4,41510,12,4.4,3.4
2019,7,27,01:00,UTC,0,1021.7,79,0,-1,18.8,15.1,39040,5,3.7,2.8
2019,7,27,02:00,UTC,0,1021.6,77,0,-1,19.1,15,37190,11,4.3,2.4
2019,7,27,03:00,UTC,0,1021.6,78,0,-1,19.1,15.3,44780,18,3.1,1.9
2019,7,27,04:00,UTC,0,1021.6,72,0,-1,21.8,16.5,40010,23,2.8,1.3
2019,7,27,05:00,UTC,0,1021.6,61,0,-1,23.8,15.8,37710,17,3.4,1.9
2019,7,27,06:00,UTC,0,1021.5,53,0,-1,26.5,16,39850,22,2.9,1.7
2019,7,27,07:00,UTC,0,1021.2,50,0,-1,27.6,16.1,32900,7,3.8,2.1
2019,7,27,08:00,UTC,0,1021,47,0,-1,28.7,16.4,38320,55,6,3.6
2019,7,27,09:00,UTC,0,1020.6,48,0,-1,29.6,17.3,34770,110,5.9,4
2019,7,27,10:00,UTC,0,1020.3,41,0,-1,29.8,15.3,38450,111,6.1,4.2
2019,7,27,11:00,UTC,0,1019.7,45,0,-1,29.7,16.5,29690,117,5.6,3.8
2019,7,27,12:00,UTC,0,1019.2,44,0,-1,29.9,16.3,32450,148,5.9,4.2
2019,7,27,13:00,UTC,0,1018.6,44,0,-1,29.2,15.8,38090,166,5.6,3.7
2019,7,27,14:00,UTC,0,1018.2,42,0,-1,29.4,15.3,35170,153,5,3.4
2019,7,27,15:00,UTC,0,1017.5,40,0,-1,29.6,14.7,37950,147,4.2,2
2019,7,27,16:00,UTC,0,1016.9,41,0,-1,28.9,14.4,47230,147,3.9,2.7
2019,7,27,17:00,UTC,0,1016.6,47,0,-1,27.3,15,44900,220,4,2.6
2019,7,27,18:00,UTC,0,1016.2,49,0,-1,25.9,14.2,50000,232,2.6,2
2019,7,27,19:00,UTC,0,1016.2,55,0,-1,24.2,14.5,49140,239,1.8,1.1
2019,7,27,20:00,UTC,0,1016.1,58,0,-1,23.2,14.6,50000,247,4,3.5
2019,7,27,21:00,UTC,0,1016,62,0,-1,23.3,15.7,43870,282,4.3,3.6
2019,7,27,22:00,UTC,0,1015.8,69,0,-1,21.8,15.9,44850,332,3.6,2.6
2019,7,27,23:00,UTC,0,1015.5,70,0,-1,21.3,15.6,40260,336,4,3.1
2019,7,28,00:00,UTC,0,1015.3,71,0,-1,20.9,15.4,48030,333,3.7,2.4
2019,7,28,01:00,UTC,0,1015.1,72,0,-1,20.4,15.2,42940,334,3.6,2.1
2019,7,28,02:00,UTC,1,1014.9,72,0,-1,20.2,15,35880,332,3.8,2.4
2019,7,28,03:00,UTC,0,1014.7,72,0,-1,20.6,15.3,36700,333,3.3,1.9
2019,7,28,04:00,UTC,0,1014.2,68,0,-1,22.1,15.9,37450,326,3.5,1.9
2019,7,28,05:00,UTC,0,1013.9,56,0,-1,26,16.6,36840,340,3.1,1.3
2019,7,28,06:00,UTC,0,1013.6,51,0,-1,28.1,17,39260,309,2.3,1
2019,7,28,07:00,UTC,0,1013.4,43,0,-1,30.1,16.3,34280,317,2.9,1.4
2019,7,28,08:00,UTC,1,1013,44,0,-1,30.4,16.7,31200,323,4.8,2.7
2019,7,28,09:00,UTC,3,1012.5,37,0,-1,31.9,15.6,31690,333,5.2,3
2019,7,28,10:00,UTC,7,1012.3,40,0,-1,31.3,16,49190,328,7.3,4.3
2019,7,28,11:00,UTC,0,1012,30,0,-1,32.5,12.5,41690,9,7.7,5
2019,7,28,12:00,UTC,3,1011.7,35,0,-1,32.2,14.9,42430,25,5.5,3.7
2019,7,28,13:00,UTC,1,1011.4,35,0,-1,31.5,14.1,42610,31,6.7,4.3
2019,7,28,14:00,UTC,3,1011.2,35,0,-1,31.2,14,50000,32,10.7,6.1
2019,7,28,15:00,UTC,7,1011.7,69,0,-1,25.9,19.7,24970,85,16.5,10.8
2019,7,28,16:00,UTC,1,1012.2,69,0,-1,24,17.9,31620,95,12.7,8.1
2019,7,28,17:00,UTC,7,1012.8,70,0,-1,22.6,16.9,36500,89,12.6,8.5
2019,7,28,18:00,UTC,3,1013.1,69,0,-1,21.7,15.7,36060,87,11,6.7
2019,7,28,19:00,UTC,1,1013.6,69,0,-1,20.9,14.9,42600,87,11.2,6.2
2019,7,28,20:00,UTC,0,1013.9,70,0,-1,20.4,14.7,45250,86,8.5,5.6
2019,7,28,21:00,UTC,1,1014.2,69,0,-1,20,14.2,50000,84,10.3,6.4
2019,7,28,22:00,UTC,1,1014.5,69,0,-1,19.3,13.5,50000,92,9.4,5.2
2019,7,28,23:00,UTC,1,1014.5,65,0,-1,18.5,11.8,50000,92,11,7
2019,7,29,00:00,UTC,1,1014.8,66,0,-1,17.8,11.3,50000,92,9.9,6.1
2019,7,29,01:00,UTC,1,1014.8,67,0,-1,17.2,10.9,50000,106,8.5,5.6
2019,7,29,02:00,UTC,1,1015.1,68,0,-1,16.7,10.7,50000,108,7.5,4.7
2019,7,29,03:00,UTC,1,1014.9,71,0,-1,16.6,11.2,50000,118,6.7,4.4
2019,7,29,04:00,UTC,3,1014.9,63,0,-1,17.5,10.3,43760,84,5.4,3.5
2019,7,29,05:00,UTC,1,1014.8,61,0,-1,17.9,10.1,40760,87,4.7,2.9
2019,7,29,06:00,UTC,5,1014.7,60,0,-1,18.2,10.2,39960,87,4.8,2.6
2019,7,29,07:00,UTC,5,1014.5,60,0,-1,17.6,9.7,50000,101,4.3,2.9
2019,7,29,08:00,UTC,7,1014.5,64,0,-1,17.7,10.7,45980,179,3.7,1.9
2019,7,29,09:00,UTC,7,1014.2,64,0,-1,17.4,10.6,44040,186,3.5,1.6
2019,7,29,10:00,UTC,,,,,,,,,,,
2019,7,29,11:00,UTC,7,1013.1,59,0,-1,18.6,10.5,40540,146,4.7,3
2019,7,29,12:00,UTC,7,1012.7,55,0,-1,19.9,10.6,35020,176,8.3,5.8
2019,7,29,13:00,UTC,3,1012.3,55,0,-1,20.4,11.1,41660,216,7.2,4.5
2019,7,29,14:00,UTC,5,1011.7,58,0,-1,19.5,10.9,43090,195,6,3.8
2019,7,29,15:00,UTC,5,1011.6,65,0,-1,17.6,10.9,47480,195,6,4
2019,7,29,16:00,UTC,7,1011.3,65,0,-1,17.5,10.9,50000,202,7.3,5.1
2019,7,29,17:00,UTC,7,1011,63,0,-1,18.6,11.5,50000,201,5.6,3.6
2019,7,29,18:00,UTC,5,1010.6,64,0,-1,18,11.2,50000,242,4,2.6
2019,7,29,19:00,UTC,7,1010.8,66,0,-1,17.3,10.9,50000,267,4.6,3
2019,7,29,20:00,UTC,7,1010.8,68,0,-1,17,11,50000,274,3.1,2.4
2019,7,29,21:00,UTC,7,1010.9,69,0,-1,16.8,11.1,50000,318,2.6,1.8
2019,7,29,22:00,UTC,5,1011.3,57,0,-1,16.3,7.8,50000,41,6.3,4.2
2019,7,29,23:00,UTC,1,1011.9,59,0,-1,14.5,6.6,50000,39,9,5.2
2019,7,30,00:00,UTC,1,1012.1,60,0,-1,13.7,6.1,50000,35,10,6.1
2019,7,30,01:00,UTC,3,1012.5,59,0,-1,13.2,5.5,50000,35,8.1,5.3
2019,7,30,02:00,UTC,7,1012.5,59,0,-1,12.9,5.1,50000,43,7.1,5
2019,7,30,03:00,UTC,8,1013.1,59,0,-1,12.4,4.6,50000,36,8.4,5.6
2019,7,30,04:00,UTC,7,1013.4,75,0,-1,10.8,6.6,50000,4,4.1,2.3
2019,7,30,05:00,UTC,5,1013.3,64,0,-1,12,5.3,44190,27,7.8,5.1
2019,7,30,06:00,UTC,1,1013.2,57,0,-1,13,4.8,42860,6,6.2,4.2
2019,7,30,07:00,UTC,1,1013.2,50,0,-1,13.9,3.6,43800,23,7.6,4.1
2019,7,30,08:00,UTC,5,1013.3,46,0,-1,14.9,3.5,43290,8,8.9,4.4
2019,7,30,09:00,UTC,5,1013.2,46,0,-1,14.9,3.4,47060,349,10,6.3
2019,7,30,10:00,UTC,5,1013.1,41,0,-1,16.6,3.2,37690,19,8.4,5
2019,7,30,11:00,UTC,5,1013.2,45,0,-1,15.5,3.7,49920,344,10.2,5.8
2019,7,30,12:00,UTC,3,1013.2,44,0,-1,16.2,3.8,45860,348,11.2,6
2019,7,30,13:00,UTC,8,1013.6,49,0,-1,14.6,4,46920,343,8.7,5.7
2019,7,30,14:00,UTC,8,1013.2,48,0,-1,14.6,3.7,50000,348,8.4,5.3
2019,7,30,15:00,UTC,8,1012.9,48,0,-1,14.9,3.9,50000,340,8.8,5.5
2019,7,30,16:00,UTC,8,1012.7,49,0,-1,14.9,4.2,50000,331,7.8,4.1
2019,7,30,17:00,UTC,8,1012.6,50,0,-1,14.5,4.1,50000,336,8.7,5.6
2019,7,30,18:00,UTC,7,1012.4,52,0,-1,14.2,4.4,50000,322,8.2,4
2019,7,30,19:00,UTC,7,1012.5,51,0,-1,13.9,4,50000,340,6.3,3.8
2019,7,30,20:00,UTC,7,1012.3,56,0,-1,13.3,4.7,50000,336,6.8,3.5
2019,7,30,21:00,UTC,5,1012.4,56,0,-1,12.6,4.1,50000,336,9.3,5.6
2019,7,30,22:00,UTC,8,1012.4,59,0,-1,12.4,4.7,50000,322,7.4,3.8
2019,7,30,23:00,UTC,7,1012.5,64,0,-1,11.9,5.3,44660,335,12,7
2019,7,31,00:00,UTC,8,1012.6,68,0,-1,11.4,5.8,41140,340,9.8,5.8
2019,7,31,01:00,UTC,7,1012.4,73,0,-1,11.1,6.5,50000,335,9.7,5.6
2019,7,31,02:00,UTC,8,1012.3,74,0,-1,11.1,6.7,50000,324,7.9,3.9
2019,7,31,03:00,UTC,8,1012.4,72,0,-1,11.3,6.4,50000,319,8.3,4.3
2019,7,31,04:00,UTC,7,1012.4,70,0,-1,11.8,6.5,50000,328,8.9,4.2
2019,7,31,05:00,UTC,7,1012.3,68,0,-1,12.3,6.6,50000,341,7,4.3
2019,7,31,06:00,UTC,3,1012.3,63,0,-1,13.5,6.6,44730,353,6.9,4
2019,7,31,07:00,UTC,1,1012.5,56,0,-1,14.9,6.3,41740,359,8.5,5.8
2019,7,31,08:00,UTC,0,1012.8,53,0,-1,15.8,6.2,42470,338,8.5,5.1
2019,7,31,09:00,UTC,0,1013.1,49,0,-1,17,6.3,42890,353,9.9,6.6
2019,7,31,10:00,UTC,0,1013.2,44,0,-1,19.2,6.6,37350,339,6.5,2.8
2019,7,31,11:00,UTC,0,1013.3,38,0,-1,19.9,5.2,44930,1,9.4,5.2
2019,7,31,12:00,UTC,0,1013.4,36,0,-1,20.6,4.8,44270,347,7.6,4
2019,7,31,13:00,UTC,0,1013.6,34,0,-1,20.7,4.1,45980,9,7.9,5
2019,7,31,14:00,UTC,0,1013.5,35,0,-1,21.2,5,41450,347,6.5,4.1
2019,7,31,15:00,UTC,0,1013.5,35,0,-1,20.5,4.5,49680,3,5.4,3.4
2019,7,31,16:00,UTC,0,1013.7,60,0,-1,18,10,50000,153,5.7,4.3
2019,7,31,17:00,UTC,0,1013.9,61,0,-1,18,10.3,50000,147,3.3,2.2
2019,7,31,18:00,UTC,0,1014.2,66,0,-1,16.9,10.4,50000,128,3.7,2.9
2019,7,31,19:00,UTC,0,1014.5,75,0,-1,16,11.5,50000,101,3.5,2.7
2019,7,31,20:00,UTC,0,1014.7,80,0,-1,15.1,11.6,48090,111,2.3,1.6
2019,7,31,21:00,UTC,0,1015,80,0,-1,14.8,11.4,50000,117,3.8,3
2019,7,31,22:00,UTC,1,1015.2,83,0,-1,14.5,11.6,50000,65,1.4,0.9
2019,7,31,23:00,UTC,1,1015.3,65,0,-1,13.7,7.3,50000,39,4.1,2.9
2019,8,1,00:00,UTC,1,1015.5,65,0,-1,13.1,6.6,50000,32,5.3,3.4
2019,8,1,01:00,UTC,7,1015.6,67,0,-1,12.4,6.5,50000,15,4.5,2.2
2019,8,1,02:00,UTC,7,1015.7,72,0,-1,11.7,6.8,32710,22,4.4,2.7
2019,8,1,03:00,UTC,7,1015.8,71,0,-1,11.5,6.3,24360,11,3.8,2.2
2019,8,1,04:00,UTC,7,1015.7,67,0,-1,12,6.2,23720,6,5.5,3.8
2019,8,1,05:00,UTC,1,1015.7,62,0,-1,12.8,5.7,26040,15,5.6,3.1
2019,8,1,06:00,UTC,0,1015.6,56,0,-1,14,5.3,27440,17,5.6,3.7
2019,8,1,07:00,UTC,0,1015.3,49,0,-1,15,4.3,34470,4,6.8,4.5
2019,8,1,08:00,UTC,0,1015.2,47,0,-1,15.8,4.4,32450,334,6,3.5
2019,8,1,09:00,UTC,0,1014.8,44,0,-1,16.9,4.6,38680,322,7.1,4.3
2019,8,1,10:00,UTC,1,1014.6,43,0,-1,16.8,4,33500,354,8.7,3.5
2019,8,1,11:00,UTC,1,1014.4,40,0,-1,17.6,4,34880,347,6.3,3
2019,8,1,12:00,UTC,0,1014,40,0,-1,18.4,4.6,40550,345,6.6,3.1
2019,8,1,13:00,UTC,1,1013.8,39,0,-1,18.9,4.7,38550,324,5.1,2.3
2019,8,1,14:00,UTC,3,1013.5,40,0,-1,19.6,5.6,35100,305,5.5,2.6
2019,8,1,15:00,UTC,3,1013.3,44,0,-1,18.2,5.7,36570,243,5.5,1.7
2019,8,1,16:00,UTC,7,1013.4,53,0,-1,16.8,7,42210,98,3.4,2.1
2019,8,1,17:00,UTC,8,1013.4,47,0,-1,16.3,5.1,47310,355,6,3.5
2019,8,1,18:00,UTC,3,1013.5,50,0,-1,15.1,4.8,50000,18,7.1,3.8
2019,8,1,19:00,UTC,1,1013.5,54,0,-1,13.9,4.8,50000,349,4,2.7
2019,8,1,20:00,UTC,0,1013.3,64,0,-1,11.6,5,50000,335,2.5,1.6
2019,8,1,21:00,UTC,1,1013,68,0,-1,10.7,5.1,50000,305,3,2.5
2019,8,1,22:00,UTC,7,1013,65,0,-1,11.7,5.3,37500,319,3.6,2.8
2019,8,1,23:00,UTC,7,1012.9,66,0,-1,11.9,5.6,50000,318,4.4,2.5
2019,8,2,00:00,UTC,8,1012.8,66,0,-1,12,5.8,50000,321,3.7,2.2
2019,8,2,01:00,UTC,5,1012.6,65,0,-1,11.7,5.4,50000,322,5.4,3.1
2019,8,2,02:00,UTC,0,1012.5,75,0,-1,9.8,5.5,50000,314,4.6,3
2019,8,2,03:00,UTC,7,1012,72,0,-1,10.5,5.6,25930,297,4.6,3.3
2019,8,2,04:00,UTC,7,1011.6,67,0,-1,11.9,5.9,46520,297,5,3.2
2019,8,2,05:00,UTC,8,1011.4,65,0,-1,12.8,6.5,40860,289,4.9,2.8
2019,8,2,06:00,UTC,7,1010.8,59,0,-1,16,8,29870,284,4.4,2.7
2019,8,2,07:00,UTC,0,1010.6,53,0,-1,17.5,7.8,37000,325,5.6,3
2019,8,2,08:00,UTC,0,1010.2,47,0,-1,18.7,7.2,38070,321,7,4.1
2019,8,2,09:00,UTC,3,1010.1,46,0,-1,19.4,7.4,38480,303,7.8,4.1
2019,8,2,10:00,UTC,5,1010.1,43,0,-1,20.3,7.4,39920,305,7.6,4.3
2019,8,2,11:00,UTC,5,1010.4,43,0,-1,19.7,6.6,33580,345,9.6,5.6
2019,8,2,12:00,UTC,1,1010.8,40,0,-1,19.7,5.6,41410,350,10.7,6.4
2019,8,2,13:00,UTC,1,1011,39,0,-1,19,4.6,34970,359,11.5,7
2019,8,2,14:00,UTC,3,1010.8,39,0,-1,19.3,4.9,40870,11,9.5,5.9
2019,8,2,15:00,UTC,5,1010.9,40,0,-1,18.7,4.8,49130,358,8.9,5.1
2019,8,2,16:00,UTC,1,1011.1,41,0,-1,18.2,4.6,50000,4,9.3,5.2
2019,8,2,17:00,UTC,1,1011.3,43,0,-1,16.9,4.2,50000,4,9.9,6.1
2019,8,2,18:00,UTC,7,1011.6,42,0,-1,16,3.2,50000,355,5.8,3.4
2019,8,2,19:00,UTC,3,1011.6,44,0,-1,15,2.7,50000,355,5.6,3.2
2019,8,2,20:00,UTC,3,1011.6,51,0,-1,13.3,3.5,50000,352,4.4,3
2019,8,2,21:00,UTC,3,1011.8,59,0,-1,12.1,4.3,50000,344,3.1,2.3
2019,8,2,22:00,UTC,0,1011.9,67,0,-1,10.4,4.5,50000,322,3.7,2.8
2019,8,2,23:00,UTC,0,1011.9,69,0,-1,10.4,5,50000,336,5.4,3.5
2019,8,3,00:00,UTC,0,1011.7,70,0,-1,10.8,5.4,50000,342,5.4,4.1
2019,8,3,01:00,UTC,0,1011.6,73,0,-1,10.4,5.8,50000,344,5.7,4.3
2019,8,3,02:00,UTC,0,1011.7,79,0,-1,9.1,5.7,50000,328,5.3,3.4
2019,8,3,03:00,UTC,0,1011.9,77,0,-1,9.6,5.8,50000,330,5.4,3
2019,8,3,04:00,UTC,0,1012,72,0,-1,11,6.1,50000,330,4.7,2.7
2019,8,3,05:00,UTC,3,1012,75,0,-1,10.8,6.5,48530,347,5.7,4.1
2019,8,3,06:00,UTC,1,1012,69,0,-1,12.8,7.2,34880,347,6.4,3.8
2019,8,3,07:00,UTC,5,1011.7,59,0,-1,14.3,6.4,43570,35,5.9,3.9
2019,8,3,08:00,UTC,7,1011.9,55,0,-1,14.5,5.6,49930,1,6.3,3.7
2019,8,3,09:00,UTC,7,1011.8,52,0,-1,16,6.1,37430,335,6.1,3
2019,8,3,10:00,UTC,5,1011.7,41,0,-1,16.3,3.1,36360,28,8.3,5
2019,8,3,11:00,UTC,5,1011.7,42,0,-1,16.3,3.2,47490,9,8.3,3.9
2019,8,3,12:00,UTC,3,1011.3,38,0,-1,16.8,2.2,41150,2,8,4.3
2019,8,3,13:00,UTC,3,1011.4,39,0,-1,16.6,2.6,49150,333,8.8,5.1
2019,8,3,14:00,UTC,3,1011.4,43,0,-1,17.1,4.4,48650,338,8.8,5.5
2019,8,3,15:00,UTC,5,1011.6,42,0,-1,15.7,3,50000,348,7.5,4.1
2019,8,3,16:00,UTC,1,1011.4,41,0,-1,15.6,2.3,50000,334,9.2,5.1
2019,8,3,17:00,UTC,0,1011.3,42,0,-1,14.9,2.1,50000,352,7.2,5.2
2019,8,3,18:00,UTC,0,1011.4,45,0,-1,14.3,2.4,50000,337,6.1,3.2
2019,8,3,19:00,UTC,0,1011.6,53,0,-1,12.7,3.3,50000,360,4.2,2.5
2019,8,3,20:00,UTC,0,1011.5,61,0,-1,10.7,3.5,50000,338,4,3.3
2019,8,3,21:00,UTC,0,1011.6,64,0,-1,10.3,3.8,50000,338,4.3,3.1
2019,8,3,22:00,UTC,0,1011.7,71,0,-1,9.1,4,50000,337,4.8,3.4
2019,8,3,23:00,UTC,0,1011.8,76,0,-1,8.2,4.1,50000,336,4.3,3.2
2019,8,4,00:00,UTC,0,1011.8,76,0,-1,8.7,4.7,50000,347,4.6,3.7
2019,8,4,01:00,UTC,0,1011.9,84,0,-1,7.3,4.7,50000,332,4.6,3
2019,8,4,02:00,UTC,0,1011.9,83,0,-1,7.6,4.9,50000,335,4.3,3
2019,8,4,03:00,UTC,0,1011.8,88,0,-1,6.7,4.8,50000,329,3.3,2.2
2019,8,4,04:00,UTC,0,1011.8,78,0,-1,9.4,5.8,50000,331,4.3,2.4
2019,8,4,05:00,UTC,7,1011.8,74,0,-1,10.6,6.2,50000,337,3.4,1.8
2019,8,4,06:00,UTC,8,1011.9,74,0,-1,11.2,6.7,50000,345,4.6,3.5
2019,8,4,07:00,UTC,7,1011.6,65,0,-1,13.2,6.8,45340,328,4.5,2.6
2019,8,4,08:00,UTC,7,1011.5,60,0,-1,13.6,5.9,47410,337,6.6,4.1
2019,8,4,09:00,UTC,7,1011.2,56,0,-1,13.8,5.3,50000,311,5.7,3
2019,8,4,10:00,UTC,5,1011,46,0,-1,15.4,3.8,39080,323,5.7,3
2019,8,4,11:00,UTC,3,1010.8,41,0,-1,15.7,2.5,47360,349,8,3.5
2019,8,4,12:00,UTC,3,1010.4,39,0,-1,17,2.9,42010,300,7,4.8
2019,8,4,13:00,UTC,1,1009.8,37,0,-1,17.6,2.8,40480,319,6.5,3.7
2019,8,4,14:00,UTC,1,1009.3,36,0,-1,18.3,3.1,45370,306,6.4,3.1
2019,8,4,15:00,UTC,1,1009,38,0,-1,17.6,3,48730,299,6.4,4.4
2019,8,4,16:00,UTC,3,1008.7,36,0,-1,18.1,3,49610,322,7.3,3.7
2019,8,4,17:00,UTC,0,1008.5,39,0,-1,16.6,2.5,50000,301,7.9,4.6
2019,8,4,18:00,UTC,0,1008.5,42,0,-1,15.6,2.9,50000,313,5.1,2.9
2019,8,4,19:00,UTC,0,1008.5,50,0,-1,13.5,3.2,50000,312,4.1,2.5
2019,8,4,20:00,UTC,0,1008.4,57,0,-1,11.9,3.6,50000,290,4.2,3.6
2019,8,4,21:00,UTC,0,1008.5,60,0,-1,11,3.6,50000,285,4.4,3.5
2019,8,4,22:00,UTC,0,1008.6,63,0,-1,11,4.1,50000,299,5.7,3.8
2019,8,4,23:00,UTC,0,1008.6,71,0,-1,10,4.9,50000,284,5.4,3.7
2019,8,5,00:00,UTC,0,1008.8,74,0,-1,9.4,5,50000,291,5.7,4.2
2019,8,5,01:00,UTC,0,1008.7,76,0,-1,8.9,5,50000,298,5.9,4.1
2019,8,5,02:00,UTC,0,1008.8,76,0,-1,8.5,4.5,50000,302,6.5,4
2019,8,5,03:00,UTC,0,1008.7,76,0,-1,8.2,4.2,50000,297,5.7,3.5
2019,8,5,04:00,UTC,0,1008.7,75,0,-1,8.6,4.4,50000,293,5.8,3.7
2019,8,5,05:00,UTC,0,1008.5,74,0,-1,9.7,5.2,37970,290,5.4,3.1
2019,8,5,06:00,UTC,0,1008.3,62,0,-1,12.5,5.4,42110,305,6.8,4.2
2019,8,5,07:00,UTC,0,1008,49,0,-1,16.3,5.7,36190,289,6.3,3.8
2019,8,5,08:00,UTC,0,1007.6,42,0,-1,18.3,5.2,43170,294,8.2,4.8
2019,8,5,09:00,UTC,0,1007,36,0,-1,20,4.5,44770,277,8.9,5
2019,8,5,10:00,UTC,3,1006.7,35,0,-1,21.2,5.3,39550,293,8.1,4.4
2019,8,5,11:00,UTC,1,1006.2,35,0,-1,22.1,6.1,36240,296,9.6,4.9
2019,8,5,12:00,UTC,5,1006.1,37,0,-1,21,5.7,46780,295,10.4,5.8
2019,8,5,13:00,UTC,5,1005.6,38,0,-1,20.8,5.9,36540,285,8.3,4.4
2019,8,5,14:00,UTC,7,1005.5,33,0,-1,22.8,5.7,46700,299,10.1,5.3
2019,8,5,15:00,UTC,7,1005.5,36,0,-1,21.7,5.7,50000,313,7.1,3.9
2019,8,5,16:00,UTC,5,1005.3,35,0,-1,22.1,6,47140,294,7,4
2019,8,5,17:00,UTC,3,1005.3,38,0,-1,20.7,5.8,48850,291,9.7,6
2019,8,5,18:00,UTC,3,1005.5,41,0,-1,19.8,6.2,50000,293,6.7,4.2
2019,8,5,19:00,UTC,1,1005.9,50,0,-1,17.8,7.3,50000,299,5.1,3.3
2019,8,5,20:00,UTC,0,1006.1,53,0,-1,16.4,6.8,50000,265,5.4,3.5
2019,8,5,21:00,UTC,0,1006.3,53,0,-1,15.4,6,50000,266,6.5,4.6
2019,8,5,22:00,UTC,0,1006.4,58,0,-1,14.5,6.3,50000,289,5.4,4
2019,8,5,23:00,UTC,0,1006.6,67,0,-1,13,7.1,50000,279,5.7,4.1
2019,8,6,00:00,UTC,0,1006.7,74,0,-1,12.8,8.3,50000,280,4.9,3.8
2019,8,6,01:00,UTC,0,1006.6,80,0,-1,12,8.6,50000,282,5,3.7
2019,8,6,02:00,UTC,7,1006.5,80,0,-1,11.9,8.7,21200,284,4.1,3.2
2019,8,6,03:00,UTC,3,1006.4,77,0,-1,12.1,8.3,50000,293,3.8,2.8
2019,8,6,04:00,UTC,0,1006.6,71,0,-1,13.5,8.4,43430,329,2.2,1.2
2019,8,6,05:00,UTC,3,1006.7,63,0,-1,15.3,8.3,44590,341,1.6,0.8
2019,8,6,06:00,UTC,7,1006.6,58,0,-1,16.6,8.2,36990,143,1.2,0.6
2019,8,6,07:00,UTC,7,1006.4,54,0,-1,17.4,8,34230,105,2.5,1.5
2019,8,6,08:00,UTC,5,1006.1,52,0,-1,18.3,8.3,39640,42,3.9,1.9
2019,8,6,09:00,UTC,7,1006.2,60,0,-1,20.4,12.4,32300,175,5.2,3
2019,8,6,10:00,UTC,7,1006.1,64,0,-1,20,12.9,43080,176,4.6,1.9
2019,8,6,11:00,UTC,5,1006.1,71,0,-1,19.3,14,37250,168,6,3.2
2019,8,6,12:00,UTC,3,1005.9,72,0,-1,18.9,13.7,38740,172,6.1,4.6
2019,8,6,13:00,UTC,3,1006,75,0,-1,18.9,14.3,33510,195,4.9,3.3
2019,8,6,14:00,UTC,5,1005.7,64,0,-1,21.4,14.3,31660,191,6,3.7
2019,8,6,15:00,UTC,5,1005.5,78,0,-1,18.9,15,29380,197,6.5,4.4
2019,8,6,16:00,UTC,3,1005.4,79,0,-1,18.7,15,42470,195,6.2,4.3
2019,8,6,17:00,UTC,7,1005.3,83,0,-1,18.1,15.1,28090,177,5.6,3.5
2019,8,6,18:00,UTC,7,1005.3,74,0,-1,17.2,12.5,50000,170,3.2,2.5
2019,8,6,19:00,UTC,0,1005.2,88,0,-1,16.4,14.4,35730,193,5.5,3.5
2019,8,6,20:00,UTC,7,1005.2,89,0,-1,16.3,14.5,48050,199,5.1,3.4
2019,8,6,21:00,UTC,8,1005.2,89,0,-1,16.5,14.7,36880,222,3.2,2.2
2019,8,6,22:00,UTC,7,1005,90,0,-1,16,14.4,37910,234,2.3,1.9
2019,8,6,23:00,UTC,1,1005.2,94,0,-1,14.9,14,24300,177,1.3,0.9
2019,8,7,00:00,UTC,7,1005,95,0,-1,15.4,14.5,26550,156,1.3,0.6
2019,8,7,01:00,UTC,7,1005,95,0,-1,15.1,14.4,12250,137,1.8,1.1
2019,8,7,02:00,UTC,7,1004.7,96,0,-1,15.4,14.8,11560,44,1.6,1.2
2019,8,7,03:00,UTC,1,1004.6,97,0,-1,14.4,14,5910,53,1.3,0.7
2019,8,7,04:00,UTC,3,1004.8,98,0,-1,15.2,14.8,5630,99,2.2,1.6
2019,8,7,05:00,UTC,7,1004.6,94,0,-1,16.3,15.3,15210,84,1.9,1.1
2019,8,7,06:00,UTC,7,1004.6,87,0,-1,17,14.8,34160,100,5.2,2.8
2019,8,7,07:00,UTC,7,1004.6,82,0,-1,17.4,14.2,48000,95,6.6,4.3
2019,8,7,08:00,UTC,7,1004.8,79,0,-1,17.7,14,38170,101,6,3.6
2019,8,7,09:00,UTC,5,1004.9,77,0,-1,17.9,13.7,46170,104,7.2,4.4
2019,8,7,10:00,UTC,7,1005.1,87,0.7,-1,16.5,14.4,8610,129,6.9,4.1
2019,8,7,11:00,UTC,5,1005.3,78,0,-1,17.9,14,48590,105,7.5,4
2019,8,7,12:00,UTC,5,1005.3,70,0,0,19.2,13.6,38520,89,7.6,5.7
2019,8,7,13:00,UTC,1,1005.2,68,0,0,19.1,13,46290,92,7.1,5
2019,8,7,14:00,UTC,7,1005.2,73,0,0,18.2,13.2,50000,101,7.5,5
2019,8,7,15:00,UTC,3,1004.9,70,0,0,18.7,13.1,50000,96,8.6,5.1
2019,8,7,16:00,UTC,5,1005.1,75,0,0,18.1,13.5,44270,107,7.8,5.1
2019,8,7,17:00,UTC,5,1005.3,80,0,0,17.3,13.8,35450,87,7.3,4.8
2019,8,7,18:00,UTC,7,1005.4,81,0,0,17.2,13.9,42350,89,5.8,4.3
2019,8,7,19:00,UTC,8,1005.4,84,0,0,16.8,14.1,36950,119,4.6,2.9
2019,8,7,20:00,UTC,5,1005.4,87,0,0,16.3,14.1,38500,123,2.9,2.3
2019,8,7,21:00,UTC,7,1005.5,87,0,0,16.2,14.1,36800,112,2.1,1.2
2019,8,7,22:00,UTC,5,1005.5,88,0,0,16,14,32800,31,2.5,1.9
2019,8,7,23:00,UTC,3,1005.2,91,0,0,15.4,13.9,23930,52,2.9,2.1
2019,8,8,00:00,UTC,7,1005.2,92,0,0,15.2,13.9,24230,25,2.3,1.4
2019,8,8,01:00,UTC,0,1005.3,97,0,-1,13.2,12.8,8270,52,1,0.6
2019,8,8,02:00,UTC,5,1005.3,97,0,-1,13.9,13.4,11200,27,2.4,1.8
2019,8,8,03:00,UTC,7,1005.3,94,0,-1,14.2,13.3,13910,61,1.9,1.3
2019,8,8,04:00,UTC,7,1005,97,0.1,-1,14.5,14,6950,89,3,2.3
2019,8,8,05:00,UTC,1,1004.9,95,0,-1,16.1,15.3,10830,86,1.8,1
2019,8,8,06:00,UTC,3,1004.8,87,0,-1,17.4,15.1,21130,185,2.3,0.8
2019,8,8,07:00,UTC,1,1004.8,87,0,0,17.4,15.2,28340,201,3.9,2.3
2019,8,8,08:00,UTC,3,1004.8,80,0,0,18.8,15.2,35820,165,5.9,3.9
2019,8,8,09:00,UTC,1,1004.6,69,0,0,20.3,14.5,38900,140,5.8,3.7
2019,8,8,10:00,UTC,3,1004.2,67,0,0,21,14.7,29690,167,5.2,2.5
2019,8,8,11:00,UTC,1,1004.1,63,0,-1,21.9,14.6,31260,,,
2019,8,8,12:00,UTC,0,1003.9,70,0,-1,19.9,14.3,36470,148,5.4,3.7
2019,8,8,13:00,UTC,0,1003.9,70,0,-1,20,14.4,35690,147,5.8,3.8
2019,8,8,14:00,UTC,7,1004,74,0,-1,19.6,14.8,34240,145,4.6,3.1
2019,8,8,15:00,UTC,7,1003.9,80,0,-1,18.9,15.3,32220,162,5.2,3.4
2019,8,8,16:00,UTC,5,1003.7,81,0,-1,18.3,15,28640,205,5.9,4.2
2019,8,8,17:00,UTC,5,1003.6,79,0,-1,18.3,14.7,30740,213,3.8,2.4
2019,8,8,18:00,UTC,7,1003.8,85,0,-1,17.6,15.1,28220,207,2.7,1.8
2019,8,8,19:00,UTC,7,1003.6,89,0,-1,17,15.2,27940,232,1.2,0.8
2019,8,8,20:00,UTC,5,1003.6,90,0,-1,16.5,14.9,24800,308,2.7,2
2019,8,8,21:00,UTC,7,1003.8,85,0,-1,16.6,14.2,32530,349,2.9,1.9
2019,8,8,22:00,UTC,7,1003.8,85,0,-1,15.7,13.2,37180,327,3,2
2019,8,8,23:00,UTC,7,1003.6,85,0,-1,15.6,13.1,40110,358,3.3,2.5
2019,8,9,00:00,UTC,7,1003.7,93,0,-1,14.3,13.1,26500,310,2,1.5
2019,8,9,01:00,UTC,7,1004,90,0,-1,14.9,13.3,36310,346,4,3.5
2019,8,9,02:00,UTC,5,1004.1,95,0,-1,13.8,13,22200,326,2.7,1.9
2019,8,9,03:00,UTC,3,1004.4,93,0,-1,13.7,12.7,26570,331,3.2,1.7
2019,8,9,04:00,UTC,5,1004.5,92,0,-1,14.2,12.9,25010,354,3.5,2.4
2019,8,9,05:00,UTC,7,1004.8,88,0,-1,15.1,13.1,26780,343,3.6,2
2019,8,9,06:00,UTC,7,1005,85,0,-1,15.6,13.1,27790,345,2.9,2
2019,8,9,07:00,UTC,3,1005.3,76,0,-1,17.7,13.5,31960,10,4.7,2.8
2019,8,9,08:00,UTC,1,1005.6,73,0,-1,18.7,13.7,38990,15,4.7,2.3
2019,8,9,09:00,UTC,7,1006.1,68,0,-1,19.4,13.4,40000,27,4.5,2.1
2019,8,9,10:00,UTC,3,1006.3,63,0,-1,20.1,12.7,45290,335,4.3,2.2
2019,8,9,11:00,UTC,5,1006.4,58,0,-1,20.9,12.3,42290,353,3.7,1.8
2019,8,9,12:00,UTC,1,1006.4,53,0,-1,21.6,11.5,47580,4,5.2,2.4
2019,8,9,13:00,UTC,1,1006.6,49,0,-1,21.6,10.5,42370,8,5.2,2.9
2019,8,9,14:00,UTC,3,1007.2,58,0,-1,22.6,14,35500,221,6.6,3.1
2019,8,9,15:00,UTC,5,1007.7,69,0,-1,20.9,15,29770,205,7.2,5.1
2019,8,9,16:00,UTC,7,1008.1,74,0,-1,19.1,14.5,42520,218,5.2,3.3
2019,8,9,17:00,UTC,1,1008.7,72,0,-1,18.2,13.1,50000,280,4,2.7
2019,8,9,18:00,UTC,1,1009.2,75,0,-1,17.6,13.2,48480,74,1.7,1.1
2019,8,9,19:00,UTC,1,1009.9,79,0,-1,16.3,12.6,50000,39,1,0.5
2019,8,9,20:00,UTC,1,1010.4,79,0,-1,15.4,11.9,50000,24,1.8,1.4
2019,8,9,21:00,UTC,0,1011,88,0,-1,14.3,12.4,36780,341,3.4,3
2019,8,9,22:00,UTC,0,1011.3,89,0,-1,13.8,12.1,39860,351,3.4,2.3
2019,8,9,23:00,UTC,0,1011.6,93,0,-1,13.3,12.3,31910,4,2.4,1.5
2019,8,10,00:00,UTC,0,1012,95,0,-1,12.6,11.8,22160,351,2.9,2.6
2019,8,10,01:00,UTC,0,1012.1,96,0,-1,12.2,11.5,23470,12,3.1,1.9
2019,8,10,02:00,UTC,0,1012.3,97,0,-1,11.4,11,12070,12,3.1,2.5
2019,8,10,03:00,UTC,0,1012.6,98,0,-1,11.8,11.5,14560,17,2.3,2
2019,8,10,04:00,UTC,0,1013,85,0,-1,14.5,12,30270,51,1.7,1.4
2019,8,10,05:00,UTC,0,1013,72,0,-1,17.4,12.4,38020,89,1.6,0.9
2019,8,10,06:00,UTC,0,1013.5,73,0,-1,19.7,14.8,32450,153,3.5,2
2019,8,10,07:00,UTC,1,1013.7,70,0,-1,21,15.3,33370,131,4.8,3
2019,8,10,08:00,UTC,0,1014,62,0,-1,21.3,13.7,42090,171,4.1,2.7
2019,8,10,09:00,UTC,0,1013.8,56,0,-1,21.8,12.7,32590,127,5.2,3.4
2019,8,10,10:00,UTC,0,1013.7,50,0,-1,22.4,11.4,35570,143,4.8,3.6
2019,8,10,11:00,UTC,0,1013.7,59,0,-1,22,13.6,39960,157,6.1,3.8
2019,8,10,12:00,UTC,0,1013.9,54,0,-1,22.3,12.4,38100,159,4.8,2.6
2019,8,10,13:00,UTC,0,1013.5,52,0,-1,21.9,11.6,45090,135,4.1,2.3
2019,8,10,14:00,UTC,0,1013.2,46,0,-1,22.2,10,41820,130,4.5,3.3
2019,8,10,15:00,UTC,0,1013,55,0,-1,21,11.7,50000,146,4,2.8
2019,8,10,16:00,UTC,1,1012.9,74,0,-1,19.4,14.7,45660,134,4.1,2.7
2019,8,10,17:00,UTC,0,1012.7,75,0,-1,18.8,14.4,46300,144,5,3.4
2019,8,10,18:00,UTC,3,1012.8,81,0,-1,18.6,15.2,44920,152,4.6,3.1
2019,8,10,19:00,UTC,0,1012.8,81,0,-1,18.1,14.7,40750,149,3.1,2
2019,8,10,20:00,UTC,7,1012.7,77,0,-1,18.7,14.5,34530,131,3.6,2.3
2019,8,10,21:00,UTC,7,1012.3,81,0,-1,18.3,14.9,37650,93,2.9,2.4
2019,8,10,22:00,UTC,7,1012,86,0,-1,18.2,15.8,31310,135,3.7,2.2
2019,8,10,23:00,UTC,7,1011.7,81,0,-1,18.7,15.4,40820,154,4.3,2.6
2019,8,11,00:00,UTC,7,1011.4,86,0,-1,18.4,16,30800,153,4.5,3.2
2019,8,11,01:00,UTC,1,1011,85,0,-1,17.8,15.3,35800,144,5.9,3.7
2019,8,11,02:00,UTC,5,1010.5,86,0,-1,17.3,15,39520,144,4.2,2.6
2019,8,11,03:00,UTC,3,1010.2,84,0,-1,17.7,14.9,40580,106,5,3.6
2019,8,11,04:00,UTC,7,1009.8,85,0,-1,18.2,15.6,41520,123,6.8,4.1
2019,8,11,05:00,UTC,3,1009.7,84,0,-1,18.1,15.5,40610,155,8.5,5.6
2019,8,11,06:00,UTC,7,1009.7,82,0,-1,18,14.9,42300,178,10.3,6.1
2019,8,11,07:00,UTC,3,1009.5,79,0,-1,17.7,14,28280,148,9.2,6.1
2019,8,11,08:00,UTC,7,1009.3,87,1.2,-1,16.2,14.1,12830,115,8.6,5.5
2019,8,11,09:00,UTC,7,1009,87,0,-1,16.6,14.4,29600,104,9.4,6
2019,8,11,10:00,UTC,7,1008.9,92,0.2,-1,16.7,15.4,25870,124,9.5,5.6
2019,8,11,11:00,UTC,7,1008.8,94,0.5,-1,16.1,15.1,21320,133,10.8,6.2
2019,8,11,12:00,UTC,7,1008.6,97,22.1,-1,16.2,15.7,1720,127,9.2,5.4
2019,8,11,13:00,UTC,7,1008.5,91,0,-1,18.7,17.2,16910,169,10.4,5.7
2019,8,11,14:00,UTC,5,1008.7,85,0,-1,19.4,16.9,16170,199,8.8,5.4
2019,8,11,15:00,UTC,7,1008.6,83,0,-1,20,17,16420,182,7.1,4.2
2019,8,11,16:00,UTC,7,1008.6,85,0,-1,18.9,16.4,17610,175,6,3.7
2019,8,11,17:00,UTC,8,1008.9,89,0,-1,18.4,16.5,14990,167,7.1,4.4
2019,8,11,18:00,UTC,7,1009.1,89,0,-1,18.2,16.4,21460,201,7.4,4.4
2019,8,11,19:00,UTC,7,1009.3,91,0,-1,17.9,16.5,15550,192,7.4,4.5
2019,8,11,20:00,UTC,7,1009.5,91,0,-1,17.7,16.2,16500,196,7.1,4.3
2019,8,11,21:00,UTC,7,1009.7,92,0,-1,17.4,16,18140,194,6.8,4
2019,8,11,22:00,UTC,5,1009.8,93,0,-1,17.6,16.5,14800,194,8.6,5.7
2019,8,11,23:00,UTC,7,1009.9,92,0,-1,17.8,16.5,13530,201,9.8,5.8
2019,8,12,00:00,UTC,7,1010.1,93,0,-1,17.7,16.5,14860,202,8.8,5.8
2019,8,12,01:00,UTC,7,1010,92,0,-1,17.6,16.3,14000,200,8.2,5.6
2019,8,12,02:00,UTC,3,1010,94,0,-1,17.2,16.2,11590,202,8.2,5.6
2019,8,12,03:00,UTC,7,1010,93,0,-1,17.5,16.4,13840,205,6.8,4.7
2019,8,12,04:00,UTC,5,1010.4,91,0,-1,17.7,16.3,17310,221,6.7,4.3
2019,8,12,05:00,UTC,5,1010.4,84,0,-1,18.9,16.1,32070,209,5.4,3.1
2019,8,12,06:00,UTC,7,1010.8,81,0,-1,19,15.7,35400,209,5.8,3.6
2019,8,12,07:00,UTC,7,1010.9,85,0,-1,18.9,16.4,19970,204,10.1,6.8
2019,8,12,08:00,UTC,1,1011.3,80,0,-1,20.1,16.5,19400,203,8.7,5.7
2019,8,12,09:00,UTC,3,1011.4,78,0,-1,20.5,16.5,20550,194,11,7.1
2019,8,12,10:00,UTC,7,1011.2,84,0,-1,19.4,16.6,23900,178,7.5,3.7
2019,8,12,11:00,UTC,3,1011,73,0,-1,21.1,16.1,24140,193,9,6.1
2019,8,12,12:00,UTC,3,1010.9,76,0,-1,20.7,16.3,24380,200,11.4,7.2
2019,8,12,13:00,UTC,7,1010.7,76,0,-1,20,15.7,23470,209,9,5.6
2019,8,12,14:00,UTC,3,1010.5,77,0,-1,19.7,15.5,23230,210,11.3,6.8
2019,8,12,15:00,UTC,1,1010.6,76,0,-1,18.9,14.5,29830,194,14.1,8.9
2019,8,12,16:00,UTC,7,1010.2,81,0,-1,18.2,15,33500,201,12.2,6.7
2019,8,12,17:00,UTC,7,1010.1,81,0,-1,17.5,14.2,34890,200,9.6,5.8
2019,8,12,18:00,UTC,5,1010,86,0,-1,16.8,14.4,39530,211,10.1,6.4
2019,8,12,19:00,UTC,5,1009.8,88,0,-1,16.4,14.4,31930,207,7.6,4.2
2019,8,12,20:00,UTC,5,1009.8,88,0,-1,16.3,14.3,29890,212,8.3,5.1
2019,8,12,21:00,UTC,5,1009.6,91,0,-1,15.9,14.4,25790,210,6.3,4.4
2019,8,12,22:00,UTC,1,1009.7,92,0,-1,15.6,14.3,26830,220,6.8,3.9
2019,8,12,23:00,UTC,1,1009.6,93,0,-1,15.4,14.3,23500,203,5.5,3.9
2019,8,13,00:00,UTC,7,1009.4,92,0,-1,16.4,15.1,21500,195,6.7,4.7
2019,8,13,01:00,UTC,7,1008.9,92,0,-1,16.2,14.9,23700,197,7.1,4.3
2019,8,13,02:00,UTC,7,1008.5,91,0,-1,16.1,14.7,23270,191,6.8,4.3
2019,8,13,03:00,UTC,7,1008.3,92,0,-1,16.3,15,21160,189,6.1,4
2019,8,13,04:00,UTC,7,1008.3,90,0,-1,16.4,14.7,25140,195,8.3,5.7
2019,8,13,05:00,UTC,7,1008.3,88,0,-1,16.7,14.7,21380,194,7.9,4.6
2019,8,13,06:00,UTC,7,1008.2,88,0,-1,16.8,14.8,23220,206,7.9,5.2
2019,8,13,07:00,UTC,7,1008.2,84,0,-1,17.7,15,23790,193,7.5,5.4
2019,8,13,08:00,UTC,7,1008,79,0,-1,19,15.4,24060,191,7.5,5.3
2019,8,13,09:00,UTC,3,1007.6,76,0,-1,19.1,14.8,27530,191,8.4,4.9
2019,8,13,10:00,UTC,3,1007.3,77,0,-1,19.6,15.5,32430,187,7.4,4.9
2019,8,13,11:00,UTC,3,1007.2,73,0,-1,20,15,27320,198,10.8,6
2019,8,13,12:00,UTC,3,1007.2,69,0,-1,20.6,14.7,33670,196,10.5,7.3
2019,8,13,13:00,UTC,1,1006.9,69,0,-1,20.9,14.9,33930,188,10.2,7.2
2019,8,13,14:00,UTC,1,1006.7,72,0,-1,20.5,15.3,29350,193,8.8,6.2
2019,8,13,15:00,UTC,1,1006.7,73,0,-1,20,15,31530,174,9.3,7
2019,8,13,16:00,UTC,5,1006.7,68,0,-1,20.2,14.1,42100,189,7.7,4.3
2019,8,13,17:00,UTC,0,1006.8,71,0,-1,18.4,13,45330,203,8.2,5.6
2019,8,13,18:00,UTC,0,1006.8,77,0,-1,17.3,13.2,29660,218,10.8,5.9
2019,8,13,19:00,UTC,0,1006.7,83,0,-1,16.5,13.6,28640,217,7.1,4.9
2019,8,13,20:00,UTC,0,1007,86,0,-1,16,13.8,37290,226,5.8,3.9
2019,8,13,21:00,UTC,0,1007.3,88,0,-1,16,14.1,34640,223,6.1,4.1
2019,8,13,22:00,UTC,0,1007.2,86,0,-1,16,13.7,29430,222,5.8,4
2019,8,13,23:00,UTC,0,1007,87,0,-1,16.1,13.8,27530,206,7.5,5.1
2019,8,14,00:00,UTC,3,1006.8,88,0,-1,16.3,14.3,28240,201,7.3,4.8
2019,8,14,01:00,UTC,7,1006.5,90,0,-1,16.5,14.8,24490,174,8.6,4.2
2019,8,14,02:00,UTC,7,1006.2,94,4.3,-1,15.9,15,5750,199,7.2,4.2
2019,8,14,03:00,UTC,5,1006.2,94,0,-1,15.4,14.5,26280,200,7.1,5.1
2019,8,14,04:00,UTC,7,1006.2,94,0,-1,15.9,14.9,25290,200,7.3,4.3
2019,8,14,05:00,UTC,5,1005.9,88,0,-1,16.5,14.6,31140,190,11.4,6.2
2019,8,14,06:00,UTC,7,1006.3,83,0,-1,16.7,13.8,30210,202,12,7.9
2019,8,14,07:00,UTC,7,1006.1,74,0,-1,17.3,12.6,42580,237,6.6,4.3
2019,8,14,08:00,UTC,1,1006.7,71,0,-1,17.6,12.2,41160,212,9.8,7.3
2019,8,14,09:00,UTC,1,1006.8,68,0,-1,18.3,12.1,35130,213,10.9,8.2
2019,8,14,10:00,UTC,1,1007.1,64,0,-1,19.7,12.8,38180,201,12,7.8
2019,8,14,11:00,UTC,3,1007.1,62,0,-1,19.1,11.6,47810,219,12.8,8.3
2019,8,14,12:00,UTC,1,1007.2,58,0,-1,19.3,10.8,43870,229,11.2,7.2
2019,8,14,13:00,UTC,1,1007.1,56,0,-1,19.9,11,39090,220,12.5,7.7
2019,8,14,14:00,UTC,0,1007.2,53,0,-1,19.9,10.1,45300,208,11.3,7.2
2019,8,14,15:00,UTC,1,1007.4,61,0,-1,18.9,11.2,43420,209,12.4,7.5
2019,8,14,16:00,UTC,5,1007.6,66,0,-1,17.4,11,41810,220,12.4,7.6
2019,8,14,17:00,UTC,0,1007.9,65,0,-1,16.6,10,47730,220,12.3,7.5
2019,8,14,18:00,UTC,0,1008,69,0,-1,15.7,10,47570,222,8,5.5
2019,8,14,19:00,UTC,0,1007.7,71,0,-1,14.9,9.7,50000,231,7.4,4.2
2019,8,14,20:00,UTC,0,1007.5,74,0,-1,14.8,10.2,49510,226,7.3,4.2
2019,8,14,21:00,UTC,0,1007.5,78,0,-1,14.7,10.9,43900,223,6.1,4.3
2019,8,14,22:00,UTC,1,1007.3,75,0,-1,14.9,10.6,45480,225,6.4,4.3
2019,8,14,23:00,UTC,0,1007,80,0,-1,14.5,11,50000,205,4.5,3.3
2019,8,15,00:00,UTC,3,1006.8,82,0,-1,15,12,35740,207,6.6,4.2
2019,8,15,01:00,UTC,7,1006.8,78,0,-1,15.1,11.3,48540,208,6.6,4
2019,8,15,02:00,UTC,3,1006.5,80,0,-1,14.2,10.9,44370,202,5.5,3.8
2019,8,15,03:00,UTC,5,1006.5,76,0,-1,15.1,10.8,50000,225,7.2,4.7
2019,8,15,04:00,UTC,5,1006.7,71,0,-1,14.8,9.7,50000,227,6.8,4.7
2019,8,15,05:00,UTC,1,1006.6,72,0,-1,14.4,9.5,50000,236,5.9,3.7
2019,8,15,06:00,UTC,0,1006.8,69,0,-1,16.4,10.6,50000,233,6.1,3.7
2019,8,15,07:00,UTC,1,1006.9,70,0,-1,15.7,10.3,50000,244,6,4
2019,8,15,08:00,UTC,7,1006.9,71,0,-1,16,10.8,24120,257,8.2,4.2
2019,8,15,09:00,UTC,7,1007.3,64,0,-1,16.7,9.9,42990,262,9.6,5.6
2019,8,15,10:00,UTC,1,1007.5,56,0,-1,18,9.1,48720,258,9.6,5.1
2019,8,15,11:00,UTC,5,1007.7,50,0,-1,18.7,8,50000,260,10.7,7.1
2019,8,15,12:00,UTC,5,1008,44,0,-1,20.4,7.9,41780,234,12.8,8.1
2019,8,15,13:00,UTC,5,1008.5,56,0,-1,18.7,9.8,27700,257,8.9,5
2019,8,15,14:00,UTC,5,1008.7,52,0,-1,19.2,9.2,50000,227,7.8,4.9
2019,8,15,15:00,UTC,1,1009.1,39,0,-1,20.3,5.9,50000,266,10.3,6.4
2019,8,15,16:00,UTC,0,1009.5,42,0,-1,19.2,6.1,50000,243,10.6,6.7
2019,8,15,17:00,UTC,0,1010.1,46,0,-1,17.9,6.2,50000,245,8.7,6.2
2019,8,15,18:00,UTC,0,1010.8,50,0,-1,16.9,6.3,50000,245,7.8,5.5
2019,8,15,19:00,UTC,0,1011.4,60,0,-1,15.4,7.6,50000,237,6.6,4.6
2019,8,15,20:00,UTC,0,1012.1,70,0,-1,14.9,9.5,50000,239,7.6,5.1
2019,8,15,21:00,UTC,0,1012.7,75,0,-1,14.2,9.9,50000,234,6.5,4.3
2019,8,15,22:00,UTC,0,1012.8,79,0,-1,13.5,10,50000,238,5.6,3.7
2019,8,15,23:00,UTC,0,1013.1,85,0,-1,13,10.5,50000,235,4.3,3.4
2019,8,16,00:00,UTC,0,1013.2,89,0,-1,12.9,11.2,50000,228,4.1,3
2019,8,16,01:00,UTC,1,1013.4,94,0,-1,12.7,11.8,49810,225,3.9,2.7
2019,8,16,02:00,UTC,0,1013.5,95,0,-1,12.4,11.7,38620,216,4.2,3.4
2019,8,16,03:00,UTC,0,1013.7,92,0,-1,13,11.8,50000,213,4.1,3.1
2019,8,16,04:00,UTC,0,1013.8,85,0,-1,14.6,12.1,42850,207,4.4,3.2
2019,8,16,05:00,UTC,0,1014.2,78,0,-1,16.4,12.6,39300,208,6,4.1
2019,8,16,06:00,UTC,0,1014.3,73,0,-1,17.4,12.6,41720,213,7.7,5.2
2019,8,16,07:00,UTC,1,1014.6,79,0,-1,17.8,14.1,39960,215,7.4,4
2019,8,16,08:00,UTC,7,1014.6,74,0,-1,19.1,14.4,32170,196,9,5.9
2019,8,16,09:00,UTC,3,1014.8,71,0,-1,19.2,13.7,37890,202,7.9,5.2
2019,8,16,10:00,UTC,3,1015,71,0,-1,19.5,14,35020,192,6.5,4.3
2019,8,16,11:00,UTC,5,1015,65,0,-1,19.7,13,39280,195,8.8,6.7
2019,8,16,12:00,UTC,7,1015.1,56,0,-1,20.6,11.6,42850,192,10.5,7.1
2019,8,16,13:00,UTC,7,1015,64,0,-1,19.9,12.9,38580,206,9.3,6.3
2019,8,16,14:00,UTC,5,1015.3,64,0,-1,19.1,12.1,45150,208,6.5,4.1
2019,8,16,15:00,UTC,7,1015.1,59,0,-1,18.9,10.8,45510,211,6.8,4.4
2019,8,16,16:00,UTC,7,1015.1,63,0,-1,18.9,11.6,44150,214,4.6,2.9
2019,8,16,17:00,UTC,7,1015.2,70,0,-1,18.1,12.5,46240,171,3.9,2.4
2019,8,16,18:00,UTC,7,1015.2,73,0,-1,17.4,12.6,44910,144,4.1,3
2019,8,16,19:00,UTC,7,1015.2,80,0,-1,17,13.6,44220,132,5.7,3.8
2019,8,16,20:00,UTC,7,1015.2,80,0,-1,17.1,13.6,44130,118,5.4,3.7
2019,8,16,21:00,UTC,7,1015.3,83,0,-1,17.1,14.1,47590,128,5.5,3.4
2019,8,16,22:00,UTC,7,1015.2,81,0,-1,17.4,14.1,50000,122,4.7,3.6
2019,8,16,23:00,UTC,7,1015.2,81,0,-1,17.2,13.8,48110,126,4.3,3.2
2019,8,17,00:00,UTC,3,1015,81,0,-1,16.7,13.4,49200,127,5.4,3.8
2019,8,17,01:00,UTC,7,1014.9,82,0,-1,16.7,13.6,50000,121,4.7,3.2
2019,8,17,02:00,UTC,7,1014.7,79,0,-1,17.1,13.4,50000,130,7.4,4.2
2019,8,17,03:00,UTC,5,1014.5,79,0,-1,16.9,13.2,50000,137,5.5,3.9
2019,8,17,04:00,UTC,7,1014.6,77,0,-1,17.3,13.3,42110,152,7.5,4.7
2019,8,17,05:00,UTC,7,1014.8,79,0,-1,17.1,13.5,47360,161,6.5,3.9
2019,8,17,06:00,UTC,5,1014.8,78,0,-1,17.4,13.5,44480,171,6.8,3.5
2019,8,17,07:00,UTC,3,1014.9,79,0,-1,17.9,14.2,33910,173,6.7,4.4
2019,8,17,08:00,UTC,0,1015.1,72,0,-1,19.6,14.5,34880,158,6.5,3.7
2019,8,17,09:00,UTC,0,1015.3,68,0,-1,20,14,34900,149,6.5,4.1
2019,8,17,10:00,UTC,5,1015.3,67,0,-1,20.3,14,43010,144,6.2,4.1
2019,8,17,11:00,UTC,3,1015.3,63,0,-1,20.8,13.5,35440,148,6.4,4.5
2019,8,17,12:00,UTC,5,1015,59,0,-1,21.9,13.5,35530,140,6.1,4.6
2019,8,17,13:00,UTC,3,1014.7,57,0,-1,22.7,13.8,41450,147,5.2,3.4
2019,8,17,14:00,UTC,7,1014.4,63,0,-1,20.9,13.7,41910,134,4.4,2.9
2019,8,17,15:00,UTC,1,1014.2,63,0,-1,20.9,13.7,40720,94,4.8,3
2019,8,17,16:00,UTC,1,1014,61,0,-1,21,13.3,49020,122,3.6,2.5
2019,8,17,17:00,UTC,5,1014,68,0,-1,20.1,14,45960,104,2.5,1.5
2019,8,17,18:00,UTC,1,1013.9,74,0,-1,19.2,14.4,49420,92,3.3,2.8
2019,8,17,19:00,UTC,0,1013.7,80,0,-1,18.3,14.7,42550,108,3.8,3
2019,8,17,20:00,UTC,7,1013.7,74,0,-1,18.8,14,50000,141,5,3.4
2019,8,17,21:00,UTC,5,1013.5,70,0,-1,19.2,13.5,45820,148,9.2,5.6
2019,8,17,22:00,UTC,3,1013.5,70,0,-1,18.5,13,50000,142,9.6,5.4
2019,8,17,23:00,UTC,7,1013.4,72,0,-1,18.2,13,50000,138,7.4,4.9
2019,8,18,00:00,UTC,1,1013.3,74,0,-1,17.5,12.9,50000,151,6.9,4
2019,8,18,01:00,UTC,1,1013.2,76,0,-1,17.2,13,50000,143,7.3,4.5
2019,8,18,02:00,UTC,1,1012.8,75,0,-1,17,12.6,50000,140,7.1,4.4
2019,8,18,03:00,UTC,7,1012.8,75,0,-1,17.1,12.6,49790,144,8.6,4.7
2019,8,18,04:00,UTC,0,1012.8,76,0,-1,17.1,12.9,47250,145,6.1,3.9
2019,8,18,05:00,UTC,0,1012.5,72,0,-1,18.2,13.1,43920,134,7.8,5
2019,8,18,06:00,UTC,0,1012.5,66,0,-1,18.9,12.5,43160,129,8.4,5.6
2019,8,18,07:00,UTC,7,1012.6,60,0,-1,20.1,12.1,40100,129,8.7,6.3
2019,8,18,08:00,UTC,7,1012.2,55,0,-1,20.9,11.3,40980,122,11.5,6.6
2019,8,18,09:00,UTC,7,1012.1,56,0,-1,20.6,11.4,43910,116,11.9,7.1
2019,8,18,10:00,UTC,7,1012.1,55,0,-1,20.8,11.4,46630,106,8.7,5.4
2019,8,18,11:00,UTC,7,1012,60,0,-1,20,12.1,44220,90,10.2,7.1
2019,8,18,12:00,UTC,5,1011.8,53,0,-1,21.6,11.5,40830,96,10.4,6.1
2019,8,18,13:00,UTC,5,1011.7,52,0,-1,21.2,10.9,48080,98,10,6.8
2019,8,18,14:00,UTC,1,1011.5,55,0,-1,20.3,11.1,40700,88,10.6,6.3
2019,8,18,15:00,UTC,1,1010.9,57,0,-1,20,11.2,49050,92,11.4,6.4
2019,8,18,16:00,UTC,5,1010.8,64,0,-1,19.1,12,50000,87,10,6.3
2019,8,18,17:00,UTC,7,1010.6,68,0,-1,18.8,12.7,47960,91,8.4,5.4
2019,8,18,18:00,UTC,7,1010.2,70,0,-1,18.9,13.3,50000,92,6.6,4.1
2019,8,18,19:00,UTC,5,1009.7,66,0,-1,19.4,12.9,48230,110,8.7,5.2
2019,8,18,20:00,UTC,7,1009.4,65,0,-1,19.3,12.5,50000,120,11.1,6.4
2019,8,18,21:00,UTC,7,1009.3,67,0,-1,18.8,12.6,50000,122,9.5,5.6
2019,8,18,22:00,UTC,7,1008.9,65,0,-1,18.8,12.2,50000,125,6.5,3.9
2019,8,18,23:00,UTC,7,1008.5,67,0,-1,18.8,12.5,50000,124,6.5,4.4
2019,8,19,00:00,UTC,7,1007.9,70,0,-1,18.4,12.8,47520,121,8.9,5.4
2019,8,19,01:00,UTC,7,1007.3,69,0,-1,18.4,12.7,50000,129,8.9,5.4
2019,8,19,02:00,UTC,7,1006.7,71,0,-1,18.2,12.8,47160,138,10,6.6
2019,8,19,03:00,UTC,7,1006.5,84,0.7,-1,16.9,14.2,16560,133,7.5,4.9
2019,8,19,04:00,UTC,8,1006.4,87,0.1,-1,16.7,14.5,19880,134,7.2,4.6
2019,8,19,05:00,UTC,7,1005.9,84,0,-1,17,14.2,37100,136,9.5,6.3
2019,8,19,06:00,UTC,7,1006.2,94,8.6,-1,15.9,14.9,3010,146,10,6.1
2019,8,19,07:00,UTC,7,1005.8,94,0.6,-1,16.3,15.3,15320,116,7.6,5.3
2019,8,19,08:00,UTC,7,1006,90,0,-1,16.8,15.1,29750,117,8.7,5.3
2019,8,19,09:00,UTC,8,1006.1,89,0,-1,17.2,15.3,8390,154,9.3,4.7
2019,8,19,10:00,UTC,8,1006.7,96,0,-1,17.5,16.9,4460,201,8.4,5.3
2019,8,19,11:00,UTC,1,1006.9,83,0,-1,20,16.9,40030,204,8.4,5.5
2019,8,19,12:00,UTC,5,1008,83,0,-1,19.4,16.5,45120,211,7.7,4.8
2019,8,19,13:00,UTC,1,1008.7,76,0,-1,19.6,15.2,50000,220,9,6.3
2019,8,19,14:00,UTC,3,1009.6,77,0,-1,19.3,15.2,47400,205,8.7,5.4
2019,8,19,15:00,UTC,1,1010.3,72,0,-1,19.8,14.5,47290,214,9.4,6.4
2019,8,19,16:00,UTC,3,1010.9,76,0,-1,18.2,14,50000,219,10.3,6.2
2019,8,19,17:00,UTC,1,1011.5,80,0,-1,17.7,14.1,50000,209,8.6,5.4
2019,8,19,18:00,UTC,0,1012,83,0,-1,16.7,13.7,50000,220,9.7,5.6
2019,8,19,19:00,UTC,0,1012.4,83,0,-1,15.8,13,49990,233,8.1,5.4
2019,8,19,20:00,UTC,0,1012.9,88,0,-1,15.4,13.3,46660,226,6.2,4.2
2019,8,19,21:00,UTC,0,1013.5,89,0,-1,15.1,13.3,34370,231,6.5,3.6
2019,8,19,22:00,UTC,0,1013.8,89,0,-1,15,13.1,33470,220,5,3.6
2019,8,19,23:00,UTC,0,1014,93,0,-1,14.6,13.5,26800,204,6,3.9
2019,8,20,00:00,UTC,0,1014.1,93,0,-1,14.9,13.8,20880,201,5.8,3.7
2019,8,20,01:00,UTC,5,1014.7,96,0,-1,15.2,14.7,14330,193,5.9,3.6
2019,8,20,02:00,UTC,7,1015.1,95,0,-1,16,15.2,12770,194,11,5.7
2019,8,20,03:00,UTC,7,1015.5,95,0,-1,16,15.3,13880,197,7.5,4.6
2019,8,20,04:00,UTC,7,1015.7,94,0,-1,16.4,15.5,14940,198,7.7,4.9
2019,8,20,05:00,UTC,7,1016,92,0,-1,16.9,15.6,16570,193,8.9,5.3
2019,8,20,06:00,UTC,8,1016.4,92,0,-1,16.9,15.5,19280,189,9.4,5.6
2019,8,20,07:00,UTC,7,1016.8,86,0,-1,18,15.7,23440,197,10.8,6.8
2019,8,20,08:00,UTC,5,1017.2,87,0,-1,17.6,15.3,26360,196,11.8,7.4
2019,8,20,09:00,UTC,1,1017.3,79,0,-1,19.6,15.8,32400,191,11.9,8.3
2019,8,20,10:00,UTC,1,1017.5,75,0,-1,20.5,16,33180,200,10.9,7
2019,8,20,11:00,UTC,0,1017.6,72,0,-1,20.3,15.1,37850,202,12.3,8.3
2019,8,20,12:00,UTC,0,1017.9,68,0,-1,20.9,14.8,30060,201,12.7,8.4
2019,8,20,13:00,UTC,0,1018.3,67,0,-1,20.7,14.2,36520,203,14,8.8
2019,8,20,14:00,UTC,0,1018.8,64,0,-1,20.5,13.5,41960,199,11.5,7.8
2019,8,20,15:00,UTC,0,1019.1,70,0,-1,19.3,13.7,35900,201,13.2,7.3
2019,8,20,16:00,UTC,0,1019.3,74,0,-1,18.6,14,34410,214,10.1,6.3
2019,8,20,17:00,UTC,0,1019.6,77,0,-1,17.5,13.5,32310,215,8,5.3
2019,8,20,18:00,UTC,0,1019.9,84,0,-1,16.8,14,25040,225,8,5.3
2019,8,20,19:00,UTC,0,1020.2,87,0,-1,16.3,14.2,21180,213,7.2,4.3
2019,8,20,20:00,UTC,0,1020.3,90,0,-1,15.9,14.2,20710,208,7,4.3
2019,8,20,21:00,UTC,0,1020.5,90,0,-1,16,14.3,20100,205,7.6,5
2019,8,20,22:00,UTC,1,1020.8,91,0,-1,15.8,14.3,18800,211,6.8,3.8
2019,8,20,23:00,UTC,1,1020.9,92,0,-1,16,14.7,20410,207,7.4,4.4
2019,8,21,00:00,UTC,0,1021.2,94,0,-1,15.7,14.6,18140,212,4.8,3.2
2019,8,21,01:00,UTC,1,1021.5,96,0,-1,15.7,15,15520,205,6.3,4.2
2019,8,21,02:00,UTC,3,1021.6,96,0,-1,15.7,15.1,14490,209,6.2,4.5
2019,8,21,03:00,UTC,5,1021.5,96,0,-1,15.8,15.1,13690,192,7.3,4.5
2019,8,21,04:00,UTC,5,1021.6,94,0,-1,16.3,15.4,15570,197,7.3,4.7
2019,8,21,05:00,UTC,7,1021.8,91,0,-1,16.5,15.1,18720,209,8.4,5
2019,8,21,06:00,UTC,8,1021.9,93,0,-1,16.5,15.4,15120,208,8.7,5.1
2019,8,21,07:00,UTC,7,1021.9,90,0,-1,17.3,15.6,18960,204,7.6,5.1
2019,8,21,08:00,UTC,5,1021.8,85,0,-1,17.9,15.5,24320,203,7.9,4.8
2019,8,21,09:00,UTC,5,1022,84,0,-1,18.4,15.7,23290,194,8.5,6.1
2019,8,21,10:00,UTC,5,1021.7,82,0,-1,18.6,15.5,24660,192,8.9,5.7
2019,8,21,11:00,UTC,1,1021.3,78,0,-1,19.2,15.2,31390,196,7.5,4.8
2019,8,21,12:00,UTC,1,1020.9,77,0,-1,19.3,15.2,29560,197,10.5,7.2
2019,8,21,13:00,UTC,1,1020.4,76,0,-1,19.4,15,30440,181,8.3,5.5
2019,8,21,14:00,UTC,0,1020.1,72,0,-1,19.2,14,38450,199,7.1,5.1
2019,8,21,15:00,UTC,1,1020,74,0,-1,19.5,14.7,36900,191,6.2,3.9
2019,8,21,16:00,UTC,1,1020,80,0,-1,18.6,15.1,35040,200,6.5,4.5
2019,8,21,17:00,UTC,1,1020,87,0,-1,17.4,15.1,36640,188,6.3,3.5
2019,8,21,18:00,UTC,1,1020,90,0,-1,16.4,14.8,36210,191,6.1,4
2019,8,21,19:00,UTC,1,1020,89,0,-1,15.7,14,40510,215,5.9,4.1
2019,8,21,20:00,UTC,1,1020.2,81,0,-1,15.6,12.3,49970,251,6.5,4.1
2019,8,21,21:00,UTC,0,1020.4,83,0,-1,14.6,11.7,49140,247,6.1,4.7
2019,8,21,22:00,UTC,0,1020.3,88,0,-1,13.6,11.6,40450,251,5.5,3.8
2019,8,21,23:00,UTC,0,1020.4,91,0,-1,13,11.5,41310,250,5.3,4
2019,8,22,00:00,UTC,0,1020.7,94,0,-1,12.8,11.8,41060,243,5.8,3.9
2019,8,22,01:00,UTC,0,1020.9,94,0,-1,12.8,11.9,32330,248,5.5,4.2
2019,8,22,02:00,UTC,0,1021,97,0,-1,12.3,11.9,19010,239,4.6,2.9
2019,8,22,03:00,UTC,0,1021.1,97,0,-1,12.9,12.5,15680,232,4.1,2.9
2019,8,22,04:00,UTC,0,1021.3,97,0,-1,13.9,13.3,23910,246,5.8,3.5
2019,8,22,05:00,UTC,0,1021.5,91,0,-1,15.3,13.8,24440,244,6.4,3.9
2019,8,22,06:00,UTC,0,1021.7,81,0,-1,16.6,13.4,30310,241,5.8,4.2
2019,8,22,07:00,UTC,0,1021.7,70,0,-1,18.1,12.6,39540,246,7.5,5.3
2019,8,22,08:00,UTC,1,1021.9,62,0,-1,19.4,11.9,43400,236,8.7,5.6
2019,8,22,09:00,UTC,1,1022.2,53,0,-1,19.8,9.8,39270,247,8.6,5.9
2019,8,22,10:00,UTC,1,1022.1,47,0,-1,21.3,9.4,42070,234,9.3,6.3
2019,8,22,11:00,UTC,1,1022.3,41,0,-1,22.2,8.5,45180,243,9.3,6
2019,8,22,12:00,UTC,1,1022.6,61,0,-1,20.8,13.1,43660,221,10.4,6.6
2019,8,22,13:00,UTC,3,1022.7,65,0,-1,20.3,13.4,39160,213,9,5.7
2019,8,22,14:00,UTC,3,1022.9,61,0,-1,21,13.1,41860,205,10.8,7.3
2019,8,22,15:00,UTC,1,1023,66,0,-1,19.7,13.2,50000,206,10.8,6.8
2019,8,22,16:00,UTC,1,1023.3,69,0,-1,19.1,13.3,50000,214,8.6,5.9
2019,8,22,17:00,UTC,1,1023.4,76,0,-1,17.6,13.2,50000,219,10.3,6.6
2019,8,22,18:00,UTC,5,1023.9,78,0,-1,16.3,12.4,50000,214,8.8,5.8
2019,8,22,19:00,UTC,0,1024.2,78,0,-1,15.5,11.6,46500,222,10.1,6.3
2019,8,22,20:00,UTC,0,1024.5,81,0,-1,15.1,11.8,41730,226,7.3,4.8
2019,8,22,21:00,UTC,1,1024.5,84,0,-1,14.7,12,43920,226,6.1,3.8
2019,8,22,22:00,UTC,7,1024.3,84,0,-1,15,12.4,47310,222,5.9,3.8
2019,8,22,23:00,UTC,7,1023.9,86,0,-1,15.4,13.1,41490,216,7,4.1
2019,8,23,00:00,UTC,7,1023.8,89,0,-1,15.6,13.8,37350,206,7.2,4.5
2019,8,23,01:00,UTC,7,1023.7,91,0,-1,16,14.4,30980,206,7.8,5.3
2019,8,23,02:00,UTC,7,1023.2,94,0,-1,15.9,14.8,17450,196,8.5,4.9
2019,8,23,03:00,UTC,9,1023.4,96,21,-1,13,12.3,1980,303,5.1,3.2
2019,8,23,04:00,UTC,7,1023.5,98,3.2,-1,13,12.7,6010,228,2.9,1.8
2019,8,23,05:00,UTC,7,1023.4,98,5.6,-1,13.3,13,4040,125,2.8,2
2019,8,23,06:00,UTC,7,1022.6,98,7.7,-1,13.5,13.2,3560,94,4.1,2.7
2019,8,23,07:00,UTC,7,1022.2,98,0,-1,14.4,14.1,23790,139,9.6,2.5
2019,8,23,08:00,UTC,7,1021.6,89,0,-1,17,15.2,31240,196,12.8,7.3
2019,8,23,09:00,UTC,5,1021.3,82,0,-1,18.3,15.1,30080,197,13.6,6.7
2019,8,23,10:00,UTC,3,1021.2,80,0,-1,18.7,15.2,35180,202,12.1,8.4
2019,8,23,11:00,UTC,5,1020.9,77,0,-1,19.3,15.3,29880,207,14.4,9.4
2019,8,23,12:00,UTC,5,1020.5,74,0,-1,20,15.3,33570,208,11.6,7.8
2019,8,23,13:00,UTC,5,1019.9,79,0,-1,18.5,14.8,32770,204,11.5,7.6
2019,8,23,14:00,UTC,7,1019.4,95,8.8,-1,16.1,15.2,3720,203,12,7
2019,8,23,15:00,UTC,7,1018.4,95,1.6,-1,15.6,14.8,10300,222,8.5,5.6
2019,8,23,16:00,UTC,7,1017.6,95,1,-1,15.3,14.5,7910,209,9.1,6.1
2019,8,23,17:00,UTC,7,1016.7,97,0,-1,15.2,14.8,8490,204,7.7,5.3
2019,8,23,18:00,UTC,7,1016.4,97,0,-1,15.6,15.1,15120,224,9.7,5.6
2019,8,23,19:00,UTC,7,1016.3,97,0,-1,15.8,15.3,18370,224,8.2,5
2019,8,23,20:00,UTC,7,1016.4,97,0,-1,16,15.5,18610,231,7.4,4.6
2019,8,23,21:00,UTC,7,1016.4,96,0,-1,15.8,15.1,21440,251,6.3,4.3
2019,8,23,22:00,UTC,1,1016.6,97,0,-1,15.1,14.7,16240,253,6.1,4.2
2019,8,23,23:00,UTC,7,1017,98,0,-1,14.8,14.5,16010,255,5.3,3.6
2019,8,24,00:00,UTC,7,1017.2,98,0,-1,14.5,14.2,16480,251,5.6,4.1
2019,8,24,01:00,UTC,7,1017.8,98,0,-1,14.1,13.7,21120,261,5.6,3.9
2019,8,24,02:00,UTC,0,1018.2,97,0,-1,13.6,13.2,18530,264,5.2,3.8
2019,8,24,03:00,UTC,0,1018.7,98,0,-1,13.3,12.9,12950,254,5,3.8
2019,8,24,04:00,UTC,1,1019.2,97,0,-1,13.9,13.3,35880,263,6.5,4.4
2019,8,24,05:00,UTC,0,1019.6,93,0,-1,15,13.8,36010,251,6.5,4.5
2019,8,24,06:00,UTC,0,1020,84,0,-1,16.3,13.7,40320,257,7.7,5.3
2019,8,24,07:00,UTC,0,1020.5,70,0,-1,17.7,12.1,38760,274,9.3,5.8
2019,8,24,08:00,UTC,0,1021.2,65,0,-1,18.4,11.8,43450,274,11.4,7.2
2019,8,24,09:00,UTC,1,1021.8,58,0,-1,19,10.6,48650,289,12.3,6.8
2019,8,24,10:00,UTC,1,1022.1,56,0,-1,20.2,11.2,44640,270,9.2,5.5
2019,8,24,11:00,UTC,1,1022.7,52,0,-1,20.8,10.5,41830,290,10.4,5.6
2019,8,24,12:00,UTC,0,1023.1,46,0,-1,21.2,9,40770,297,9.4,5.2
2019,8,24,13:00,UTC,1,1023.8,44,0,-1,21.5,8.7,44230,297,9.4,4.9
2019,8,24,14:00,UTC,1,1024.2,43,0,-1,21.8,8.5,45350,297,9.3,4.4
2019,8,24,15:00,UTC,0,1024.3,48,0,-1,20.3,8.9,40680,303,6.8,3.9
2019,8,24,16:00,UTC,0,1024.7,46,0,-1,20.6,8.7,50000,286,5.5,3.8
2019,8,24,17:00,UTC,3,1025.1,53,0,-1,19,9.1,50000,310,3.4,2.3
2019,8,24,18:00,UTC,1,1025.6,62,0,-1,16.7,9.4,50000,298,3.6,2.7
2019,8,24,19:00,UTC,0,1025.9,70,0,-1,15.3,9.8,50000,308,3.8,2.5
2019,8,24,20:00,UTC,0,1026.2,74,0,-1,14.4,9.8,50000,301,4.5,3.6
2019,8,24,21:00,UTC,0,1026.4,77,0,-1,13.9,10,50000,305,4.1,2.7
2019,8,24,22:00,UTC,0,1026.9,84,0,-1,12.7,10.1,49560,330,3.7,2.4
2019,8,24,23:00,UTC,0,1027.2,90,0,-1,11.8,10.2,50000,312,3.5,2
2019,8,25,00:00,UTC,0,1027.6,94,0,-1,11.2,10.2,48620,334,3.3,2.2
2019,8,25,01:00,UTC,0,1027.8,96,0,-1,10.4,9.8,34430,357,3,2.4
2019,8,25,02:00,UTC,0,1028.1,97,0,-1,10,9.6,24880,16,2,1.5
2019,8,25,03:00,UTC,0,1028.3,98,0,-1,9.7,9.3,22910,26,2.3,1.8
2019,8,25,04:00,UTC,0,1028.4,98,0,-1,10,9.7,24700,41,1.8,1.6
2019,8,25,05:00,UTC,0,1028.6,91,0,-1,13.1,11.6,44750,65,1.7,1.1
2019,8,25,06:00,UTC,0,1028.6,79,0,-1,16.9,13.2,33960,132,1.9,1.3
2019,8,25,07:00,UTC,0,1028.5,73,0,-1,18.7,13.7,40340,127,3.7,2
2019,8,25,08:00,UTC,0,1028.6,62,0,-1,19.1,11.6,47020,246,3.4,2.1
2019,8,25,09:00,UTC,0,1028.4,54,0,-1,20.1,10.5,37790,206,4.3,2.8
2019,8,25,10:00,UTC,1,1028.6,62,0,-1,20.4,12.9,45040,169,5.4,3.3
2019,8,25,11:00,UTC,0,1028.3,58,0,-1,20.3,11.8,45530,215,6.5,4.2
2019,8,25,12:00,UTC,1,1028,57,0,-1,20.7,11.9,41530,202,7.7,5.2
2019,8,25,13:00,UTC,0,1027.5,54,0,-1,20.2,10.7,47500,191,7.4,5.8
2019,8,25,14:00,UTC,0,1027.3,58,0,-1,19.9,11.3,43670,208,8.6,6.5
2019,8,25,15:00,UTC,0,1026.8,56,0,-1,20,10.9,50000,200,7.6,5.5
2019,8,25,16:00,UTC,0,1026.4,64,0,-1,18,11,50000,211,6.4,4.3
2019,8,25,17:00,UTC,0,1026.1,71,0,-1,17,11.8,50000,213,5.1,3.6
2019,8,25,18:00,UTC,0,1025.9,70,0,-1,16.5,11,50000,210,5.7,4.1
2019,8,25,19:00,UTC,0,1025.7,85,0,-1,15.6,13,50000,211,5.2,3.2
2019,8,25,20:00,UTC,0,1025,85,0,-1,15.7,13.2,50000,193,7,4.7
2019,8,25,21:00,UTC,3,1025.3,89,0,-1,15.5,13.6,50000,215,5.2,3.4
2019,8,25,22:00,UTC,0,1025.3,90,0,-1,15.5,13.9,50000,225,5.9,4.3
2019,8,25,23:00,UTC,0,1025,90,0,-1,15.8,14.2,50000,226,6.6,5.2
2019,8,26,00:00,UTC,0,1024.4,92,0,-1,15.6,14.3,50000,223,6.4,4.7
2019,8,26,01:00,UTC,0,1024.1,92,0,-1,15.6,14.3,50000,226,7.3,5.1
2019,8,26,02:00,UTC,0,1024.1,91,0,-1,15.4,13.9,50000,232,5.9,4.2
2019,8,26,03:00,UTC,0,1023.8,92,0,-1,15.3,14,50000,231,5.8,4.3
2019,8,26,04:00,UTC,0,1023.4,93,0,-1,15.4,14.3,43870,221,5.1,3.6
2019,8,26,05:00,UTC,0,1023.3,89,0,-1,16.8,14.9,47420,245,5.3,3.8
2019,8,26,06:00,UTC,1,1023.2,88,0,-1,17.3,15.3,31110,247,6.7,5
2019,8,26,07:00,UTC,5,1023,85,0,-1,18.2,15.7,34710,240,4.2,2.9
2019,8,26,08:00,UTC,1,1023.1,81,0,-1,19.2,15.9,38670,249,5.4,3.7
2019,8,26,09:00,UTC,1,1023,75,0,-1,20.7,16.2,33430,215,5.8,4.2
2019,8,26,10:00,UTC,1,1022.8,77,0,-1,21,16.9,39500,213,5.5,3.8
2019,8,26,11:00,UTC,1,1022.7,74,0,-1,22.1,17.2,35390,208,3.8,2.4
2019,8,26,12:00,UTC,1,1022.6,72,0,-1,22.6,17.4,38220,209,5.6,3.4
2019,8,26,13:00,UTC,1,1022.4,70,0,-1,22.7,16.9,40510,220,4.1,3
2019,8,26,14:00,UTC,1,1022.2,64,0,-1,23.5,16.4,39400,231,4.3,2.3
2019,8,26,15:00,UTC,1,1022.3,60,0,-1,23.7,15.6,48520,271,5.5,3.3
2019,8,26,16:00,UTC,0,1022.3,69,0,-1,22.5,16.5,42540,211,3.1,2.2
2019,8,26,17:00,UTC,0,1022.3,76,0,-1,20.8,16.4,46190,218,4.4,3.4
2019,8,26,18:00,UTC,0,1022.5,82,0,-1,19.5,16.4,45260,217,4.1,3.2
2019,8,26,19:00,UTC,0,1022.7,86,0,-1,18.7,16.3,41730,229,4.4,3.5
2019,8,26,20:00,UTC,0,1022.9,85,0,-1,18.4,15.7,40140,251,5.5,4.3
2019,8,26,21:00,UTC,0,1023.3,87,0,-1,17.6,15.3,36040,270,5.3,4
2019,8,26,22:00,UTC,0,1023.7,90,0,-1,16.7,15.1,32200,286,4.5,3.4
2019,8,26,23:00,UTC,0,1024,90,0,-1,16.6,15,34130,295,4,3.1
2019,8,27,00:00,UTC,0,1024.3,96,0,-1,15.3,14.8,22030,269,4.4,3.5
2019,8,27,01:00,UTC,0,1024.5,95,0,-1,14.7,14,22100,306,3.9,2.5
2019,8,27,02:00,UTC,0,1024.9,96,0,-1,14.1,13.5,18210,305,3.3,2.6
2019,8,27,03:00,UTC,0,1025.3,97,0,-1,13.7,13.3,13080,316,3.5,2.6
2019,8,27,04:00,UTC,0,1025.4,98,0,-1,13.9,13.6,14000,314,2.9,2.3
2019,8,27,05:00,UTC,0,1025.8,91,0,-1,16.1,14.5,27390,6,2.2,0.9
2019,8,27,06:00,UTC,0,1025.8,79,0,-1,18.7,15.1,31930,49,2.9,1.4
2019,8,27,07:00,UTC,0,1026.1,75,0,-1,20.5,15.9,26690,94,3.1,2
2019,8,27,08:00,UTC,0,1026.4,54,0,-1,20.8,11.3,42610,90,4.5,3.1
2019,8,27,09:00,UTC,0,1026.7,57,0,-1,21.9,13,37160,94,4.2,2.7
2019,8,27,10:00,UTC,0,1027,63,0,-1,21.3,14,27860,142,4.8,3.4
2019,8,27,11:00,UTC,0,1026.9,69,0,-1,21.3,15.3,31960,149,4,2.4
2019,8,27,12:00,UTC,0,1026.8,69,0,-1,21.9,15.9,31320,129,4.1,2.9
2019,8,27,13:00,UTC,0,1026.6,66,0,-1,21.6,15.1,36130,161,4.5,2.9
2019,8,27,14:00,UTC,0,1026.3,65,0,-1,22.2,15.4,39830,170,3.7,2.1
2019,8,27,15:00,UTC,0,1026.2,67,0,-1,21,14.7,44870,129,3.9,2.5
2019,8,27,16:00,UTC,,,,,,,,,,,
2019,8,27,17:00,UTC,,,,,,,,,,,
2019,8,27,18:00,UTC,0,1025.8,94,0,-1,17.4,16.4,10890,139,1.7,1
2019,8,27,19:00,UTC,0,1025.9,97,0,-1,16.6,16.1,5470,188,3.3,2.3
2019,8,27,20:00,UTC,0,1026,98,0,-1,16.2,15.9,2870,210,1.9,1.3
2019,8,27,21:00,UTC,1,1026.4,99,0,-1,16,15.8,1400,209,3.1,2
2019,8,27,22:00,UTC,9,1026.5,99,0,-1,15.9,15.8,750,200,1.4,1.1
2019,8,27,23:00,UTC,7,1026.6,99,0,-1,14.8,14.7,190,0,0.7,0
2019,8,28,00:00,UTC,9,1026.7,99,0,-1,14.4,14.3,210,128,1.8,1.5
2019,8,28,01:00,UTC,3,1026.8,99,0,-1,13.6,13.5,380,153,2.1,1.9
2019,8,28,02:00,UTC,9,1026.9,99,0,-1,13.7,13.6,430,84,2.1,1.8
2019,8,28,03:00,UTC,5,1026.8,100,0,-1,13,12.9,1140,83,1.9,1.6
2019,8,28,04:00,UTC,9,1026.6,99,0,-1,13.9,13.8,300,95,2.3,1.7
2019,8,28,05:00,UTC,1,1026.6,100,0,-1,15.6,15.5,10740,104,2.8,2.2
2019,8,28,06:00,UTC,0,1026.5,85,0,-1,18.7,16.1,31900,95,3.4,2.3
2019,8,28,07:00,UTC,0,1026.3,75,0,-1,20.2,15.7,35210,153,4.5,3.2
2019,8,28,08:00,UTC,0,1026.3,73,0,-1,21.6,16.5,29700,124,3.6,2.2
2019,8,28,09:00,UTC,0,1026,68,0,-1,22.1,15.9,26360,125,4.1,2.1
2019,8,28,10:00,UTC,0,1025.8,63,0,-1,22.9,15.6,30220,140,3.6,2.3
2019,8,28,11:00,UTC,0,1025.6,59,0,-1,23.6,15.2,35860,130,4.8,2.9
2019,8,28,12:00,UTC,0,1025.2,60,0,-1,24.3,16,41000,164,5,3.1
2019,8,28,13:00,UTC,0,1024.9,57,0,-1,24.8,15.7,35090,124,4.8,2.8
2019,8,28,14:00,UTC,0,1024.6,64,0,-1,23.7,16.4,45960,94,4,2.9
2019,8,28,15:00,UTC,0,1024.3,65,0,-1,22.6,15.8,42440,89,4.6,3.4
2019,8,28,16:00,UTC,0,1023.8,67,0,-1,21.8,15.4,50000,85,4.2,3.1
2019,8,28,17:00,UTC,0,1023.5,70,0,-1,20.8,15.2,50000,91,3.9,2.8
2019,8,28,18:00,UTC,0,1023.3,78,0,-1,19.4,15.4,50000,85,4.6,2.9
2019,8,28,19:00,UTC,0,1023.1,82,0,-1,19,15.9,50000,89,3.9,2.9
2019,8,28,20:00,UTC,0,1022.8,87,0,-1,18.5,16.2,42690,92,3.7,3
2019,8,28,21:00,UTC,0,1023,84,0,-1,18.8,16,45100,133,5.6,3.9
2019,8,28,22:00,UTC,0,1023.1,81,0,-1,19.2,15.9,44180,159,8,4.8
2019,8,28,23:00,UTC,0,1023,80,0,-1,18.8,15.2,44060,167,7.6,4.6
2019,8,29,00:00,UTC,0,1022.8,84,0,-1,18,15.2,50000,152,6.7,4
2019,8,29,01:00,UTC,0,1022.7,86,0,-1,17.4,15,50000,150,4.5,2.7
2019,8,29,02:00,UTC,0,1022.3,86,0,-1,17,14.7,50000,147,4.6,3.2
2019,8,29,03:00,UTC,0,1022.1,89,0,-1,16.6,14.8,48750,129,4,2.5
2019,8,29,04:00,UTC,0,1021.9,90,0,-1,16.6,14.9,44400,85,3.1,2.4
2019,8,29,05:00,UTC,0,1021.7,81,0,-1,17.8,14.6,25380,104,3.7,2.6
2019,8,29,06:00,UTC,0,1021.3,74,0,-1,19.7,14.9,43610,124,5.8,3.3
2019,8,29,07:00,UTC,0,1021.1,69,0,-1,20.3,14.3,45280,135,6,3.7
2019,8,29,08:00,UTC,0,1020.5,68,0,-1,21.3,15.2,38140,124,5,3.4
2019,8,29,09:00,UTC,0,1020.3,69,0,-1,20.9,15,33460,78,5.7,3.8
2019,8,29,10:00,UTC,0,1020.3,64,0,-1,21.8,14.8,43790,96,6.4,3.9
2019,8,29,11:00,UTC,0,1019.9,64,0,-1,22.3,15.1,38760,89,6.1,4.1
2019,8,29,12:00,UTC,0,1019.5,64,0,-1,22.4,15.3,41070,89,7.1,5.2
2019,8,29,13:00,UTC,0,1019.1,65,0,-1,22.8,15.8,40040,83,5.6,4
2019,8,29,14:00,UTC,0,1018.6,65,0,-1,22.8,15.8,48150,90,4.9,3.1
2019,8,29,15:00,UTC,0,1018.1,65,0,-1,22.7,15.7,43310,94,5.2,3.1
2019,8,29,16:00,UTC,5,1018,71,0,-1,21.5,16.1,50000,76,4,2.1
2019,8,29,17:00,UTC,0,1017.4,75,0,-1,20.6,16.1,49770,98,4.2,2.9
2019,8,29,18:00,UTC,3,1017.3,79,0,-1,19.9,16.2,50000,99,4.8,3.2
2019,8,29,19:00,UTC,0,1016.9,79,0,-1,19.6,15.9,50000,136,5.1,3
2019,8,29,20:00,UTC,1,1016.6,80,0,-1,19.4,15.8,44670,123,5.5,3.4
2019,8,29,21:00,UTC,5,1016.3,77,0,-1,19.7,15.5,39310,119,7.3,4.7
2019,8,29,22:00,UTC,7,1016,80,0,-1,19.2,15.6,48770,131,7.3,4.7
2019,8,29,23:00,UTC,7,1015.9,79,0,-1,19.3,15.6,46530,136,7.2,4.2
2019,8,30,00:00,UTC,7,1015.5,80,0,-1,19.2,15.7,49230,145,5.9,4
2019,8,30,01:00,UTC,7,1015.5,81,0,-1,19.2,15.8,42120,158,5.1,3.1
2019,8,30,02:00,UTC,7,1015.3,91,1.2,-1,18.1,16.6,11450,159,6.1,3.5
2019,8,30,03:00,UTC,7,1015.2,97,1.6,-1,17.6,17,7990,148,6.1,4.1
2019,8,30,04:00,UTC,8,1015.2,97,0,-1,17.7,17.2,15310,138,4.5,3.1
2019,8,30,05:00,UTC,8,1015.3,96,0,-1,17.9,17.2,16250,160,5.8,3.6
2019,8,30,06:00,UTC,7,1015.5,95,0,-1,18.4,17.5,14900,194,4.9,3.2
2019,8,30,07:00,UTC,8,1015.8,96,0,-1,18.6,18,5810,195,6.1,3.7
2019,8,30,08:00,UTC,8,1016.4,96,0,-1,18.9,18.2,5010,205,5.1,3.7
2019,8,30,09:00,UTC,7,1016.7,93,0,-1,19.5,18.4,7470,219,5.6,3.6
2019,8,30,10:00,UTC,7,1016.9,89,0,-1,20.3,18.5,10070,215,6.8,4.8
2019,8,30,11:00,UTC,7,1017.2,88,0,-1,21,18.9,10400,208,5.2,3.5
2019,8,30,12:00,UTC,8,1017.2,82,0,-1,21.6,18.5,17240,195,4.4,2.9
2019,8,30,13:00,UTC,5,1017.4,81,0,-1,22,18.6,24030,205,4.8,3
2019,8,30,14:00,UTC,3,1017.4,79,0,-1,21.1,17.4,25500,206,7.5,4.8
2019,8,30,15:00,UTC,0,1017.6,78,0,-1,20.4,16.4,37620,203,8.1,5.5
2019,8,30,16:00,UTC,0,1017.6,83,0,-1,18.9,15.9,42430,217,7.4,4.6
2019,8,30,17:00,UTC,0,1017.8,87,0,-1,17.9,15.7,38610,223,6.6,4.6
2019,8,30,18:00,UTC,0,1018.3,88,0,-1,17.3,15.3,42070,241,6.6,4.7
2019,8,30,19:00,UTC,1,1018.6,90,0,-1,16.9,15.3,36910,234,6.6,3.9
2019,8,30,20:00,UTC,1,1018.8,90,0,-1,16.5,14.9,33380,244,6.6,4.7
2019,8,30,21:00,UTC,5,1019.1,96,0,-1,15.5,14.8,22590,252,4.8,3.5
2019,8,30,22:00,UTC,3,1019.6,96,0,-1,15.2,14.5,19590,246,5.9,3.8
2019,8,30,23:00,UTC,5,1019.7,97,0,-1,14.9,14.5,17730,247,2.9,1.9
2019,8,31,00:00,UTC,3,1019.6,97,0,-1,14.9,14.4,17110,226,3.2,2.3
2019,8,31,01:00,UTC,5,1019.8,97,0,-1,14.8,14.2,19650,234,4.2,2.9
2019,8,31,02:00,UTC,0,1019.8,98,0,-1,14.3,14,14750,246,4.1,2.9
2019,8,31,03:00,UTC,0,1019.9,97,0,-1,14.2,13.8,23380,254,4.3,3.3
2019,8,31,04:00,UTC,0,1020.2,97,0,-1,14.2,13.8,25100,247,4.6,3.1
2019,8,31,05:00,UTC,0,1020.4,91,0,-1,15.9,14.4,42130,246,4.7,3
2019,8,31,06:00,UTC,0,1020.5,79,0,-1,18.5,14.8,38040,229,5.3,3.2
2019,8,31,07:00,UTC,0,1020.5,77,0,-1,18.6,14.5,45090,223,4.7,3
2019,8,31,08:00,UTC,1,1020.7,72,0,-1,18.9,13.8,50000,220,6.3,3.9
2019,8,31,09:00,UTC,0,1021,69,0,-1,19.8,13.9,43430,205,6,3.6
2019,8,31,10:00,UTC,0,1020.9,69,0,-1,20.7,14.9,43600,206,7.4,5.4
2019,8,31,11:00,UTC,1,1020.9,65,0,-1,21.4,14.5,40630,192,7.9,4.9
2019,8,31,12:00,UTC,1,1020.7,66,0,-1,20.8,14.1,50000,204,9.8,6.3
2019,8,31,13:00,UTC,0,1020.5,68,0,-1,20.7,14.5,42270,206,8,5.7
2019,8,31,14:00,UTC,1,1020.2,68,0,-1,20.8,14.6,50000,215,8.1,5.8
2019,8,31,15:00,UTC,0,1019.9,68,0,-1,20.4,14.2,50000,204,7.7,5.5
2019,8,31,16:00,UTC,0,1019.5,71,0,-1,19.3,13.8,50000,205,6.3,4.3
2019,8,31,17:00,UTC,0,1019.4,73,0,-1,17.9,13,50000,217,4.8,3.2
2019,8,31,18:00,UTC,1,1019.4,79,0,-1,17,13.3,50000,222,5.1,3.7
2019,8,31,19:00,UTC,1,1019.4,78,0,-1,16.4,12.6,50000,227,4.9,3.1
2019,8,31,20:00,UTC,0,1019.3,81,0,-1,15.9,12.6,43080,205,4.5,3.4
2019,8,31,21:00,UTC,0,1019.4,91,0,-1,15.3,13.9,39570,227,4.2,3.3
2019,8,31,22:00,UTC,0,1019.4,97,0,-1,15.2,14.7,14480,224,3.1,2.5
2019,8,31,23:00,UTC,0,1019.2,98,0,-1,15.3,15,8120,200,3.1,2.3
2019,9,1,00:00,UTC,0,1018.9,99,0,-1,15.3,15,5880,181,3,2.3
2019,9,1,01:00,UTC,0,1018.9,99,0,-1,15,14.8,4970,185,3.1,1.9
2019,9,1,02:00,UTC,0,1018.6,99,0,-1,14.5,14.3,7610,153,2.4,2.1
2019,9,1,03:00,UTC,1,1018.3,99,0,-1,14.8,14.6,9620,157,3.4,2.7
2019,9,1,04:00,UTC,0,1018.3,99,0,-1,14.8,14.6,10470,166,3.1,2.3
2019,9,1,05:00,UTC,1,1018,99,0,-1,15.5,15.4,12850,144,3.4,2.4
2019,9,1,06:00,UTC,0,1017.8,85,0,-1,18.5,15.9,32030,146,4.5,3
2019,9,1,07:00,UTC,0,1017.6,75,0,-1,19.6,15,39270,173,4.7,2.9
2019,9,1,08:00,UTC,0,1017.3,70,0,-1,20.8,15.2,50000,147,4.8,2.8
2019,9,1,09:00,UTC,0,1017.3,57,0,-1,21.2,12.4,42430,139,4.7,2.5
2019,9,1,10:00,UTC,0,1016.9,49,0,-1,21.6,10.5,44530,140,4.3,3
2019,9,1,11:00,UTC,0,1016.4,54,0,-1,22.3,12.4,46970,122,4.7,3.2
2019,9,1,12:00,UTC,0,1016,58,0,-1,21.3,12.6,47120,91,6.2,4
2019,9,1,13:00,UTC,0,1015.6,59,0,-1,21.3,13.1,37250,98,5.5,3.8
2019,9,1,14:00,UTC,0,1015.1,60,0,-1,21.1,13.1,43930,99,5.6,3.3
2019,9,1,15:00,UTC,0,1014.6,61,0,-1,20.1,12.3,50000,94,7.3,4.7
2019,9,1,16:00,UTC,0,1014.6,71,0,-1,19.4,14.1,50000,94,5.6,3.2
2019,9,1,17:00,UTC,0,1014.4,77,0,-1,18.6,14.6,50000,88,6.3,4.6
2019,9,1,18:00,UTC,0,1014.2,81,0,-1,18.1,14.7,50000,81,4.2,3
2019,9,1,19:00,UTC,0,1013.8,87,0,-1,17.7,15.5,50000,90,4.1,2.7
2019,9,1,20:00,UTC,0,1013.3,90,0,-1,17.5,15.9,43260,94,4.1,3
2019,9,1,21:00,UTC,0,1013.1,89,0,-1,17.5,15.7,47050,123,5.2,3.5
2019,9,1,22:00,UTC,0,1013,81,0,-1,18.2,14.8,50000,133,6.8,4.3
2019,9,1,23:00,UTC,0,1013,82,0,-1,18.2,15.1,50000,151,6.6,4.4
2019,9,2,00:00,UTC,0,1012.8,83,0,-1,17.6,14.8,45200,171,6,4
2019,9,2,01:00,UTC,0,1012.5,87,0,-1,17.3,15.1,29240,152,5.2,3.7
2019,9,2,02:00,UTC,1,1012.3,89,0,-1,17,15.2,30810,147,4.7,3.3
2019,9,2,03:00,UTC,1,1011.8,91,0,-1,16.8,15.3,25610,133,4.5,2.9
2019,9,2,04:00,UTC,1,1011.4,92,0,-1,16.7,15.4,23770,97,5.1,3.6
2019,9,2,05:00,UTC,3,1011.4,88,0,-1,17.8,15.8,23650,99,5.1,3.4
2019,9,2,06:00,UTC,1,1011.1,81,0,-1,19.2,15.9,23400,114,7.6,5.5
2019,9,2,07:00,UTC,0,1011.1,79,0,-1,19.8,15.9,25660,117,6.8,5.4
2019,9,2,08:00,UTC,0,1011.1,73,0,-1,20.5,15.6,35430,112,7,4.9
2019,9,2,09:00,UTC,0,1010.7,72,0,-1,21.3,16,31860,111,6.9,4
2019,9,2,10:00,UTC,0,1010.6,66,0,-1,22,15.5,27510,112,8.8,6
2019,9,2,11:00,UTC,0,1010.3,63,0,-1,23,15.5,29450,112,6.4,4.2
2019,9,2,12:00,UTC,1,1010.1,62,0,-1,22.6,14.9,37060,123,7.8,5.6
2019,9,2,13:00,UTC,7,1009.9,66,0,-1,22.1,15.4,42330,105,5.9,3.7
2019,9,2,14:00,UTC,7,1009.8,71,0,-1,21.3,15.8,41180,140,6.6,3.5
2019,9,2,15:00,UTC,7,1009.6,83,0,-1,19.8,16.8,27170,224,5.8,3.8
2019,9,2,16:00,UTC,7,1009.6,96,2.6,-1,17.9,17.3,6340,219,5.2,3.9
2019,9,2,17:00,UTC,7,1010.1,95,0,-1,16.8,16,6810,258,13.2,8.4
2019,9,2,18:00,UTC,7,1011.2,95,2.8,-1,14.1,13.2,6580,257,13.5,8.3
2019,9,2,19:00,UTC,7,1012,95,0,-1,14,13.2,28620,258,5.6,3.8
2019,9,2,20:00,UTC,7,1012.3,94,0.7,-1,13.5,12.5,46870,248,4.2,3
2019,9,2,21:00,UTC,1,1012.9,95,0,-1,12.8,12,43640,225,4,3
2019,9,2,22:00,UTC,0,1013,95,0,-1,12.7,12,48530,225,4,3.1
2019,9,2,23:00,UTC,0,1013.3,96,0,-1,12.8,12.3,30260,237,4.7,3.4
2019,9,3,00:00,UTC,3,1013.5,95,0,-1,13,12.2,26380,226,3.8,3.1
2019,9,3,01:00,UTC,1,1013.7,97,0,-1,12.8,12.3,24600,219,5.4,3.5
2019,9,3,02:00,UTC,7,1013.8,96,0,-1,13.2,12.6,26590,232,4.5,3.2
2019,9,3,03:00,UTC,7,1014.1,96,0,-1,13.1,12.5,26680,217,3,2.1
2019,9,3,04:00,UTC,3,1014.3,96,0,-1,13.7,13,28230,225,3.7,2.9
2019,9,3,05:00,UTC,1,1014.5,90,0,-1,14.8,13.1,43910,256,4.4,3
2019,9,3,06:00,UTC,1,1014.9,81,0,-1,15.4,12.2,48040,271,5,3.7
2019,9,3,07:00,UTC,1,1015.2,74,0,-1,16.6,12,50000,252,6.1,3.9
2019,9,3,08:00,UTC,0,1015.4,73,0,-1,16.3,11.4,50000,250,7.1,3.8
2019,9,3,09:00,UTC,1,1015.4,67,0,-1,17.2,11,50000,223,6.3,3.8
2019,9,3,10:00,UTC,1,1015.6,62,0,-1,17.1,9.7,47270,255,6.6,4.6
2019,9,3,11:00,UTC,1,1015.5,62,0,-1,18.6,11.1,47660,199,6.2,3.5
2019,9,3,12:00,UTC,5,1015.4,61,0,-1,19,11.3,50000,200,9.4,6.4
2019,9,3,13:00,UTC,0,1015.1,60,0,-1,18.7,10.8,45300,200,9.1,6.4
2019,9,3,14:00,UTC,1,1015,60,0,-1,18.1,10.2,46190,220,8.9,5.3
2019,9,3,15:00,UTC,0,1014.8,61,0,-1,17,9.5,50000,212,9.1,5.8
2019,9,3,16:00,UTC,0,1014.8,59,0,-1,16.9,8.8,46440,211,9.4,6.3
2019,9,3,17:00,UTC,0,1014.7,67,0,-1,15.5,9.4,50000,221,8.1,5.5
2019,9,3,18:00,UTC,1,1014.8,71,0,-1,14.8,9.6,50000,220,8.2,5.1
2019,9,3,19:00,UTC,1,1014.9,77,0,-1,13.8,9.7,48150,232,4.8,3.4
2019,9,3,20:00,UTC,0,1015,78,0,-1,13.3,9.6,50000,227,3.7,2.9
2019,9,3,21:00,UTC,0,1014.7,84,0,-1,11.8,9.2,49180,233,2.3,1.5
2019,9,3,22:00,UTC,0,1014.4,88,0,-1,11.6,9.7,50000,177,2.3,1.8
2019,9,3,23:00,UTC,1,1014.1,91,0,-1,11.3,9.9,41080,127,2.6,2.1
2019,9,4,00:00,UTC,0,1013.6,77,0,-1,12.9,8.9,50000,187,4.1,2.8
2019,9,4,01:00,UTC,3,1013.2,74,0,-1,14.1,9.5,50000,157,6.1,3.8
2019,9,4,02:00,UTC,7,1012.8,74,0,-1,15.2,10.6,50000,158,6.9,4.5
2019,9,4,03:00,UTC,5,1012.4,74,0,-1,15,10.3,50000,154,8.2,5.1
2019,9,4,04:00,UTC,7,1012,79,0,-1,15.2,11.5,50000,161,8.9,5.4
2019,9,4,05:00,UTC,7,1011.7,83,0,-1,15.3,12.5,43670,164,7.7,4.7
2019,9,4,06:00,UTC,7,1011.4,85,0,-1,15.8,13.2,49080,181,10.1,5.8
2019,9,4,07:00,UTC,7,1011.4,84,0,-1,16.2,13.5,46150,169,9.6,5.8
2019,9,4,08:00,UTC,7,1011.1,79,0,-1,17.2,13.5,43760,194,9.2,5.2
2019,9,4,09:00,UTC,3,1011,82,0,-1,17,13.8,48570,196,10.4,5.7
2019,9,4,10:00,UTC,5,1010.9,74,0,-1,18.5,13.8,50000,181,11.1,7.1
2019,9,4,11:00,UTC,7,1010.6,71,0,-1,19.5,14,43280,196,12.7,7.1
2019,9,4,12:00,UTC,3,1010.7,74,0,-1,18.7,14.1,50000,209,11.3,7.4
2019,9,4,13:00,UTC,1,1010.4,68,0,-1,19.9,13.8,47070,208,8.6,5.2
2019,9,4,14:00,UTC,1,1010.6,59,0,-1,19.7,11.4,43490,210,11.5,6.1
2019,9,4,15:00,UTC,0,1010.5,64,0,-1,18.1,11.1,50000,201,10.2,6
2019,9,4,16:00,UTC,0,1010.8,72,0,-1,16.7,11.7,50000,214,8.4,5.7
2019,9,4,17:00,UTC,0,1011.2,75,0,-1,16,11.5,50000,209,7.6,4.4
2019,9,4,18:00,UTC,7,1011.5,82,0,-1,15.6,12.6,50000,217,4.7,3.3
2019,9,4,19:00,UTC,0,1011.6,85,0,-1,14.6,12.2,46890,218,5,3.3
2019,9,4,20:00,UTC,0,1011.8,88,0,-1,14,12.1,50000,218,4.4,3.2
2019,9,4,21:00,UTC,1,1011.9,92,0,-1,13.5,12.2,50000,220,3.7,2.4
2019,9,4,22:00,UTC,5,1011.9,93,0,-1,13.2,12.1,50000,212,2.4,1.9
2019,9,4,23:00,UTC,0,1011.7,93,0,-1,12.7,11.6,50000,202,2.2,1.7
2019,9,5,00:00,UTC,1,1011.6,94,0,-1,12.7,11.8,50000,135,1.7,1.1
2019,9,5,01:00,UTC,3,1011.3,89,0,-1,13.5,11.7,50000,185,5.1,3.3
2019,9,5,02:00,UTC,1,1011.1,85,0,-1,14.4,12,49710,180,8.3,4.8
2019,9,5,03:00,UTC,5,1010.8,91,0,-1,14.5,13,36910,174,9.3,5.3
2019,9,5,04:00,UTC,5,1010.5,89,0,-1,14.8,13,31840,166,8.9,5.1
2019,9,5,05:00,UTC,5,1010.1,82,0,-1,15.3,12.3,40600,151,9.5,5.8
2019,9,5,06:00,UTC,7,1010,81,0,-1,15.8,12.6,41610,175,9.7,6.1
2019,9,5,07:00,UTC,7,1009.5,83,0,-1,16.3,13.4,40600,153,8.4,4.9
2019,9,5,08:00,UTC,7,1009.4,83,0,-1,16.5,13.6,42140,158,10.8,5.2
2019,9,5,09:00,UTC,7,1008.9,82,0,-1,17.2,14.2,40350,146,9.5,5.9
2019,9,5,10:00,UTC,5,1008.3,72,0,-1,19.2,14.1,36350,132,10.5,6.4
2019,9,5,11:00,UTC,7,1007.8,75,0,-1,18.5,14.1,38550,140,9.7,6.4
2019,9,5,12:00,UTC,5,1007.5,70,0,-1,19.5,13.9,50000,151,11,6.8
2019,9,5,13:00,UTC,7,1007.2,70,0,-1,19.5,14,43760,173,11.4,5.6
2019,9,5,14:00,UTC,7,1007.9,84,0,-1,17.6,14.9,13700,210,10,6.5
2019,9,5,15:00,UTC,7,1007.8,93,1.5,-1,16.2,15,9260,200,9.4,6.4
2019,9,5,16:00,UTC,7,1007.5,84,0,-1,17.2,14.5,35930,196,9.5,6.1
2019,9,5,17:00,UTC,7,1007.4,88,0,-1,17.2,15.1,24070,191,8.6,4.8
2019,9,5,18:00,UTC,8,1007.5,92,1,-1,16.2,15,12860,177,8.9,5.9
2019,9,5,19:00,UTC,7,1007.4,90,0,-1,16.6,15,37230,182,8.6,5.2
2019,9,5,20:00,UTC,7,1007.5,90,0,-1,16.6,15,38770,194,10,6
2019,9,5,21:00,UTC,7,1007.5,90,0,-1,16.2,14.5,45430,199,10.8,7.4
2019,9,5,22:00,UTC,5,1007.6,90,0,-1,15.7,14.2,41630,198,9.7,6.3
2019,9,5,23:00,UTC,5,1007.7,90,0,-1,15.7,14.1,37520,197,8.7,5.7
2019,9,6,00:00,UTC,5,1007.9,91,0,-1,15.3,13.8,29970,190,8.9,4.8
2019,9,6,01:00,UTC,3,1008,91,0,-1,15.1,13.6,31820,192,9.5,5.9
2019,9,6,02:00,UTC,1,1007.9,92,0,-1,14.9,13.6,29290,188,9.7,5.5
2019,9,6,03:00,UTC,3,1007.8,90,0,-1,15,13.4,37370,193,11,5.5
2019,9,6,04:00,UTC,3,1007.8,91,0,-1,15,13.5,24080,192,9.9,6.1
2019,9,6,05:00,UTC,1,1008,87,0,-1,15.2,13.1,45910,197,10.8,6.8
2019,9,6,06:00,UTC,7,1008.5,94,0.8,-1,13.8,12.9,16570,204,6,3.7
2019,9,6,07:00,UTC,7,1008.8,91,0,-1,14.6,13.2,32460,202,6.9,4.5
2019,9,6,08:00,UTC,7,1009.5,85,0,-1,15.6,13,48630,207,7.8,5.5
2019,9,6,09:00,UTC,7,1010,81,0,-1,15.9,12.7,50000,200,7.3,4.4
2019,9,6,10:00,UTC,7,1010.5,87,0,-1,13.8,11.6,18220,198,11.6,7.2
2019,9,6,11:00,UTC,0,1011.1,70,0,-1,17.1,11.5,36110,200,8.7,5.6
2019,9,6,12:00,UTC,1,1011.8,71,0,-1,15.2,9.9,50000,222,12.8,7.2
2019,9,6,13:00,UTC,0,1012.3,70,0,-1,17.2,11.6,42700,213,8,4.5
2019,9,6,14:00,UTC,1,1012.9,66,0,-1,17.6,11.3,46400,210,9.1,5.6
2019,9,6,15:00,UTC,3,1013.8,62,0,-1,16,8.7,48510,256,9.9,7.1
2019,9,6,16:00,UTC,0,1014.6,69,0,-1,15.2,9.4,50000,240,5,3
2019,9,6,17:00,UTC,1,1015.6,71,0,-1,14.2,9.1,50000,220,6,4.1
2019,9,6,18:00,UTC,0,1016.3,84,0,-1,13.5,10.8,50000,219,7.6,4.3
2019,9,6,19:00,UTC,0,1017,84,0,-1,12.9,10.3,22560,230,6.3,4
2019,9,6,20:00,UTC,1,1017.4,84,0,-1,12.4,9.7,50000,241,6.9,4.1
2019,9,6,21:00,UTC,1,1018.1,87,0,-1,12.2,10,50000,239,5.8,3.5
2019,9,6,22:00,UTC,0,1018.5,91,0,-1,11.2,9.8,50000,237,4.5,2.9
2019,9,6,23:00,UTC,0,1018.9,88,0,-1,10.9,9,50000,223,3.5,2.3
2019,9,7,00:00,UTC,0,1019.2,95,0,-1,10.1,9.3,50000,209,1.3,0.9
2019,9,7,01:00,UTC,0,1019.4,95,0,-1,9.5,8.8,50000,125,1.4,1.3
2019,9,7,02:00,UTC,0,1019.7,96,0,-1,10.2,9.7,50000,137,2.7,2.2
2019,9,7,03:00,UTC,1,1020.1,97,0,-1,10.3,9.8,50000,117,3.3,2.8
2019,9,7,04:00,UTC,7,1020.1,93,0,-1,11.9,10.8,50000,97,3.1,2.5
2019,9,7,05:00,UTC,5,1020.4,89,0,-1,13.2,11.4,50000,177,4.4,2.6
2019,9,7,06:00,UTC,1,1020.9,85,0,-1,14.9,12.4,50000,170,6.1,3.5
2019,9,7,07:00,UTC,5,1021.1,78,0,-1,15.9,12.1,42960,174,8.1,4.8
2019,9,7,08:00,UTC,7,1021.4,78,0,-1,15.6,11.9,39430,176,8.2,5.4
2019,9,7,09:00,UTC,5,1021.8,73,0,-1,17.3,12.4,33000,171,8,5
2019,9,7,10:00,UTC,7,1022,64,0,-1,17.2,10.3,39160,183,8.2,5.5
2019,9,7,11:00,UTC,5,1022.1,67,0,-1,18,11.7,40050,150,6.4,3.7
2019,9,7,12:00,UTC,5,1022,66,0,-1,17.7,11.3,48240,140,7.7,4.8
2019,9,7,13:00,UTC,7,1022.2,80,0,-1,15.7,12.2,39730,140,7.6,4.7
2019,9,7,14:00,UTC,7,1022.3,85,0,-1,15.9,13.5,50000,139,5,3
2019,9,7,15:00,UTC,7,1022.7,96,3,-1,14.6,14,12520,185,4,2.4
2019,9,7,16:00,UTC,1,1022.9,93,0,-1,14.7,13.5,44600,152,2.6,1.4
2019,9,7,17:00,UTC,3,1023.1,95,0,-1,14.6,13.8,35330,118,4.1,2.9
2019,9,7,18:00,UTC,7,1023.4,91,0,-1,14.3,12.9,49930,127,4.6,2.6
2019,9,7,19:00,UTC,1,1023.7,91,0,-1,13.7,12.3,47070,128,3.7,2.6
2019,9,7,20:00,UTC,0,1024,95,0,-1,13,12.2,40300,81,3.3,2.6
2019,9,7,21:00,UTC,0,1024.2,95,0,-1,12.9,12.1,42540,125,3.1,2.6
2019,9,7,22:00,UTC,3,1024.3,98,0,-1,13,12.7,31790,135,3.4,2.4
2019,9,7,23:00,UTC,5,1024.5,97,0,-1,13.1,12.6,33240,169,3.1,2.2
2019,9,8,00:00,UTC,7,1024.6,97,0,-1,13.3,12.8,28270,141,3.6,2.7
2019,9,8,01:00,UTC,7,1024.7,97,0,-1,13,12.5,23420,120,3.7,3
2019,9,8,02:00,UTC,7,1024.8,96,0,-1,13.4,12.8,31350,121,3.9,2.9
2019,9,8,03:00,UTC,7,1024.9,95,0,-1,13.7,13,41150,103,3,2.3
2019,9,8,04:00,UTC,5,1025.2,93,0,-1,13.8,12.8,42030,119,3.3,2.6
2019,9,8,05:00,UTC,7,1025.2,91,0,-1,14.3,12.8,47410,107,3.3,2.7
2019,9,8,06:00,UTC,7,1025.5,86,0,-1,16.1,13.8,46580,125,4.4,2.9
2019,9,8,07:00,UTC,7,1025.6,78,0,-1,16.4,12.6,49190,129,3.9,3
2019,9,8,08:00,UTC,7,1025.7,77,0,-1,16.1,12,44970,130,4.4,3
2019,9,8,09:00,UTC,8,1026.2,75,0,-1,16.4,11.9,50000,109,3.3,2.1
2019,9,8,10:00,UTC,7,1026.1,77,0,-1,16.4,12.5,50000,52,3,2
2019,9,8,11:00,UTC,7,1026.3,71,0,-1,16.5,11.3,50000,73,5.7,3.4
2019,9,8,12:00,UTC,7,1026,77,0,-1,16.1,12,39860,58,5,3.2
2019,9,8,13:00,UTC,7,1025.8,82,0.3,-1,15.6,12.6,39040,51,4.8,3.3
2019,9,8,14:00,UTC,7,1025.6,88,0.4,-1,15.1,13.1,17780,43,5.8,4
2019,9,8,15:00,UTC,7,1025.4,89,0,-1,14.9,13.1,34280,44,6.6,4.7
2019,9,8,16:00,UTC,7,1025,85,0,-1,14.6,12.2,44960,37,7.3,4.8
2019,9,8,17:00,UTC,7,1024.9,85,0,-1,14.6,12.1,49960,44,7.1,4.8
2019,9,8,18:00,UTC,7,1024.6,88,0,-1,14.3,12.3,50000,49,6.5,4.5
2019,9,8,19:00,UTC,8,1024.4,86,0,-1,14.8,12.5,45410,54,6.2,3.5
2019,9,8,20:00,UTC,7,1024,85,0,-1,15.3,12.8,50000,51,5.5,3.4
2019,9,8,21:00,UTC,8,1023.7,82,0,-1,16.4,13.3,50000,68,7.2,4.7
2019,9,8,22:00,UTC,7,1023.3,81,0,-1,16.7,13.5,50000,75,6.7,4.5
2019,9,8,23:00,UTC,7,1022.7,83,0,-1,16.6,13.7,50000,71,8,4.1
2019,9,9,00:00,UTC,3,1022.3,85,0,-1,16.3,13.8,46350,69,7.9,3.8
2019,9,9,01:00,UTC,7,1022.4,86,0,-1,16.5,14.1,47900,82,7.7,5
2019,9,9,02:00,UTC,8,1021.7,87,0,-1,16.4,14.2,39800,76,7.1,4.7
2019,9,9,03:00,UTC,7,1021,93,0,-1,15.8,14.6,31880,71,7.2,4.1
2019,9,9,04:00,UTC,3,1020.8,94,0,-1,15.7,14.7,21750,76,7.3,4.1
2019,9,9,05:00,UTC,8,1020.6,94,0,-1,16.1,15.1,15160,71,6.8,4.1
2019,9,9,06:00,UTC,7,1020.4,93,0,-1,16.7,15.5,17480,88,7.6,4.6
2019,9,9,07:00,UTC,7,1020,89,0,-1,17.2,15.4,25330,95,8.6,5.2
2019,9,9,08:00,UTC,7,1020.5,92,0,-1,17,15.6,17120,119,8.6,5.7
2019,9,9,09:00,UTC,7,1021,97,2.9,-1,16.6,16,7140,174,5.1,3.2
2019,9,9,10:00,UTC,7,1021.1,97,0,-1,17,16.5,12860,158,4,2.6
2019,9,9,11:00,UTC,7,1020.9,91,0,-1,18.1,16.6,18590,161,2.6,1.6
2019,9,9,12:00,UTC,7,1021.1,85,0,-1,18.4,15.7,34910,132,4,2.3
2019,9,9,13:00,UTC,8,1020.9,84,0,-1,18.1,15.3,30560,128,4.3,2.2
2019,9,9,14:00,UTC,5,1020.7,81,0,-1,19,15.7,35560,96,3.6,2.3
2019,9,9,15:00,UTC,5,1020.6,82,0,-1,18.5,15.4,33500,95,4,2.5
2019,9,9,16:00,UTC,0,1021,88,0,-1,17.5,15.5,24440,75,2.7,1.6
2019,9,9,17:00,UTC,0,1021.3,91,0,-1,16.7,15.2,20170,75,4.9,2.9
2019,9,9,18:00,UTC,0,1021.6,95,0,-1,16.3,15.5,11930,69,5.1,2.9
2019,9,9,19:00,UTC,0,1021.7,96,0,-1,15.8,15.2,8840,62,4.1,3.2
2019,9,9,20:00,UTC,3,1021.8,98,0,-1,15.5,15.1,3460,51,4.5,3.4
2019,9,9,21:00,UTC,7,1021.7,99,0,-1,15.7,15.5,4420,56,5,3.4
2019,9,9,22:00,UTC,1,1021.3,98,0,-1,15.7,15.3,6740,54,6.1,4.4
2019,9,9,23:00,UTC,1,1021.1,97,0,-1,15.6,15.2,5540,52,5.1,3.6
2019,9,10,00:00,UTC,7,1020.7,97,0,-1,15.7,15.2,5250,50,4.8,3.7
2019,9,10,01:00,UTC,7,1020.7,98,0,-1,15.7,15.3,5060,50,4.5,3.2
2019,9,10,02:00,UTC,7,1020,98,0,-1,15.6,15.3,3760,61,5,3.8
2019,9,10,03:00,UTC,8,1020.3,99,0,-1,15.9,15.7,1240,42,3.6,2.5
2019,9,10,04:00,UTC,9,1020.4,99,0,-1,16,15.9,560,26,4.3,3
2019,9,10,05:00,UTC,9,1020.1,99,0,-1,16.1,15.9,1250,67,5.9,3.7
2019,9,10,06:00,UTC,1,1020,96,0,-1,17.3,16.8,10340,49,5.3,3.2
2019,9,10,07:00,UTC,0,1019.9,84,0,-1,18.9,16.1,21240,61,4.9,3.6
2019,9,10,08:00,UTC,0,1020.1,78,0,-1,19.7,15.8,28330,85,7.6,5.1
2019,9,10,09:00,UTC,0,1020.1,68,0,-1,20.5,14.5,31280,78,6.3,4.3
2019,9,10,10:00,UTC,0,1020.2,69,0,-1,20.6,14.8,27420,90,10.4,6.4
2019,9,10,11:00,UTC,0,1019.9,71,0,-1,21.1,15.6,27200,81,7.1,4.7
2019,9,10,12:00,UTC,0,1019.4,73,0,-1,20.9,15.9,23890,93,8.2,5.1
2019,9,10,13:00,UTC,0,1019.1,72,0,-1,21.1,15.9,28180,102,9.3,5.8
2019,9,10,14:00,UTC,0,1018.9,67,0,-1,21.4,15.1,31180,92,7.8,4.9
2019,9,10,15:00,UTC,0,1018.6,64,0,-1,21.5,14.3,38550,106,7.3,4.8
2019,9,10,16:00,UTC,0,1018.6,62,0,-1,21.4,13.7,33040,117,9.3,5.8
2019,9,10,17:00,UTC,0,1018.7,63,0,-1,20.9,13.6,42540,117,8.9,5.8
2019,9,10,18:00,UTC,1,1018.4,62,0,-1,21,13.3,40840,115,9.5,6.4
2019,9,10,19:00,UTC,5,1018.6,62,0,-1,20.6,13.2,46030,120,12.8,7.2
2019,9,10,20:00,UTC,1,1018.8,71,0,-1,18.8,13.5,34880,154,6.7,4.3
2019,9,10,21:00,UTC,8,1018.2,64,0,-1,19.3,12.4,36390,118,4.5,2.7
2019,9,10,22:00,UTC,7,1017.8,76,0,-1,18.2,14,36060,85,4.8,3.6
2019,9,10,23:00,UTC,1,1017.8,75,0,-1,18.3,13.8,34880,138,8.5,5.1
2019,9,11,00:00,UTC,0,1017.4,71,0,-1,17.8,12.4,35220,135,7.4,4.7
2019,9,11,01:00,UTC,0,1017.2,73,0,-1,17.5,12.5,37150,144,9.3,5.6
2019,9,11,02:00,UTC,1,1016.9,74,0,-1,17.1,12.4,43070,147,8.7,5.5
2019,9,11,03:00,UTC,0,1016.7,73,0,-1,16.3,11.5,47510,153,12.4,6.2
2019,9,11,04:00,UTC,0,1016.5,77,0,-1,15.7,11.6,50000,154,10.3,6
2019,9,11,05:00,UTC,0,1016.1,76,0,-1,16,11.8,43600,148,10.6,6.7
2019,9,11,06:00,UTC,0,1015.7,71,0,-1,16.7,11.5,36020,148,12.5,6.3
2019,9,11,07:00,UTC,0,1015.4,68,0,-1,17.3,11.3,40740,147,11.4,5.9
2019,9,11,08:00,UTC,5,1015.1,69,0,-1,16.8,11.1,26970,152,12.5,8.1
2019,9,11,09:00,UTC,8,1014.9,85,1.3,-1,14.8,12.2,14690,162,11.5,7
2019,9,11,10:00,UTC,8,1014.6,84,0,-1,15.1,12.5,13210,168,15.5,7.9
2019,9,11,11:00,UTC,8,1014.7,86,0,-1,15,12.7,44400,168,16.6,9.7
2019,9,11,12:00,UTC,7,1014.2,84,0,-1,16.1,13.4,35340,162,15.8,8.1
2019,9,11,13:00,UTC,7,1013.9,88,0,-1,15.8,13.9,21190,159,12.6,7.8
2019,9,11,14:00,UTC,7,1013.2,91,0,-1,15.6,14.2,16740,156,12.3,7.1
2019,9,11,15:00,UTC,7,1012.7,86,0,-1,16.7,14.4,41530,166,17.3,9.1
2019,9,11,16:00,UTC,7,1012.9,90,0,-1,16.4,14.7,40150,173,13.2,7.7
2019,9,11,17:00,UTC,7,1013.2,91,0,-1,16.5,15,44640,180,12.4,5.8
2019,9,11,18:00,UTC,7,1013.1,92,0,-1,16.4,15,20900,194,10.9,5.7
2019,9,11,19:00,UTC,7,1013.6,94,0,-1,15.8,14.9,18090,219,10.9,7.1
2019,9,11,20:00,UTC,7,1013.7,93,0,-1,16.2,15,18850,211,9.7,6.6
2019,9,11,21:00,UTC,7,1014,93,0,-1,15.7,14.6,18790,213,11.6,6.7
2019,9,11,22:00,UTC,5,1014.7,89,0,-1,15.4,13.5,34360,223,11.9,7.8
2019,9,11,23:00,UTC,7,1014.7,89,0,-1,15.6,13.7,27880,207,10.1,6.7
2019,9,12,00:00,UTC,3,1014.7,87,0,-1,15.5,13.3,32610,206,11,7.2
2019,9,12,01:00,UTC,7,1014.6,88,0,-1,15.3,13.3,35100,197,11.8,7.2
2019,9,12,02:00,UTC,7,1014.3,89,0,-1,15.3,13.4,37330,195,11,7.1
2019,9,12,03:00,UTC,7,1013.7,89,0,-1,15.2,13.4,29920,191,12.8,7
2019,9,12,04:00,UTC,7,1013.4,90,0,-1,15,13.4,31950,192,15.7,9.7
2019,9,12,05:00,UTC,7,1013.1,85,0,-1,15.4,13,34200,184,14.9,8
2019,9,12,06:00,UTC,7,1013.2,82,0,-1,15.7,12.7,24670,191,16.3,9
2019,9,12,07:00,UTC,7,1012.7,83,0,-1,15.7,12.8,39040,191,13.6,7.6
2019,9,12,08:00,UTC,7,1012.3,89,0,-1,14.7,12.9,16790,182,16.7,9.7
2019,9,12,09:00,UTC,7,1012,92,0.5,-1,14.7,13.4,9080,181,14.1,7.9
2019,9,12,10:00,UTC,7,1011.7,93,0,-1,15.1,14,19440,193,16.2,10.2
2019,9,12,11:00,UTC,5,1012,93,0,-1,15.5,14.3,29380,205,12.3,8.4
2019,9,12,12:00,UTC,7,1012,80,0,-1,16.2,12.7,43110,218,13.9,9.1
2019,9,12,13:00,UTC,3,1012,72,0,-1,16.6,11.5,33390,222,18.4,9.4
2019,9,12,14:00,UTC,1,1012.1,71,0,-1,16.7,11.3,35370,220,13.2,9
2019,9,12,15:00,UTC,3,1012.5,74,0,-1,16.1,11.3,34460,221,11.1,7.1
2019,9,12,16:00,UTC,1,1012.7,80,0,-1,15,11.7,28520,222,11.7,7.1
2019,9,12,17:00,UTC,1,1013,83,0,-1,14.5,11.7,29230,219,11.3,6.7
2019,9,12,18:00,UTC,0,1013.1,87,0,-1,14.3,12.2,23790,218,8.7,5.6
2019,9,12,19:00,UTC,0,1013,88,0,-1,14.1,12.2,24520,221,7.9,5
2019,9,12,20:00,UTC,0,1012.7,89,0,-1,14.2,12.4,23500,220,8.2,5.3
2019,9,12,21:00,UTC,7,1012.2,87,0,-1,14.7,12.5,26330,218,9.8,6.3
2019,9,12,22:00,UTC,3,1011.7,87,0,-1,14.5,12.4,25480,220,7.2,5
2019,9,12,23:00,UTC,7,1011.4,85,0,-1,14.7,12.2,29940,223,7,4.1
2019,9,13,00:00,UTC,7,1010.9,84,0,-1,14.6,11.9,30390,226,6.5,4.3
2019,9,13,01:00,UTC,7,1011,83,0,-1,14.4,11.5,35350,220,9.2,5.5
2019,9,13,02:00,UTC,7,1010.2,79,0,-1,14.3,10.8,37820,231,8,5.3
2019,9,13,03:00,UTC,7,1009.8,79,0,-1,14.1,10.6,38450,235,7,4.3
2019,9,13,04:00,UTC,7,1009.3,79,0,-1,14.2,10.6,38240,228,9.3,6.2
2019,9,13,05:00,UTC,5,1009.1,80,0,-1,14.2,10.8,34650,228,8,4.9
2019,9,13,06:00,UTC,7,1009.1,80,0,-1,14.7,11.3,40220,224,7.4,4
2019,9,13,07:00,UTC,3,1008.7,79,0,-1,14.9,11.4,32980,230,6.9,4.1
2019,9,13,08:00,UTC,5,1008.3,73,0,-1,16.6,11.6,30700,235,7.4,4.8
2019,9,13,09:00,UTC,7,1008.7,81,1,-1,13,9.8,21630,298,7.4,4.4
2019,9,13,10:00,UTC,7,1008.8,93,3.6,-1,11.2,10.1,6280,275,5.9,3.7
2019,9,13,11:00,UTC,7,1008.7,96,1.3,-1,11.2,10.6,11460,226,4.2,3.2
2019,9,13,12:00,UTC,7,1008.3,96,0.7,-1,12,11.3,21140,261,5.1,3.7
2019,9,13,13:00,UTC,7,1008.6,94,0,-1,12.5,11.6,50000,257,5.6,3.5
2019,9,13,14:00,UTC,5,1008.6,89,0,-1,13.6,11.9,50000,259,8.4,4
2019,9,13,15:00,UTC,5,1008.8,89,0,-1,12.1,10.3,50000,280,5.6,3.5
2019,9,13,16:00,UTC,0,1009.3,89,0,-1,11.3,9.5,50000,279,8.2,5.1
2019,9,13,17:00,UTC,1,1010.1,91,0,-1,10.8,9.3,50000,274,7.9,4.7
2019,9,13,18:00,UTC,0,1010.7,87,0,-1,10.3,8.3,50000,274,8,5.1
2019,9,13,19:00,UTC,0,1011.2,86,0,-1,9.6,7.3,50000,274,7,4.4
2019,9,13,20:00,UTC,0,1011.3,90,0,-1,8.9,7.3,50000,249,5.9,4.4
2019,9,13,21:00,UTC,0,1011.7,87,0,-1,8.8,6.8,50000,250,6.8,4.8
2019,9,13,22:00,UTC,0,1012,86,0,-1,8.7,6.5,50000,250,6.7,5.1
2019,9,13,23:00,UTC,0,1012.4,85,0,-1,8.6,6.3,50000,255,6.8,4.9
2019,9,14,00:00,UTC,0,1012.9,88,0,-1,8.1,6.3,50000,254,6.2,4.5
2019,9,14,01:00,UTC,0,1013.3,89,0,-1,7.8,6.2,50000,255,6,4.1
2019,9,14,02:00,UTC,0,1013.6,91,0,-1,7.5,6.2,50000,253,6.1,4.2
2019,9,14,03:00,UTC,0,1013.9,90,0,-1,7.6,6.1,50000,252,6.2,4.5
2019,9,14,04:00,UTC,0,1014.1,90,0,-1,7.7,6.1,50000,252,6.3,4.8
2019,9,14,05:00,UTC,0,1014.2,88,0,-1,8.3,6.4,50000,255,6.6,4.1
2019,9,14,06:00,UTC,0,1014.6,80,0,-1,10.2,6.8,50000,260,6.1,4.1
2019,9,14,07:00,UTC,0,1014.8,73,0,-1,11.9,7.2,50000,263,9.1,5.3
2019,9,14,08:00,UTC,3,1014.8,67,0,-1,12.5,6.7,39740,273,10.2,6.4
2019,9,14,09:00,UTC,3,1015.1,63,0,-1,14,7.1,42300,267,8.7,5.5
2019,9,14,10:00,UTC,5,1015.1,59,0,-1,13.8,6,47550,253,11.7,6.9
2019,9,14,11:00,UTC,1,1015,62,0,-1,13.8,6.7,46930,289,8.2,4.3
2019,9,14,12:00,UTC,5,1015.2,78,0,-1,11.4,7.8,50000,289,7.8,4.4
2019,9,14,13:00,UTC,5,1015.5,77,0,-1,11.2,7.4,10580,283,11.3,6
2019,9,14,14:00,UTC,0,1015.2,70,0,-1,12.2,6.9,50000,281,8.2,4.8
2019,9,14,15:00,UTC,3,1015.2,75,0,-1,11.1,6.9,50000,285,4.5,2.8
2019,9,14,16:00,UTC,0,1015.4,63,0,-1,11.8,4.9,50000,280,8.2,5
2019,9,14,17:00,UTC,3,1015.7,70,0,-1,10.6,5.4,50000,261,6.7,3.8
2019,9,14,18:00,UTC,5,1016.1,75,0,-1,10,5.7,50000,255,6.5,4.1
2019,9,14,19:00,UTC,0,1016,78,0,-1,8.7,5,50000,250,6.4,4.2
2019,9,14,20:00,UTC,0,1015.6,79,0,-1,8.4,5,50000,244,6.2,4.3
2019,9,14,21:00,UTC,0,1015.3,81,0,-1,8.1,5.1,50000,251,5.7,3.9
2019,9,14,22:00,UTC,0,1014.3,86,0,-1,7.2,5,50000,237,4.1,2.9
2019,9,14,23:00,UTC,0,1013.3,89,0,-1,6.8,5.2,50000,218,3.9,3.1
2019,9,15,00:00,UTC,1,1012.4,92,0,-1,6.9,5.7,50000,184,2.6,2.2
2019,9,15,01:00,UTC,7,1011,92,0,-1,8,6.8,50000,162,3.8,2.6
2019,9,15,02:00,UTC,7,1009,73,0,-1,10.8,6.3,50000,172,5.5,4
2019,9,15,03:00,UTC,7,1007.3,93,0.5,-1,9.9,8.8,11370,201,7.3,4.7
2019,9,15,04:00,UTC,7,1004.9,96,4,-1,10.2,9.6,5930,156,8.3,5.5
2019,9,15,05:00,UTC,8,1002.8,96,0.8,-1,10.5,10,10020,205,8.5,5.3
2019,9,15,06:00,UTC,7,1000.7,97,1.4,-1,10.5,10,10320,202,6.4,4.2
2019,9,15,07:00,UTC,7,998.7,95,1.9,-1,10.7,10,11050,201,10.2,6.1
2019,9,15,08:00,UTC,8,996.2,97,1.3,-1,11.2,10.7,10360,180,9.4,4.2
2019,9,15,09:00,UTC,8,994,96,0.1,-1,12.3,11.7,13450,222,9.6,5.7
2019,9,15,10:00,UTC,7,992.5,95,0,-1,12.4,11.5,40780,221,8.1,5.1
2019,9,15,11:00,UTC,7,991.1,95,0,-1,12.9,12,39310,220,7.9,4.6
2019,9,15,12:00,UTC,8,989.4,94,0,-1,12.9,11.9,16240,228,8.3,5.1
2019,9,15,13:00,UTC,7,988.8,90,0,-1,13.2,11.5,49760,251,10,6.7
2019,9,15,14:00,UTC,7,989,90,2.5,-1,10.5,8.9,10690,262,10.9,5.8
2019,9,15,15:00,UTC,0,989.1,88,0,-1,11.4,9.5,50000,236,7.6,4.8
2019,9,15,16:00,UTC,3,989.3,89,0,-1,11.6,9.9,50000,233,8.2,5.5
2019,9,15,17:00,UTC,0,989.8,86,0,-1,11.2,8.8,50000,238,11,6.3
2019,9,15,18:00,UTC,0,990.3,87,0,-1,10.3,8.3,50000,243,8.5,5.9
2019,9,15,19:00,UTC,0,990.2,87,0,-1,9.9,7.8,50000,244,7.9,5.5
2019,9,15,20:00,UTC,1,990.2,84,0,-1,9.5,6.9,50000,240,7.6,5.1
2019,9,15,21:00,UTC,0,990.2,80,0,-1,9.2,6,50000,238,8.5,5.6
2019,9,15,22:00,UTC,0,989.7,85,0,-1,8.7,6.3,50000,244,8.9,5.7
2019,9,15,23:00,UTC,0,989.6,85,0,-1,8.7,6.3,50000,242,8.7,6.3
2019,9,16,00:00,UTC,0,989.6,84,0,-1,8.5,6,50000,240,8.2,5.6
2019,9,16,01:00,UTC,1,989.4,87,0,-1,8.3,6.2,50000,243,8.5,5.5
2019,9,16,02:00,UTC,0,989.1,91,0,-1,7.7,6.4,50000,239,6.7,4.2
2019,9,16,03:00,UTC,0,989.2,92,0,-1,7.3,6.1,50000,252,6,4.6
2019,9,16,04:00,UTC,1,989.2,94,0,-1,7.8,6.9,50000,248,6.7,4.7
2019,9,16,05:00,UTC,1,989,92,0,-1,8.8,7.5,50000,259,6.3,4.3
2019,9,16,06:00,UTC,1,989.3,84,0,-1,10.3,7.8,42040,273,8.5,5.1
2019,9,16,07:00,UTC,0,989.6,73,0,-1,11.8,7,50000,273,8.9,5.3
2019,9,16,08:00,UTC,7,990.1,72,0,-1,12,7.1,50000,267,9.3,5.7
2019,9,16,09:00,UTC,5,990.7,72,0,-1,11.8,6.9,50000,284,9,4.8
2019,9,16,10:00,UTC,7,991.4,71,0,-1,12,6.8,50000,289,9.6,6
2019,9,16,11:00,UTC,7,992.1,71,0,-1,12.4,7.2,50000,301,7.9,4.6
2019,9,16,12:00,UTC,7,992.6,68,0,-1,12.4,6.6,50000,316,7.1,4.6
2019,9,16,13:00,UTC,8,993.2,67,0,-1,12.6,6.7,50000,305,7.4,4
2019,9,16,14:00,UTC,7,993.7,64,0,-1,13.3,6.5,50000,301,7.1,3.8
2019,9,16,15:00,UTC,5,994.3,77,0,-1,11.2,7.3,50000,299,6.2,4.1
2019,9,16,16:00,UTC,8,994.9,93,1.5,-1,9.8,8.7,18510,287,4.4,2.8
2019,9,16,17:00,UTC,7,995.4,95,0,-1,9.4,8.6,32170,300,5,3
2019,9,16,18:00,UTC,7,995.8,94,0,-1,8.9,8,50000,305,4.2,2.7
2019,9,16,19:00,UTC,8,996.3,95,0,-1,8.8,8.1,50000,293,6.6,4
2019,9,16,20:00,UTC,7,996.5,94,0,-1,8.7,7.9,50000,295,6.6,3.5
2019,9,16,21:00,UTC,7,996.8,95,0,-1,8.4,7.6,47790,294,5.4,3.5
2019,9,16,22:00,UTC,1,996.8,95,0,-1,7.8,7,50000,293,6.2,3.5
2019,9,16,23:00,UTC,7,996.9,95,0,-1,7.3,6.5,47400,284,6,3.7
2019,9,17,00:00,UTC,5,996.9,95,0,-1,6.7,5.9,48650,292,5.9,3.5
2019,9,17,01:00,UTC,1,996.9,96,0,-1,6.1,5.6,39250,285,5.2,3.4
2019,9,17,02:00,UTC,1,996.8,97,0,-1,5.6,5.1,42010,285,4.7,3
2019,9,17,03:00,UTC,5,996.9,98,0,-1,5,4.6,24240,275,4.5,3.2
2019,9,17,04:00,UTC,1,996.9,98,0,-1,4.8,4.5,31540,279,4.9,3.6
2019,9,17,05:00,UTC,1,996.9,96,0,-1,5.2,4.7,37310,289,6.1,3.3
2019,9,17,06:00,UTC,1,997,92,0,-1,6.3,5.1,42400,287,4.5,2.8
2019,9,17,07:00,UTC,1,997,82,0,-1,7.8,4.9,50000,290,4.1,2.5
2019,9,17,08:00,UTC,7,997.1,77,0,-1,9,5.1,46790,302,4.1,2.5
2019,9,17,09:00,UTC,7,997.3,76,0,-1,9.9,5.9,50000,287,5.1,2.8
2019,9,17,10:00,UTC,7,997.2,64,0,-1,10.9,4.4,47510,306,5.8,2.5
2019,9,17,11:00,UTC,7,997.3,61,0,-1,11.5,4.3,49660,302,5.7,2.5
2019,9,17,12:00,UTC,7,997.5,63,0,-1,11.3,4.5,50000,307,4.9,2.1
2019,9,17,13:00,UTC,3,997.4,57,0,-1,11.4,3.3,50000,310,4.8,2.8
2019,9,17,14:00,UTC,7,997.3,63,0,-1,11.4,4.5,50000,301,4,2
2019,9,17,15:00,UTC,7,997.4,60,0,-1,11.2,3.6,50000,322,5.5,3.5
2019,9,17,16:00,UTC,3,997.5,71,0,-1,9.8,4.9,50000,319,4.6,2.5
2019,9,17,17:00,UTC,7,997.7,75,0,-1,9.5,5.3,50000,325,3.4,2
2019,9,17,18:00,UTC,7,998,77,0,-1,9.2,5.4,50000,337,3.6,2.2
2019,9,17,19:00,UTC,7,998.1,80,0,-1,9.1,5.8,50000,340,5,2.5
2019,9,17,20:00,UTC,7,998.4,85,0,-1,8.7,6.4,32540,338,5.4,3
2019,9,17,21:00,UTC,7,998.4,87,0,-1,8.4,6.4,50000,327,4.2,2.1
2019,9,17,22:00,UTC,5,998.6,91,0,-1,7.9,6.5,50000,328,4.4,2.8
2019,9,17,23:00,UTC,3,999,93,0,-1,7.5,6.5,50000,339,4.7,3.1
2019,9,18,00:00,UTC,5,999.3,94,0,-1,7.3,6.4,50000,343,5.1,3.3
2019,9,18,01:00,UTC,7,999.5,91,0,-1,7.6,6.2,50000,345,5,3.3
2019,9,18,02:00,UTC,7,1000,89,0,-1,7.6,6,50000,358,5.3,3.5
2019,9,18,03:00,UTC,5,1000.5,90,0,-1,7.3,5.7,50000,345,6.6,4.2
2019,9,18,04:00,UTC,7,1001.1,91,0,-1,6.9,5.5,50000,341,5.2,3.3
2019,9,18,05:00,UTC,7,1001.8,86,0,-1,7.8,5.6,50000,354,5.7,3.6
2019,9,18,06:00,UTC,7,1002.4,82,0,-1,8.8,5.8,50000,358,8.1,5.1
2019,9,18,07:00,UTC,1,1003,73,0,-1,9.9,5.3,40450,16,7.6,4.8
2019,9,18,08:00,UTC,1,1003.6,64,0,-1,10.7,4.2,44210,28,9.3,6
2019,9,18,09:00,UTC,3,1004.2,59,0,-1,11,3.4,45080,357,8,4.2
2019,9,18,10:00,UTC,3,1004.8,53,0,-1,12.3,3.1,37870,6,7.3,3.9
2019,9,18,11:00,UTC,3,1005.3,52,0,-1,12.1,2.5,49770,351,6.6,3.8
2019,9,18,12:00,UTC,1,1005.9,58,0,-1,11,3.1,44990,353,5.4,3.4
2019,9,18,13:00,UTC,5,1006.4,66,0,-1,10.3,4.2,36470,340,9.6,4.4
2019,9,18,14:00,UTC,5,1007.1,71,0,-1,9.2,4.3,50000,315,5.7,3.5
2019,9,18,15:00,UTC,5,1007.8,67,0,-1,9.4,3.5,50000,329,9.9,5.3
2019,9,18,16:00,UTC,5,1008.5,64,0,-1,9,2.5,50000,338,5.8,3.5
2019,9,18,17:00,UTC,3,1009.1,81,0,-1,6.8,3.7,50000,324,3.8,2.5
2019,9,18,18:00,UTC,1,1009.9,87,0,-1,5.7,3.8,50000,321,3.6,2.6
2019,9,18,19:00,UTC,0,1010.4,88,0,-1,4.9,3.1,50000,324,5,3.3
2019,9,18,20:00,UTC,3,1010.8,82,0,-1,5.5,2.6,50000,336,4.9,3.3
2019,9,18,21:00,UTC,0,1011.2,88,0,-1,4.4,2.5,50000,334,4.4,3.2
2019,9,18,22:00,UTC,0,1011.5,92,0,-1,3.3,2.1,50000,337,4.1,2.8
2019,9,18,23:00,UTC,0,1011.8,94,0,-1,2.8,1.9,50000,339,4.5,3.5
2019,9,19,00:00,UTC,0,1012.2,96,0,-1,2,1.4,50000,329,3.5,2.3
2019,9,19,01:00,UTC,0,1012.4,97,0,-1,1.6,1.2,50000,13,2.1,1.2
2019,9,19,02:00,UTC,1,1012.6,98,0,-1,1.2,0.9,32830,331,3,2.1
2019,9,19,03:00,UTC,7,1012.7,98,0,-1,1.2,1,22400,327,3,2.4
2019,9,19,04:00,UTC,7,1013,99,0,-1,1.3,1,18000,306,3.2,2.5
2019,9,19,05:00,UTC,7,1013.3,98,0,-1,2.3,2.1,31000,324,2.1,1.6
2019,9,19,06:00,UTC,7,1013.5,87,0,-1,5.3,3.2,45420,4,1.6,0.7
2019,9,19,07:00,UTC,3,1013.7,79,0,-1,7.1,3.6,46320,269,1.8,1
2019,9,19,08:00,UTC,1,1014,59,0,-1,9,1.5,43970,256,3.1,1.7
2019,9,19,09:00,UTC,0,1014.1,52,0,-1,10.1,0.6,50000,271,4.4,2.5
2019,9,19,10:00,UTC,0,1014,52,0,-1,11.1,1.5,50000,250,3.4,1.7
2019,9,19,11:00,UTC,5,1013.9,47,0,-1,12.3,1.3,46440,281,4.8,2.2
2019,9,19,12:00,UTC,1,1013.9,50,0,-1,12.4,2.4,48430,206,5.7,3.5
2019,9,19,13:00,UTC,7,1014,58,0,-1,11,3,50000,234,8.6,3.9
2019,9,19,14:00,UTC,7,1014,64,0,-1,10,3.4,50000,266,7.3,4.8
2019,9,19,15:00,UTC,5,1014.4,80,4.6,-1,7.3,4,6820,341,13.4,7.1
2019,9,19,16:00,UTC,1,1014.6,93,0,-1,6.1,5,50000,299,5.6,3.4
2019,9,19,17:00,UTC,1,1015.2,89,0,-1,5.5,3.8,50000,303,5,3.7
2019,9,19,18:00,UTC,0,1015.9,88,0,-1,5.2,3.3,50000,324,7.7,3.5
2019,9,19,19:00,UTC,0,1016.2,88,0,-1,4.7,2.9,50000,313,6.9,3.8
2019,9,19,20:00,UTC,0,1016.4,91,0,-1,3.9,2.6,50000,305,7.2,3.9
2019,9,19,21:00,UTC,0,1016.9,92,0,-1,3.6,2.4,50000,304,6.8,3.8
2019,9,19,22:00,UTC,0,1017.3,93,0,-1,3.4,2.4,50000,304,6.8,3.9
2019,9,19,23:00,UTC,0,1017.6,94,0,-1,2.8,1.9,50000,301,5.7,3.8
2019,9,20,00:00,UTC,0,1017.6,96,0,-1,2.3,1.7,50000,296,5.8,4.1
2019,9,20,01:00,UTC,0,1017.6,96,0,-1,1.7,1.1,50000,303,5,3.3
2019,9,20,02:00,UTC,0,1017.4,97,0,-1,1.3,0.9,50000,289,4.7,3.8
2019,9,20,03:00,UTC,0,1017.5,97,0,-1,0.8,0.4,50000,281,4.6,3.9
2019,9,20,04:00,UTC,0,1017.7,97,0,-1,0.6,0.2,50000,288,4.6,3.8
2019,9,20,05:00,UTC,0,1017.6,96,0,-1,1.5,0.9,50000,276,4.3,3.6
2019,9,20,06:00,UTC,0,1017.2,81,0,-1,4.3,1.3,46610,283,4.9,3.5
2019,9,20,07:00,UTC,0,1017.5,70,0,-1,7.1,1.9,45170,266,5.9,3.4
2019,9,20,08:00,UTC,0,1017.3,63,0,-1,8.8,2.2,50000,282,6.2,2.9
2019,9,20,09:00,UTC,0,1017.1,60,0,-1,9.6,2.3,47370,262,4.9,2.9
2019,9,20,10:00,UTC,1,1016.8,52,0,-1,11.2,1.6,41600,276,5.4,3.2
2019,9,20,11:00,UTC,5,1016.3,45,0,-1,11.9,0.3,50000,266,5.2,2.8
2019,9,20,12:00,UTC,7,1016.1,49,0,-1,11.8,1.3,49560,277,5.8,3.9
2019,9,20,13:00,UTC,1,1015.8,50,0,-1,11.3,1.2,50000,255,6.2,4.1
2019,9,20,14:00,UTC,5,1015.4,52,0,-1,10.5,1.2,50000,251,7.7,5
2019,9,20,15:00,UTC,3,1015.2,58,0,-1,10.2,2.3,50000,255,5.2,3.4
2019,9,20,16:00,UTC,5,1014.9,67,0,-1,8.8,3,50000,245,3.7,3
2019,9,20,17:00,UTC,7,1014.8,77,0,-1,7.9,4.1,50000,229,4.4,2.8
2019,9,20,18:00,UTC,7,1014.5,81,0,-1,7.8,4.8,50000,234,3.9,2.8
2019,9,20,19:00,UTC,7,1014.5,79,0,-1,8,4.6,50000,261,8.5,5.2
2019,9,20,20:00,UTC,7,1013.9,84,0,-1,7.2,4.6,50000,258,4.3,3
2019,9,20,21:00,UTC,1,1013.4,90,0,-1,6.1,4.6,50000,256,2.7,2.2
2019,9,20,22:00,UTC,7,1012.8,90,0,-1,6.3,4.8,50000,220,1.7,1.3
2019,9,20,23:00,UTC,8,1012.1,91,0,-1,6.7,5.4,33720,120,1.5,1.1
2019,9,21,00:00,UTC,8,1011.3,91,0,-1,7.2,5.8,50000,121,2.5,1.9
2019,9,21,01:00,UTC,8,1010.3,92,0,-1,7.4,6.1,43700,105,2.8,2.4
2019,9,21,02:00,UTC,8,1009.7,94,0.2,-1,7.4,6.5,24340,111,3.9,2.7
2019,9,21,03:00,UTC,8,1008.7,94,0.7,-1,7.7,6.8,7750,105,4,2.6
2019,9,21,04:00,UTC,8,1008.1,96,0.4,-1,7.8,7.3,13340,96,3.1,1.8
2019,9,21,05:00,UTC,7,1007.7,97,0,-1,8.1,7.7,26080,0,0.6,0
2019,9,21,06:00,UTC,7,1007.5,98,0,-1,8.4,8.1,19810,289,2.7,1.9
2019,9,21,07:00,UTC,7,1007.6,93,0,-1,9,8,45100,293,4.8,3.3
2019,9,21,08:00,UTC,7,1007.6,89,0,-1,9.5,7.8,49690,302,5,2.8
2019,9,21,09:00,UTC,8,1007.8,86,0,-1,9.6,7.5,50000,313,3.5,1.6
2019,9,21,10:00,UTC,7,1007.8,81,0,-1,10.1,7,50000,326,4.7,2.5
2019,9,21,11:00,UTC,8,1007.9,84,0,-1,10.2,7.7,28740,295,4.4,2.4
2019,9,21,12:00,UTC,8,1008.2,88,0,-1,9.9,7.9,8030,319,6.3,3.6
2019,9,21,13:00,UTC,7,1008.2,84,0,-1,10.1,7.4,50000,321,5.1,2.7
2019,9,21,14:00,UTC,8,1008.3,78,0,-1,10.1,6.5,50000,313,4.8,2.9
2019,9,21,15:00,UTC,8,1008.5,83,0,-1,9.7,6.9,50000,296,3.9,2.4
2019,9,21,16:00,UTC,8,1009,94,0,-1,8.6,7.7,10350,289,4.4,2.8
2019,9,21,17:00,UTC,8,1009.1,95,0,-1,8,7.2,14420,319,4,2
2019,9,21,18:00,UTC,8,1009.4,95,0,-1,7.9,7.2,8550,320,4.2,2.5
2019,9,21,19:00,UTC,8,1009.5,97,0.4,-1,8,7.4,5400,314,7,3
2019,9,21,20:00,UTC,8,1010,97,0.9,-1,7.8,7.3,4770,318,5.1,2.4
2019,9,21,21:00,UTC,7,1010.3,96,0,-1,7.2,6.6,50000,299,5.5,3.4
2019,9,21,22:00,UTC,3,1010.8,96,0,-1,6.6,6,50000,309,7,3.6
2019,9,21,23:00,UTC,5,1011.2,89,0,-1,6.3,4.6,50000,320,7.9,4.6
2019,9,22,00:00,UTC,0,1011.5,94,0,-1,4.8,3.9,50000,312,5.3,3.1
2019,9,22,01:00,UTC,0,1012.1,95,0,-1,4.7,3.9,50000,318,7.4,3.5
2019,9,22,02:00,UTC,0,1012.7,94,0,-1,4,3.2,50000,313,6.5,3.8
2019,9,22,03:00,UTC,1,1013,95,0,-1,3.5,2.8,50000,314,5.5,3.5
2019,9,22,04:00,UTC,1,1013.6,94,0,-1,3.6,2.7,50000,320,6.6,4.1
2019,9,22,05:00,UTC,0,1014,94,0,-1,3.4,2.5,48530,321,5.4,3.2
2019,9,22,06:00,UTC,0,1014.6,86,0,-1,5,2.8,50000,327,5.8,3.5
2019,9,22,07:00,UTC,0,1015.3,77,0,-1,6.8,2.9,50000,328,5.9,3.6
2019,9,22,08:00,UTC,3,1015.9,76,0,-1,7.5,3.6,50000,325,6.2,3
2019,9,22,09:00,UTC,1,1016.1,62,0,-1,8.8,1.9,47370,330,7.9,4.3
2019,9,22,10:00,UTC,1,1016.5,56,0,-1,9.5,1.2,45980,326,8,4
2019,9,22,11:00,UTC,1,1017,54,0,-1,9.3,0.4,50000,327,8.7,4.7
2019,9,22,12:00,UTC,1,1017.2,50,0,-1,9.7,-0.3,42970,332,9.9,4.7
2019,9,22,13:00,UTC,1,1017.4,49,0,-1,10.1,-0.2,50000,342,7.5,4.3
2019,9,22,14:00,UTC,0,1017.8,49,0,-1,9.5,-0.7,50000,326,7.7,4.5
2019,9,22,15:00,UTC,1,1018.5,50,0,-1,9.3,-0.7,50000,327,7.3,4.7
2019,9,22,16:00,UTC,0,1019,57,0,-1,8.1,0,50000,327,5.7,3.4
2019,9,22,17:00,UTC,0,1019.5,68,0,-1,5.7,0.3,50000,317,4.9,3
2019,9,22,18:00,UTC,0,1020.1,77,0,-1,4.1,0.5,50000,315,4.9,3.5
2019,9,22,19:00,UTC,0,1020.8,80,0,-1,3.7,0.6,50000,313,5.1,3.4
2019,9,22,20:00,UTC,0,1020.9,75,0,-1,4.4,0.3,50000,325,6.5,3.9
2019,9,22,21:00,UTC,0,1021.3,77,0,-1,3.7,0.2,50000,323,6.3,3.6
2019,9,22,22:00,UTC,0,1021.8,85,0,-1,2.3,0,50000,328,5.5,3.3
2019,9,22,23:00,UTC,0,1022.3,91,0,-1,1.2,-0.1,50000,310,4,2.5
2019,9,23,00:00,UTC,0,1022.9,94,0,-1,0.6,-0.3,50000,313,3.8,2.7
2019,9,23,01:00,UTC,0,1022.8,96,0,-1,0.1,-0.5,50000,319,4.6,3.2
2019,9,23,02:00,UTC,0,1023.1,96,0,-1,0.4,-0.2,50000,322,3.9,2.5
2019,9,23,03:00,UTC,0,1023.4,96,0,-1,-0.1,-0.6,50000,313,4.3,2.9
2019,9,23,04:00,UTC,0,1023.4,97,0,-1,-0.1,-0.5,50000,311,4.3,3
2019,9,23,05:00,UTC,0,1023.9,97,0,-1,0.4,0,50000,302,4.8,3
2019,9,23,06:00,UTC,0,1023.8,87,0,-1,3,1,45440,294,4.7,2.6
2019,9,23,07:00,UTC,0,1023.6,74,0,-1,6,1.8,50000,298,5.2,3
2019,9,23,08:00,UTC,0,1023.7,67,0,-1,7.4,1.7,50000,315,5.8,3.4
2019,9,23,09:00,UTC,1,1023.4,58,0,-1,9.1,1.2,49180,308,5.5,3.3
2019,9,23,10:00,UTC,0,1023,51,0,-1,10.2,0.4,49010,317,5.9,3.5
2019,9,23,11:00,UTC,7,1022.7,55,0,-1,9.7,1.1,50000,304,7.2,4.3
2019,9,23,12:00,UTC,7,1022.3,50,0,-1,11.1,1.1,48300,292,8.3,5.3
2019,9,23,13:00,UTC,7,1022.2,53,0,-1,9.5,0.5,50000,320,5.4,2.8
2019,9,23,14:00,UTC,0,1021.8,56,0,-1,9.3,1.1,50000,295,6.9,3.9
2019,9,23,15:00,UTC,7,1021.7,60,0,-1,8.8,1.5,50000,304,5.3,3.3
2019,9,23,16:00,UTC,0,1021.4,65,0,-1,7.2,1,50000,294,4.7,3
2019,9,23,17:00,UTC,0,1021.4,76,0,-1,5.3,1.5,50000,278,3.1,2.6
2019,9,23,18:00,UTC,1,1021.4,80,0,-1,4.6,1.4,45980,278,4.5,3.5
2019,9,23,19:00,UTC,1,1021.3,84,0,-1,3.7,1.3,49080,291,4.4,3.5
2019,9,23,20:00,UTC,3,1021.4,86,0,-1,3.4,1.3,27410,279,4.6,3.6
2019,9,23,21:00,UTC,8,1021.3,81,0,-1,4.8,1.8,50000,283,5.1,3.8
2019,9,23,22:00,UTC,8,1021.2,80,0,-1,5.2,2.1,50000,295,4.8,3
2019,9,23,23:00,UTC,7,1021.2,85,0,-1,4.6,2.2,50000,299,3.5,2.5
2019,9,24,00:00,UTC,7,1021.1,88,0,-1,4.2,2.3,50000,292,3.7,2.9
2019,9,24,01:00,UTC,7,1021,87,0,-1,4.3,2.4,50000,314,3.6,2.3
2019,9,24,02:00,UTC,7,1020.8,89,0,-1,3.8,2.2,50000,342,2.4,1.5
2019,9,24,03:00,UTC,7,1020.4,90,0,-1,3.6,2.1,50000,275,3.3,2.9
2019,9,24,04:00,UTC,7,1020.5,92,0,-1,3.5,2.3,50000,305,2.6,2
2019,9,24,05:00,UTC,7,1020.5,89,0,-1,3.9,2.3,50000,340,2.5,1.5
2019,9,24,06:00,UTC,5,1020.5,76,0,-1,6,2.1,45790,352,2,0.8
2019,9,24,07:00,UTC,7,1020.4,62,0,-1,8.6,1.8,36400,123,2.5,1.3
2019,9,24,08:00,UTC,1,1020.2,61,0,-1,9.1,2,40520,108,2.4,1.5
2019,9,24,09:00,UTC,7,1020.1,62,0,-1,8.9,1.9,50000,126,4.5,3.2
2019,9,24,10:00,UTC,7,1019.8,59,0,-1,9.2,1.6,50000,227,4.3,2.7
2019,9,24,11:00,UTC,7,1019.5,55,0,-1,9.7,1.1,50000,204,4.8,3.3
2019,9,24,12:00,UTC,7,1019.3,65,0,-1,9,2.8,50000,234,5.1,2.7
2019,9,24,13:00,UTC,8,1019.1,88,0,-1,7.5,5.7,43090,349,1.8,1
2019,9,24,14:00,UTC,8,1018.6,85,0.1,-1,7.3,5,27450,48,2.1,1.7
2019,9,24,15:00,UTC,8,1018,86,0,-1,7.2,4.9,49860,64,2.4,1.5
2019,9,24,16:00,UTC,8,1017.6,89,0.7,-1,7.2,5.5,18350,115,2,1.5
2019,9,24,17:00,UTC,8,1017.3,92,0.3,-1,7.3,6.1,50000,147,2.3,1.1
2019,9,24,18:00,UTC,8,1016.9,95,0,-1,7.2,6.3,50000,227,3.9,3
2019,9,24,19:00,UTC,8,1016.5,94,0.3,-1,7.2,6.3,45940,225,5.5,3.7
2019,9,24,20:00,UTC,8,1016.3,96,0.7,-1,7.2,6.6,25600,235,4.1,3
2019,9,24,21:00,UTC,8,1016.3,96,0,-1,7.1,6.5,29390,278,3,2.5
2019,9,24,22:00,UTC,8,1016.3,97,0.4,-1,6.9,6.4,11150,360,1.4,0.9
2019,9,24,23:00,UTC,8,1016.1,98,0.1,-1,6.8,6.5,6350,112,1.4,0.9
2019,9,25,00:00,UTC,8,1015.8,98,0.3,-1,6.8,6.5,4660,120,1.3,0.8
2019,9,25,01:00,UTC,8,1015.5,98,0.7,-1,7.1,6.8,7140,218,3,1.7
2019,9,25,02:00,UTC,7,1015.5,98,0,-1,6.9,6.5,6670,44,3.7,2.6
2019,9,25,03:00,UTC,7,1015.1,98,0,-1,6.8,6.5,8710,97,1.7,1.1
2019,9,25,04:00,UTC,8,1014.9,98,0,-1,6.9,6.5,8400,70,2.5,1.6
2019,9,25,05:00,UTC,7,1014.9,97,0,-1,6.9,6.5,9130,39,3,2.2
2019,9,25,06:00,UTC,8,1015,98,0,-1,6.9,6.6,8860,41,3.2,2.2
2019,9,25,07:00,UTC,8,1015.2,97,0,-1,7,6.6,5840,37,3.5,2.3
2019,9,25,08:00,UTC,7,1015.4,96,1.3,-1,6.9,6.4,11110,48,4.2,2.5
2019,9,25,09:00,UTC,7,1015.5,96,0,-1,7.2,6.5,50000,43,4.8,3.5
2019,9,25,10:00,UTC,8,1015.8,94,0,-1,7.4,6.5,42380,48,4.7,3.3
2019,9,25,11:00,UTC,7,1015.8,89,0,-1,8,6.3,50000,58,4.5,2.6
2019,9,25,12:00,UTC,8,1015.9,84,0,-1,8.1,5.6,50000,53,5,3.1
2019,9,25,13:00,UTC,8,1015.8,85,0,-1,7.8,5.4,27730,54,5,3.4
2019,9,25,14:00,UTC,7,1015.5,84,0,-1,7.8,5.4,50000,60,4.6,2.8
2019,9,25,15:00,UTC,8,1015.4,83,0,-1,7.7,5,50000,37,3.8,2.5
2019,9,25,16:00,UTC,8,1015.3,81,0,-1,7.4,4.4,50000,57,4.5,2.9
2019,9,25,17:00,UTC,7,1015.3,80,0,-1,7.4,4.2,50000,42,3.1,2.4
2019,9,25,18:00,UTC,7,1015.2,81,0,-1,7.1,4.1,50000,46,3.6,2.5
2019,9,25,19:00,UTC,5,1014.8,83,0,-1,6.7,3.9,50000,53,3.3,2.4
2019,9,25,20:00,UTC,0,1014.9,89,0,-1,5.3,3.6,50000,50,3,2.3
2019,9,25,21:00,UTC,3,1015.2,94,0,-1,4.2,3.4,50000,34,3.8,3.1
2019,9,25,22:00,UTC,7,1015.2,92,0,-1,4.7,3.5,50000,36,3.7,3
2019,9,25,23:00,UTC,7,1015.2,84,0,-1,5.4,2.9,50000,27,3.2,2.5
2019,9,26,00:00,UTC,5,1015.2,85,0,-1,5.1,2.7,50000,31,4,3
2019,9,26,01:00,UTC,0,1015.1,86,0,-1,4.6,2.4,50000,26,4,3.1
2019,9,26,02:00,UTC,7,1015,85,0,-1,5.1,2.9,50000,53,4.1,2.8
2019,9,26,03:00,UTC,3,1014.9,93,0,-1,4.1,3.1,49790,37,2.9,2.4
2019,9,26,04:00,UTC,0,1015,96,0,-1,3.1,2.6,39250,20,2.7,2
2019,9,26,05:00,UTC,8,1015.4,96,0,-1,3.9,3.4,50000,6,3.4,2.5
2019,9,26,06:00,UTC,8,1015.6,85,0,-1,5.7,3.4,49900,10,3.1,1.9
2019,9,26,07:00,UTC,3,1015.8,72,0,-1,8.1,3.4,36210,36,2.8,1.6
2019,9,26,08:00,UTC,0,1016,70,0,-1,10.1,4.8,39870,18,2.7,2
2019,9,26,09:00,UTC,0,1016.1,67,0,-1,11.7,5.7,45320,348,1.8,0.9
2019,9,26,10:00,UTC,1,1016.3,65,0,-1,12.2,5.9,45140,221,4.3,2
2019,9,26,11:00,UTC,5,1016.2,64,0,-1,12.3,5.6,50000,331,2.4,1.3
2019,9,26,12:00,UTC,3,1016.1,61,0,-1,12.9,5.6,42590,247,5.4,2.4
2019,9,26,13:00,UTC,1,1015.9,65,0,-1,13.1,6.8,50000,210,4.6,3.2
2019,9,26,14:00,UTC,1,1015.7,70,0,-1,12.2,7,44150,202,5.2,3.8
2019,9,26,15:00,UTC,0,1015.8,66,0,-1,11.8,5.7,50000,290,4.2,2
2019,9,26,16:00,UTC,0,1016,74,0,-1,10,5.5,50000,309,3.4,2
2019,9,26,17:00,UTC,0,1016.1,81,0,-1,8.2,5.2,50000,304,3.6,2.5
2019,9,26,18:00,UTC,3,1016.3,83,0,-1,7.1,4.4,50000,317,4.6,3.2
2019,9,26,19:00,UTC,7,1016.4,80,0,-1,7,3.8,50000,296,4,3.4
2019,9,26,20:00,UTC,7,1016.5,80,0,-1,6.9,3.7,50000,293,3.8,3.4
2019,9,26,21:00,UTC,7,1016.8,87,0,-1,6.4,4.4,50000,294,3.4,3
2019,9,26,22:00,UTC,7,1016.8,88,0,-1,6.5,4.6,50000,295,4.1,3.3
2019,9,26,23:00,UTC,5,1016.8,90,0,-1,6.3,4.8,50000,288,4.5,3.5
2019,9,27,00:00,UTC,1,1016.6,92,0,-1,5.6,4.5,50000,277,4.2,3.5
2019,9,27,01:00,UTC,0,1016.6,95,0,-1,5.1,4.3,50000,276,4,3.4
2019,9,27,02:00,UTC,3,1016.5,97,0,-1,4.9,4.3,41840,275,4.2,3.4
2019,9,27,03:00,UTC,0,1016.3,98,0,-1,4.1,3.8,19300,292,4.2,3.6
2019,9,27,04:00,UTC,0,1016.4,98,0,-1,3.6,3.4,16740,295,4,2.9
2019,9,27,05:00,UTC,7,1016.5,99,0,-1,4.7,4.5,29040,314,3.1,2.2
2019,9,27,06:00,UTC,7,1016.4,97,0,-1,6.1,5.7,43250,306,2.5,1.6
2019,9,27,07:00,UTC,7,1016.6,91,0,-1,7.7,6.3,39260,315,1.9,0.9
2019,9,27,08:00,UTC,3,1016.7,85,0,-1,9.2,6.8,46480,313,2.4,0.9
2019,9,27,09:00,UTC,0,1016.6,74,0,-1,11.5,7,36480,92,2.7,1.3
2019,9,27,10:00,UTC,0,1016.5,70,0,-1,12.8,7.4,32120,70,3.8,2.1
2019,9,27,11:00,UTC,3,1016.4,69,0,-1,12.7,7.1,50000,45,4.3,2.9
2019,9,27,12:00,UTC,7,1016.3,69,0,-1,13.2,7.5,50000,99,5.1,2.5
2019,9,27,13:00,UTC,7,1016.4,74,0,-1,11.9,7.3,50000,90,3.9,2.8
2019,9,27,14:00,UTC,7,1016.3,80,0,-1,11.3,8,50000,114,2.7,1.6
2019,9,27,15:00,UTC,7,1016.2,81,0,-1,11,7.9,50000,81,2.8,1.6
2019,9,27,16:00,UTC,5,1016.1,86,0,-1,10.3,8,50000,78,2.2,1.3
2019,9,27,17:00,UTC,7,1016.1,87,0,-1,10.1,8.1,50000,82,2.6,1.6
2019,9,27,18:00,UTC,7,1016.3,88,0,-1,9.9,8.1,50000,67,2.9,1.8
2019,9,27,19:00,UTC,7,1016.4,89,0,-1,9.8,8,50000,78,2.3,1.8
2019,9,27,20:00,UTC,7,1016.4,88,0,-1,9.7,7.8,50000,46,3.1,2.5
2019,9,27,21:00,UTC,7,1016.4,91,0,-1,9.4,8.1,50000,56,3.4,2.3
2019,9,27,22:00,UTC,7,1016.1,92,0,-1,9.2,8,50000,44,3.3,2.3
2019,9,27,23:00,UTC,7,1016,92,0,-1,9.1,7.9,50000,53,3.8,2.8
2019,9,28,00:00,UTC,7,1015.7,91,0,-1,9.5,8.1,50000,74,3.8,2.2
2019,9,28,01:00,UTC,7,1015.3,90,0,-1,9.3,7.8,50000,44,4.4,3
2019,9,28,02:00,UTC,7,1014.9,91,0,-1,9.1,7.8,50000,50,3.8,2.5
2019,9,28,03:00,UTC,7,1014.4,90,0,-1,9.8,8.2,50000,69,6.2,3.6
2019,9,28,04:00,UTC,7,1014,86,0,-1,10.4,8.1,50000,77,6.5,4.1
2019,9,28,05:00,UTC,7,1013.8,82,0,-1,10.8,7.8,50000,86,7.7,5
2019,9,28,06:00,UTC,7,1013.6,84,0,-1,10.8,8.3,50000,79,5.7,2.9
2019,9,28,07:00,UTC,1,1013.3,73,0,-1,12.6,7.8,44030,99,7.3,5.2
2019,9,28,08:00,UTC,0,1012.9,70,0,-1,13.2,7.8,35410,101,8,5.5
2019,9,28,09:00,UTC,0,1012.7,71,0,-1,12.7,7.7,38790,84,8.4,5.3
2019,9,28,10:00,UTC,1,1012.3,72,0,-1,13,8.1,46510,89,10.5,7.3
2019,9,28,11:00,UTC,0,1011.6,70,0,-1,13.3,8,44750,84,8.8,5.1
2019,9,28,12:00,UTC,1,1011.2,75,0,-1,13.2,8.9,43890,82,9.3,5.9
2019,9,28,13:00,UTC,1,1010.6,73,0,-1,13.2,8.4,50000,82,9.4,5.9
2019,9,28,14:00,UTC,1,1010,70,0,-1,12.8,7.5,44280,82,11,5.7
2019,9,28,15:00,UTC,1,1009.4,74,0,-1,12.3,7.9,50000,81,9,5.6
2019,9,28,16:00,UTC,0,1008.8,79,0,-1,11.8,8.3,50000,69,8.1,4.8
2019,9,28,17:00,UTC,0,1008.3,83,0,-1,11.4,8.6,50000,69,5.9,3.4
2019,9,28,18:00,UTC,7,1007.5,88,0,-1,10.9,8.9,48200,60,5,2.9
2019,9,28,19:00,UTC,5,1006.7,92,0,-1,10.5,9.2,36590,48,4,3
2019,9,28,20:00,UTC,5,1005.9,92,0,-1,10.5,9.3,36420,55,4.4,3.2
2019,9,28,21:00,UTC,7,1005.4,89,0,-1,11.2,9.4,35980,93,4.7,2.9
2019,9,28,22:00,UTC,7,1004.6,78,0,-1,12.4,8.7,44860,132,7,4.7
2019,9,28,23:00,UTC,8,1003.8,79,0,-1,12.2,8.7,44000,120,7.8,5
2019,9,29,00:00,UTC,8,1002.9,82,0,-1,11.8,8.9,23740,118,8.4,6.1
2019,9,29,01:00,UTC,7,1002,94,0.4,-1,10.6,9.7,6060,123,8.2,4.8
2019,9,29,02:00,UTC,8,1001,98,0.8,-1,10.8,10.5,3670,126,7.5,5
2019,9,29,03:00,UTC,7,1000.2,98,1.5,-1,11.2,10.8,6030,153,6.4,4.2
2019,9,29,04:00,UTC,8,999.5,97,0,-1,11.5,11,14030,152,8.2,5
2019,9,29,05:00,UTC,8,998.9,96,0,-1,11.6,11.1,12810,155,7.3,4.6
2019,9,29,06:00,UTC,7,998.4,96,0,-1,12,11.3,11640,153,8.5,5.6
2019,9,29,07:00,UTC,7,998,95,0,-1,12.4,11.7,11830,172,10.8,5.6
2019,9,29,08:00,UTC,7,997.6,91,0,-1,13.1,11.7,16040,173,9.6,5.7
2019,9,29,09:00,UTC,8,997.2,90,0,-1,13.3,11.7,20260,198,10.8,6
2019,9,29,10:00,UTC,7,996.9,86,0,-1,13.5,11.2,48330,212,6.6,3.8
2019,9,29,11:00,UTC,5,996.4,80,0,-1,14.1,10.7,50000,204,8.1,4
2019,9,29,12:00,UTC,7,996.1,83,0,-1,13.9,11,50000,206,6.3,3.5
2019,9,29,13:00,UTC,5,995.7,77,0,-1,14.1,10.1,50000,203,7.6,4.7
2019,9,29,14:00,UTC,5,995.3,75,0,-1,14.3,10,45760,201,7.3,4.7
2019,9,29,15:00,UTC,0,994.9,85,0,-1,12.7,10.2,50000,204,6.9,4.7
2019,9,29,16:00,UTC,7,994.4,90,0,-1,11.8,10.2,46550,208,5.6,3.8
2019,9,29,17:00,UTC,7,994.1,91,0,-1,11.6,10.2,49000,220,5.5,3.7
2019,9,29,18:00,UTC,7,993.7,92,0,-1,11.6,10.3,48470,220,4.7,3.5
2019,9,29,19:00,UTC,8,993.4,92,0,-1,11.5,10.3,43020,209,4,2.7
2019,9,29,20:00,UTC,7,992.7,94,0,-1,11.7,10.7,36200,193,3.2,1.9
2019,9,29,21:00,UTC,7,992.2,96,0,-1,11.3,10.7,31770,193,2.8,1.6
2019,9,29,22:00,UTC,7,991.7,95,0,-1,11.8,11,25440,168,5.1,3
2019,9,29,23:00,UTC,5,991.2,96,0,-1,11.3,10.6,36990,172,4.6,3.1
2019,9,30,00:00,UTC,7,990.6,96,0.2,-1,11.5,10.9,9390,192,4.2,2.5
2019,9,30,01:00,UTC,8,989.9,96,0,-1,11.5,10.9,40440,183,3.9,2.5
2019,9,30,02:00,UTC,7,989.4,96,0,-1,11.6,11,26760,168,7.1,4.4
2019,9,30,03:00,UTC,7,989,94,0,-1,11.6,10.6,31540,162,7.9,5.3
2019,9,30,04:00,UTC,8,988.6,93,0,-1,11.5,10.5,15220,173,6.9,4.1
2019,9,30,05:00,UTC,8,988.4,93,0,-1,11.7,10.6,46190,171,7.9,4.5
2019,9,30,06:00,UTC,7,988.2,89,0,-1,12.1,10.4,50000,180,8,4.8
2019,9,30,07:00,UTC,7,988,88,0,-1,12.7,10.7,46870,173,6.8,3.9
2019,9,30,08:00,UTC,7,987.9,87,0,-1,13.2,11.1,45410,156,6.6,3.7
2019,9,30,09:00,UTC,7,988,89,0,-1,13.1,11.4,37340,157,6.7,3.2
2019,9,30,10:00,UTC,7,987.9,88,0,-1,13.6,11.6,38730,170,7.4,4.8
2019,9,30,11:00,UTC,7,987.8,85,0,-1,13.9,11.4,34670,147,6.7,4
2019,9,30,12:00,UTC,7,987.6,85,0,-1,14.1,11.7,44720,157,7.4,4.6
2019,9,30,13:00,UTC,7,987.5,87,0,-1,13.5,11.4,47960,150,6.6,3.8
2019,9,30,14:00,UTC,7,987.3,88,0,-1,13.5,11.5,48740,156,4.8,3
2019,9,30,15:00,UTC,5,987.1,89,0,-1,13.1,11.3,50000,145,3.8,2.1
2019,9,30,16:00,UTC,5,987.1,92,0,-1,12.5,11.3,44810,121,2.9,1.9
2019,9,30,17:00,UTC,5,986.8,94,0,-1,12,11.1,41870,88,3.5,2.6
2019,9,30,18:00,UTC,7,986.6,96,0,-1,12,11.4,42580,88,3.4,2.5
2019,9,30,19:00,UTC,7,986.1,97,0,-1,12.3,11.8,29790,133,4.1,3.1
2019,9,30,20:00,UTC,7,985.7,97,0,-1,12.5,12,28770,146,5.4,3.6
2019,9,30,21:00,UTC,7,985,97,0.3,-1,12.4,11.9,10170,174,4.9,3
2019,9,30,22:00,UTC,7,984.4,97,0,-1,12.4,12,19400,167,7.2,4.8
2019,9,30,23:00,UTC,7,983.8,96,0.4,-1,12.2,11.6,12000,177,7.6,5.1
2019,10,1,00:00,UTC,7,983.1,97,1.5,-1,12,11.6,8350,170,7.8,4.8
2019,10,1,01:00,UTC,8,982,95,3.3,-1,10.4,9.6,7530,212,7.4,4.7
2019,10,1,02:00,UTC,7,981.6,95,1.9,-1,10.5,9.7,6630,215,10.8,6.1
2019,10,1,03:00,UTC,7,981.4,97,0,-1,10.1,9.7,34760,223,6.3,3.6
2019,10,1,04:00,UTC,7,981.6,94,0,-1,9.4,8.4,50000,240,10.2,6.2
2019,10,1,05:00,UTC,8,982.5,93,0,-1,7.9,6.9,6660,243,13.7,8.3
2019,10,1,06:00,UTC,7,983.5,94,0,-1,6.8,6,12670,251,12.1,7.4
2019,10,1,07:00,UTC,8,984.5,86,0,-1,7.1,4.9,50000,241,10.8,6.8
2019,10,1,08:00,UTC,1,985.2,72,0,-1,7.8,3.1,45860,237,12.4,7.8
2019,10,1,09:00,UTC,1,985.6,65,0,-1,8.7,2.4,47690,239,13.5,7.2
2019,10,1,10:00,UTC,5,985.8,59,0,-1,9.7,2,50000,233,12.4,6.3
2019,10,1,11:00,UTC,3,985.7,63,0,-1,9.2,2.6,50000,227,11.9,6.9
2019,10,1,12:00,UTC,7,986.3,91,4,-1,5.5,4.1,8690,248,12.1,6.8
2019,10,1,13:00,UTC,5,986.5,84,0,-1,6.9,4.4,50000,231,7.3,4.6
2019,10,1,14:00,UTC,0,986.8,80,0,-1,6.5,3.3,50000,219,8.8,5.5
2019,10,1,15:00,UTC,0,987,77,0,-1,6.5,2.7,50000,232,7.1,4.3
2019,10,1,16:00,UTC,7,987.2,71,0,-1,6.9,2,50000,230,8.5,4.8
2019,10,1,17:00,UTC,3,987.5,75,0,-1,6.4,2.2,50000,260,6.6,4.2
2019,10,1,18:00,UTC,1,987.3,87,0,-1,4.2,2.1,50000,282,4.5,3
2019,10,1,19:00,UTC,1,987,89,0,-1,3.6,1.9,50000,257,3.1,1.7
2019,10,1,20:00,UTC,7,986.6,90,0,-1,3.8,2.3,50000,190,3.4,2.2
2019,10,1,21:00,UTC,7,986.8,80,0,-1,5.5,2.3,50000,213,4.3,2.7
2019,10,1,22:00,UTC,8,986.5,76,0,-1,6.5,2.5,50000,173,4.4,2.9
2019,10,1,23:00,UTC,7,986.3,78,0,-1,6.8,3.2,50000,171,4.4,2.8
2019,10,2,00:00,UTC,7,986.5,85,0,-1,6.4,4.1,50000,267,4.9,3.2
2019,10,2,01:00,UTC,8,986.1,88,0,-1,6.4,4.6,50000,227,8.9,5.3
2019,10,2,02:00,UTC,7,985.8,88,0,-1,6.3,4.5,27820,226,8.7,5
2019,10,2,03:00,UTC,3,985.5,93,0,-1,5.6,4.5,50000,230,5.7,3.4
2019,10,2,04:00,UTC,5,985.6,93,0,-1,6.1,5,47680,251,4.7,3.5
2019,10,2,05:00,UTC,7,986.4,96,0,-1,5.7,5.1,50000,268,3.7,2.4
2019,10,2,06:00,UTC,7,987.7,97,0,-1,6.1,5.7,50000,281,4.2,3
2019,10,2,07:00,UTC,7,989,92,0,-1,6.9,5.7,44210,298,5.3,3.3
2019,10,2,08:00,UTC,7,990.9,88,0,-1,7.2,5.4,50000,311,3.2,2.1
2019,10,2,09:00,UTC,7,992.5,81,0,-1,8.1,4.9,50000,326,5.4,2.9
2019,10,2,10:00,UTC,7,994.5,88,0,-1,6.7,4.8,9720,339,4.3,2.8
2019,10,2,11:00,UTC,7,996.1,81,0,-1,7.7,4.6,50000,334,5.4,3.5
2019,10,2,12:00,UTC,7,997.9,75,0,-1,7.8,3.7,50000,357,7.1,3.9
2019,10,2,13:00,UTC,5,999.2,64,0,-1,8.3,1.9,50000,355,7.3,4.6
2019,10,2,14:00,UTC,5,1000.2,66,0,-1,8,2,50000,15,5.9,3.5
2019,10,2,15:00,UTC,0,1001.5,67,0,-1,7.8,2.1,50000,25,4.3,2.5
2019,10,2,16:00,UTC,0,1002.6,84,0,-1,5.6,3.2,50000,54,2.1,1.6
2019,10,2,17:00,UTC,5,1003.9,80,0,-1,6.6,3.4,50000,30,7.3,4.3
2019,10,2,18:00,UTC,7,1005,81,0,-1,6.2,3.3,50000,34,8.5,5.5
2019,10,2,19:00,UTC,7,1005.6,80,0,-1,5.8,2.7,50000,22,8.6,4.8
2019,10,2,20:00,UTC,1,1006.1,81,0,-1,4.6,1.6,50000,18,7.3,4.5
2019,10,2,21:00,UTC,1,1006.9,83,0,-1,3.9,1.3,50000,33,7.9,5.4
2019,10,2,22:00,UTC,1,1007.6,87,0,-1,3.3,1.3,50000,28,7.3,4.3
2019,10,2,23:00,UTC,7,1007.8,88,0,-1,3.3,1.4,50000,30,8.8,5.4
2019,10,3,00:00,UTC,7,1008.1,87,0,-1,3.6,1.6,50000,29,9,5.6
2019,10,3,01:00,UTC,7,1008.2,84,0,-1,4.1,1.6,50000,38,8.5,5.3
2019,10,3,02:00,UTC,7,1008.4,82,0,-1,4.1,1.3,50000,29,8.3,5.8
2019,10,3,03:00,UTC,7,1008.4,84,0,-1,4.3,1.8,50000,33,8.7,5.5
2019,10,3,04:00,UTC,7,1008.5,88,0,-1,4.3,2.5,13470,33,9.1,5.5
2019,10,3,05:00,UTC,7,1008.9,84,0,-1,4.6,2.2,50000,39,9.2,5.5
2019,10,3,06:00,UTC,7,1009.4,88,0.6,-1,4.1,2.4,19260,32,11,6.1
2019,10,3,07:00,UTC,7,1009.6,88,0.1,-1,4.2,2.4,38680,31,10,6.8
2019,10,3,08:00,UTC,7,1009.6,88,0,-1,4.8,2.9,31210,33,9,5.7
2019,10,3,09:00,UTC,7,1009.7,85,0.5,-1,5.2,3,33010,34,9,5.5
2019,10,3,10:00,UTC,7,1009.9,83,0,-1,5.4,2.8,27840,29,8.4,5.3
2019,10,3,11:00,UTC,7,1010,84,0.3,-1,5.4,2.8,24850,28,9.4,6
2019,10,3,12:00,UTC,7,1010.1,82,0,-1,5.6,2.8,38320,24,9.5,5.3
2019,10,3,13:00,UTC,7,1010.2,81,0,-1,5.5,2.4,50000,30,8.5,5.2
2019,10,3,14:00,UTC,8,1010.3,86,0.4,-1,5.1,3,34240,15,6.8,4.3
2019,10,3,15:00,UTC,8,1010.6,87,0.3,-1,4.6,2.7,23150,17,10.1,5.3
2019,10,3,16:00,UTC,7,1010.9,89,0.4,-1,4.1,2.4,26180,25,8.7,5.3
2019,10,3,17:00,UTC,8,1010.8,88,0.3,-1,3.7,1.9,20490,22,9.2,5.2
2019,10,3,18:00,UTC,8,1010.7,92,0,-1,3.1,1.9,16940,20,8.6,4.7
2019,10,3,19:00,UTC,8,1010.9,92,0,-1,2.9,1.8,16690,15,8.3,4.6
2019,10,3,20:00,UTC,7,1010.8,92,0,-1,2.7,1.5,29220,9,8.1,5.4
2019,10,3,21:00,UTC,8,1010.7,92,0,-1,2.6,1.4,22560,8,8.3,5.4
2019,10,3,22:00,UTC,7,1010.4,92,0,-1,2.5,1.3,18660,6,8.8,5
2019,10,3,23:00,UTC,7,1010.1,93,0,-1,2.2,1.2,12430,6,8.3,4.8
2019,10,4,00:00,UTC,7,1009.9,91,0,-1,2.3,0.9,50000,6,8.1,5.5
2019,10,4,01:00,UTC,8,1010,89,0,-1,2.4,0.7,50000,5,9.8,5.8
2019,10,4,02:00,UTC,8,1009.9,90,0,-1,2.2,0.7,25960,360,7.9,4.8
2019,10,4,03:00,UTC,7,1009.7,88,0,-1,2.3,0.5,50000,360,9.5,5.2
2019,10,4,04:00,UTC,7,1009.8,90,0,-1,2,0.6,45520,350,7.8,4.7
2019,10,4,05:00,UTC,7,1009.8,89,0,-1,2,0.4,50000,354,8.4,5.2
2019,10,4,06:00,UTC,7,1009.8,89,0,-1,2.2,0.5,45880,353,9,4.9
2019,10,4,07:00,UTC,7,1009.9,88,0,-1,2.5,0.7,44900,345,6.9,4.5
2019,10,4,08:00,UTC,7,1009.9,86,0,-1,2.9,0.8,33430,346,8,5.1
2019,10,4,09:00,UTC,7,1010.1,89,1,-1,2.9,1.2,14710,359,7.1,4.3
2019,10,4,10:00,UTC,7,1010.2,85,0,-1,3.2,0.9,12570,330,6.8,4.3
2019,10,4,11:00,UTC,5,1010.3,88,0.8,-1,2.4,0.6,8080,347,8.9,4.7
2019,10,4,12:00,UTC,3,1010.1,86,0,-1,3.7,1.7,50000,323,5.1,2.9
2019,10,4,13:00,UTC,7,1010.5,91,0,-1,2.2,0.8,50000,352,5.3,3.3
2019,10,4,14:00,UTC,7,1010.8,91,0,-1,2.6,1.3,50000,339,5,2.9
2019,10,4,15:00,UTC,3,1011,91,0,-1,1.8,0.6,50000,332,5.4,3
2019,10,4,16:00,UTC,3,1011.3,91,0,-1,1.8,0.5,50000,327,6.2,3.6
2019,10,4,17:00,UTC,3,1011.8,92,0,-1,1.4,0.3,50000,327,6.6,4
2019,10,4,18:00,UTC,7,1012.1,91,0,-1,1.5,0.3,50000,328,7.5,4.8
2019,10,4,19:00,UTC,5,1012.4,91,0,-1,1.1,-0.1,50000,335,5.6,3.3
2019,10,4,20:00,UTC,0,1012.6,94,0,-1,0.3,-0.5,50000,325,5.7,3
2019,10,4,21:00,UTC,1,1013,93,0,-1,0.3,-0.7,50000,326,5,2.9
2019,10,4,22:00,UTC,0,1013.1,96,0,-1,-0.2,-0.8,50000,313,5.9,3.5
2019,10,4,23:00,UTC,0,1013.3,97,0,-1,-0.8,-1.3,40260,309,5.7,3.7
2019,10,5,00:00,UTC,0,1013.4,94,0,-1,-0.4,-1.2,50000,313,6.3,3.5
2019,10,5,01:00,UTC,5,1013.9,94,0,-1,-0.5,-1.4,50000,311,5.8,3.5
2019,10,5,02:00,UTC,5,1014,93,0,-1,-0.4,-1.4,50000,315,6.3,4
2019,10,5,03:00,UTC,0,1014.3,90,0,-1,-0.5,-1.9,50000,319,6,3
2019,10,5,04:00,UTC,5,1014.6,89,0,-1,-0.2,-1.8,50000,325,6,3.2
2019,10,5,05:00,UTC,3,1015,90,0,-1,-0.6,-2,50000,317,5.4,3
2019,10,5,06:00,UTC,5,1015.4,85,0,-1,0.8,-1.5,50000,317,5.6,2.9
2019,10,5,07:00,UTC,3,1015.8,81,0,-1,1.7,-1.1,49440,321,7.8,4.2
2019,10,5,08:00,UTC,7,1016.2,79,0,-1,2,-1.2,50000,335,6.9,4
2019,10,5,09:00,UTC,1,1016.5,74,0,-1,3.4,-0.8,48980,343,6.7,4
2019,10,5,10:00,UTC,3,1016.9,71,0,-1,3.7,-1.1,50000,344,7.6,4.6
2019,10,5,11:00,UTC,3,1017.2,68,0,-1,4.3,-1.1,50000,354,6.2,3.3
2019,10,5,12:00,UTC,1,1017.3,60,0,-1,5.2,-1.9,50000,323,7.1,4.3
2019,10,5,13:00,UTC,7,1017.6,66,0,-1,4.5,-1.4,50000,356,6.4,3.5
2019,10,5,14:00,UTC,5,1018.2,69,0,-1,4.1,-1.1,50000,1,4.2,2.9
2019,10,5,15:00,UTC,1,1018.7,68,0,-1,3.8,-1.7,50000,341,5.2,3.3
2019,10,5,16:00,UTC,8,1019.1,80,0,-1,2.4,-0.6,50000,326,3,1.8
2019,10,5,17:00,UTC,5,1019.7,82,0,-1,1.6,-1.2,50000,298,2.9,2.2
2019,10,5,18:00,UTC,8,1020.1,85,0,-1,1.8,-0.3,50000,291,3.3,2.7
2019,10,5,19:00,UTC,8,1020.6,78,0,-1,2.4,-1,50000,326,4,2.5
2019,10,5,20:00,UTC,8,1020.9,76,0,-1,2.7,-1.2,50000,332,3.6,2.2
2019,10,5,21:00,UTC,7,1021.1,84,0,-1,1.8,-0.6,50000,313,3.4,2.3
2019,10,5,22:00,UTC,8,1021.4,83,0,-1,2,-0.7,50000,309,3.2,1.9
2019,10,5,23:00,UTC,8,1021.3,83,0,-1,2.2,-0.3,50000,300,4.3,2.9
2019,10,6,00:00,UTC,7,1021.1,84,0,-1,2.2,-0.2,50000,310,4.1,2.7
2019,10,6,01:00,UTC,8,1021,83,0,-1,2.4,-0.1,50000,318,4.9,2.9
2019,10,6,02:00,UTC,7,1021,83,0,-1,2.3,-0.3,50000,315,4.9,3.3
2019,10,6,03:00,UTC,7,1021.1,87,0,-1,1.5,-0.4,50000,315,5.7,3.3
2019,10,6,04:00,UTC,0,1021.1,92,0,-1,0.2,-1,50000,316,5.4,2.9
2019,10,6,05:00,UTC,7,1021,95,0,-1,0.1,-0.6,50000,312,4.2,2.7
2019,10,6,06:00,UTC,7,1021.1,88,0,-1,1.4,-0.5,50000,303,4.1,2.6
2019,10,6,07:00,UTC,7,1021.1,83,0,-1,2.6,0,50000,307,4.8,2.7
2019,10,6,08:00,UTC,7,1020.8,77,0,-1,3.3,-0.3,50000,307,5.4,2.5
2019,10,6,09:00,UTC,7,1020.3,73,0,-1,5,0.5,47790,314,5.3,2.8
2019,10,6,10:00,UTC,7,1020,71,0,-1,5.8,0.8,50000,316,6.4,3.7
2019,10,6,11:00,UTC,7,1019.5,77,0,-1,5.4,1.6,50000,303,4.7,2.9
2019,10,6,12:00,UTC,7,1019.5,76,0,-1,5.6,1.7,50000,328,6.3,3.6
2019,10,6,13:00,UTC,7,1019.1,74,0,-1,6,1.6,50000,303,5.6,3.4
2019,10,6,14:00,UTC,7,1018.7,74,0,-1,5.6,1.3,50000,335,5.2,2.1
2019,10,6,15:00,UTC,7,1018.4,78,0,-1,5.2,1.6,50000,328,3.3,1.8
2019,10,6,16:00,UTC,8,1018.2,86,0,-1,4.3,2.1,50000,305,2.7,1.8
2019,10,6,17:00,UTC,7,1018,89,0,-1,3.8,2.2,50000,299,2.8,1.8
2019,10,6,18:00,UTC,7,1017.4,90,0,-1,3.6,2.2,50000,312,3.2,1.6
2019,10,6,19:00,UTC,7,1017.3,92,0,-1,3.4,2.2,50000,303,1.9,1.3
2019,10,6,20:00,UTC,8,1016.9,94,0,-1,3.2,2.3,50000,296,2.4,1.7
2019,10,6,21:00,UTC,7,1016.5,94,0,-1,3.1,2.2,50000,311,2.5,1.7
2019,10,6,22:00,UTC,7,1016.1,95,0,-1,3,2.3,44000,315,3.9,2.4
2019,10,6,23:00,UTC,5,1015.7,98,0,-1,2.1,1.7,38300,313,3,2
2019,10,7,00:00,UTC,7,1015.4,98,0,-1,2.5,2.3,50000,322,3.3,2
2019,10,7,01:00,UTC,7,1015.1,98,0,-1,2.3,2,50000,326,3.2,1.8
2019,10,7,02:00,UTC,7,1014.9,98,0,-1,2.2,1.9,50000,338,3,2
2019,10,7,03:00,UTC,8,1014.9,98,0,-1,2.1,1.8,43020,328,2.3,1.1
2019,10,7,04:00,UTC,8,1014.8,98,0,-1,2.5,2.1,21250,338,3.1,1.8
2019,10,7,05:00,UTC,8,1014.7,97,0,-1,2.7,2.2,13740,340,3.5,2.3
2019,10,7,06:00,UTC,7,1014.5,95,0,-1,3.1,2.4,20690,329,2.3,1.3
2019,10,7,07:00,UTC,7,1014.2,90,0,-1,4.3,2.8,36720,331,3.2,1.7
2019,10,7,08:00,UTC,7,1014.3,86,0,-1,4.6,2.4,50000,8,6.6,3.6
2019,10,7,09:00,UTC,5,1014.1,76,0,-1,5.9,2,40580,24,5.7,3.8
2019,10,7,10:00,UTC,7,1014,71,0,-1,6.5,1.5,50000,337,4.9,2.8
2019,10,7,11:00,UTC,7,1013.9,77,0,-1,6.1,2.3,50000,321,5.2,2.7
2019,10,7,12:00,UTC,7,1013.5,67,0,-1,6.9,1.1,50000,21,4.9,2.6
2019,10,7,13:00,UTC,5,1013.2,68,0,-1,6.8,1.2,50000,20,2.8,1.6
2019,10,7,14:00,UTC,5,1013.1,79,0,-1,5.6,2.3,50000,329,1.6,0.9
2019,10,7,15:00,UTC,1,1013,76,0,-1,5.5,1.6,50000,33,2.5,1.5
2019,10,7,16:00,UTC,7,1012.8,92,0,-1,4.3,3.1,43640,243,2.1,0.9
2019,10,7,17:00,UTC,5,1012.4,96,0,-1,3.1,2.5,50000,275,4.4,3.5
2019,10,7,18:00,UTC,7,1012.3,95,0,-1,3.6,2.9,50000,280,3.8,2.7
2019,10,7,19:00,UTC,7,1011.9,96,0,-1,3.2,2.6,50000,295,2.1,1.1
2019,10,7,20:00,UTC,7,1011.4,96,0,-1,3.3,2.8,50000,319,3.4,2.6
2019,10,7,21:00,UTC,7,1010.8,97,0,-1,3.4,3,43380,318,2.7,1.6
2019,10,7,22:00,UTC,7,1010.3,97,0,-1,3.2,2.7,33680,326,2.7,1.9
2019,10,7,23:00,UTC,7,1009.8,97,0,-1,3,2.6,23390,331,1.8,1
2019,10,8,00:00,UTC,7,1009.3,96,0,-1,3,2.4,17980,9,0.9,0.5
2019,10,8,01:00,UTC,7,1009,97,0,-1,2.6,2.1,22610,5,2.3,1.3
2019,10,8,02:00,UTC,7,1008.8,98,0,-1,1.9,1.6,11190,11,1.9,1.1
2019,10,8,03:00,UTC,7,1008.3,98,0,-1,2.6,2.3,16160,11,2.7,1.6
2019,10,8,04:00,UTC,7,1007.6,91,0,-1,3.3,2,50000,13,4,2.2
2019,10,8,05:00,UTC,7,1007,97,0,-1,2.3,1.8,18570,33,2.3,1.5
2019,10,8,06:00,UTC,7,1006.3,90,0,-1,3.5,2,50000,52,3.9,2.6
2019,10,8,07:00,UTC,7,1006.2,88,0,-1,4.2,2.4,50000,14,2.8,1.5
2019,10,8,08:00,UTC,7,1005.5,88,0,-1,4.7,2.8,49160,21,2.3,1.4
2019,10,8,09:00,UTC,7,1005.1,84,0,-1,5.6,3.1,43830,0,1,0
2019,10,8,10:00,UTC,7,1004.5,82,0,-1,6.2,3.4,50000,86,3.3,1.9
2019,10,8,11:00,UTC,7,1004.1,76,0,-1,6.5,2.5,50000,85,3.7,2.2
2019,10,8,12:00,UTC,7,1003.7,75,0,-1,7,2.8,50000,174,1.5,0.8
2019,10,8,13:00,UTC,7,1003.1,74,0,-1,7,2.7,50000,225,2.5,1.6
2019,10,8,14:00,UTC,8,1002.7,77,0,-1,6.7,2.9,50000,253,1.2,0.6
2019,10,8,15:00,UTC,7,1002.5,75,0,-1,6.3,2.2,50000,63,1.8,0.9
2019,10,8,16:00,UTC,8,1002.3,83,0,-1,5.7,3.1,50000,12,2.7,1.8
2019,10,8,17:00,UTC,7,1002,86,0,-1,5.4,3.2,50000,31,3.2,2.5
2019,10,8,18:00,UTC,7,1001.7,86,0,-1,5,2.7,50000,42,3.5,2.5
2019,10,8,19:00,UTC,7,1001.6,85,0,-1,4.8,2.6,50000,31,3.5,2.6
2019,10,8,20:00,UTC,7,1001.2,88,0,-1,4.3,2.4,50000,15,3.7,2.6
2019,10,8,21:00,UTC,8,1001,90,0,-1,4,2.5,50000,23,3,2.1
2019,10,8,22:00,UTC,8,1000.9,90,0,-1,4.2,2.6,50000,35,2.9,2.2
2019,10,8,23:00,UTC,5,1000.8,93,0,-1,3,2,50000,23,2.7,1.8
2019,10,9,00:00,UTC,5,1000.6,97,0,-1,2.2,1.8,42850,22,3.1,2.3
2019,10,9,01:00,UTC,7,1000.3,91,0,-1,3.1,1.8,50000,22,3.7,2.8
2019,10,9,02:00,UTC,1,1000.1,94,0,-1,1.6,0.7,43270,13,3.6,2.1
2019,10,9,03:00,UTC,1,1000.2,95,0,-1,1.4,0.6,49980,19,3.4,2.6
2019,10,9,04:00,UTC,7,1000.2,92,0,-1,1.8,0.7,50000,29,4.1,3.4
2019,10,9,05:00,UTC,7,1000.4,91,0,-1,1.6,0.3,50000,20,4.2,3.5
2019,10,9,06:00,UTC,7,1000.6,88,0,-1,2.2,0.4,50000,16,4.2,3
2019,10,9,07:00,UTC,3,1000.6,80,0,-1,3.4,0.3,45550,16,4.1,2.9
2019,10,9,08:00,UTC,7,1001,77,0,-1,4.1,0.5,43320,22,3.2,2.2
2019,10,9,09:00,UTC,8,1001.2,75,0,-1,5.3,1.1,42520,26,3.1,2.3
2019,10,9,10:00,UTC,7,1001.1,72,0,-1,6.7,2.1,41400,49,2.4,1.4
2019,10,9,11:00,UTC,7,1001.5,70,0,-1,7.5,2.3,50000,73,2.6,1.2
2019,10,9,12:00,UTC,7,1001.8,71,0,-1,7.5,2.7,50000,101,3.9,2.1
2019,10,9,13:00,UTC,8,1001.9,75,0,-1,7.1,3.1,50000,100,3.6,2.2
2019,10,9,14:00,UTC,7,1002.1,79,0,-1,6.9,3.5,50000,82,2.2,1.3
2019,10,9,15:00,UTC,8,1002.3,81,0,-1,6.7,3.7,50000,55,2.3,1.4
2019,10,9,16:00,UTC,8,1002.7,84,0,-1,6.5,4,37920,34,2.6,1.9
2019,10,9,17:00,UTC,8,1002.7,91,0.1,-1,5.8,4.5,18910,38,2.3,1.8
2019,10,9,18:00,UTC,8,1002.7,90,0,-1,5.7,4.1,50000,38,2.7,2.2
2019,10,9,19:00,UTC,8,1002.9,90,0,-1,5.3,3.8,50000,23,2.9,2
2019,10,9,20:00,UTC,8,1002.9,94,0.4,-1,4.8,3.9,8570,24,3.7,2.6
2019,10,9,21:00,UTC,8,1002.8,96,0,-1,4.4,3.9,6360,37,3.8,2.8
2019,10,9,22:00,UTC,7,1002.5,97,0,-1,4.6,4.2,16170,41,3.3,2.5
2019,10,9,23:00,UTC,7,1002.3,97,0,-1,4.5,4.2,11200,49,2.8,2.2
2019,10,10,00:00,UTC,7,1002.3,97,0,-1,4.4,4,13180,25,2.8,2
2019,10,10,01:00,UTC,8,1001.8,97,0,-1,4.3,3.9,12490,45,3,2
2019,10,10,02:00,UTC,7,1001.6,97,0,-1,4.4,4,15650,10,3.5,2.3
2019,10,10,03:00,UTC,8,1001.4,97,0,-1,4.4,4,12730,42,3.1,1.9
2019,10,10,04:00,UTC,7,1001.2,98,0,-1,4.5,4.2,10230,53,3.3,1.6
2019,10,10,05:00,UTC,7,1000.9,98,0,-1,4.6,4.2,8340,337,3,1.8
2019,10,10,06:00,UTC,7,1000.7,96,0,-1,5,4.5,12060,43,3,2.4
2019,10,10,07:00,UTC,7,1000.7,95,0,-1,5.6,4.9,13860,19,2.9,2
2019,10,10,08:00,UTC,7,1000.5,94,0,-1,6.6,5.7,16070,10,2.1,1.4
2019,10,10,09:00,UTC,8,1000.7,93,0,-1,7.3,6.3,17140,13,1.8,1.2
2019,10,10,10:00,UTC,8,1000.5,90,0,-1,9.1,7.5,23860,79,3.6,2
2019,10,10,11:00,UTC,7,1000.3,87,0,-1,9.3,7.2,34260,85,3.4,2.5
2019,10,10,12:00,UTC,8,1000.4,85,0,-1,9.5,7.1,46760,71,1.8,0.9
2019,10,10,13:00,UTC,8,1000.3,86,0,-1,9.3,7,46900,63,1.5,0.7
2019,10,10,14:00,UTC,8,1000.5,85,0,-1,9.4,7,50000,64,1.4,0.8
2019,10,10,15:00,UTC,8,1000.4,87,0,-1,9.3,7.2,35660,56,1.4,0.9
2019,10,10,16:00,UTC,7,1000.7,93,0,-1,8,7,29190,123,1.4,1
2019,10,10,17:00,UTC,0,1000.8,97,0,-1,6.6,6.2,7670,218,1.5,1.3
2019,10,10,18:00,UTC,3,1000.9,98,0,-1,5.9,5.6,6900,126,1.9,1.6
2019,10,10,19:00,UTC,5,1000.8,99,0,-1,5.7,5.5,4920,125,2.2,1.5
2019,10,10,20:00,UTC,8,1000.9,99,0,-1,6.4,6.2,7430,209,2.3,1.5
2019,10,10,21:00,UTC,8,1000.7,99,0,-1,6.5,6.3,10230,120,2.5,2.1
2019,10,10,22:00,UTC,7,1000.6,98,0,-1,6.8,6.6,11210,164,3.4,2.4
2019,10,10,23:00,UTC,7,1000.3,99,0,-1,9,8.8,21940,166,6.1,3.9
2019,10,11,00:00,UTC,8,1000.2,94,0,-1,9,8,46940,221,3.9,3
2019,10,11,01:00,UTC,7,1000.2,95,0,-1,9,8.3,45210,194,6.6,3.9
2019,10,11,02:00,UTC,7,1000.1,96,0,-1,9.6,9,24000,199,6.9,4.2
2019,10,11,03:00,UTC,5,999.9,95,0,-1,8.9,8.2,41140,202,6,4.1
2019,10,11,04:00,UTC,7,999.8,94,0,-1,8.2,7.3,22260,200,6.9,4.7
2019,10,11,05:00,UTC,7,999.6,95,0,-1,8.6,7.9,30350,196,5.5,3.3
2019,10,11,06:00,UTC,7,999.6,96,0,-1,9.3,8.8,29200,208,6.4,4.6
2019,10,11,07:00,UTC,7,999.4,94,0,-1,9.5,8.5,39250,195,8.3,5.2
2019,10,11,08:00,UTC,7,999.6,90,0,-1,10.1,8.6,40900,212,6.9,4.1
2019,10,11,09:00,UTC,8,999.8,87,0,-1,11,9,49420,237,5.8,3.6
2019,10,11,10:00,UTC,7,999.9,86,0,-1,11.3,9.1,50000,211,7.9,5.4
2019,10,11,11:00,UTC,7,999.7,83,0,-1,11.3,8.5,44820,208,8.3,4.9
2019,10,11,12:00,UTC,7,999.4,79,0,-1,12,8.5,41180,216,8.7,5.3
2019,10,11,13:00,UTC,7,999.3,85,0,-1,11.5,9.1,36340,206,9,6.3
2019,10,11,14:00,UTC,7,998.9,94,0,-1,10.2,9.3,18250,208,8.9,5.6
2019,10,11,15:00,UTC,7,998.7,96,0,-1,9.1,8.6,8090,230,5.1,3.2
2019,10,11,16:00,UTC,7,998.4,97,0.7,-1,9.2,8.8,27790,210,7.4,4
2019,10,11,17:00,UTC,3,997.9,96,0,-1,9.3,8.7,29830,208,6.3,3.9
2019,10,11,18:00,UTC,7,997.5,96,3.1,-1,10,9.4,6200,195,10.9,6
2019,10,11,19:00,UTC,7,996.8,96,0.3,-1,10.1,9.5,25100,191,7.5,4.3
2019,10,11,20:00,UTC,7,996.1,96,0,-1,10.1,9.5,29330,172,7.4,4.6
2019,10,11,21:00,UTC,8,995.3,98,1.1,-1,9.6,9.2,3560,153,8.3,5
2019,10,11,22:00,UTC,8,994.1,98,0,-1,10.1,9.8,25070,182,7.6,4
2019,10,11,23:00,UTC,7,993.5,97,0,-1,10.5,10.1,28540,189,8.5,5
2019,10,12,00:00,UTC,7,992.5,97,6.5,-1,10.5,10.1,4050,187,6.9,4.4
2019,10,12,01:00,UTC,7,991,96,17.7,-1,9.6,9,2250,250,8,4.8
2019,10,12,02:00,UTC,8,989.6,98,5.8,-1,8.8,8.5,3540,70,2.1,1.6
2019,10,12,03:00,UTC,7,988.4,99,2.8,-1,8.3,8.1,7000,80,3.3,2.3
2019,10,12,04:00,UTC,8,987,99,0.7,-1,8.4,8.2,8520,52,2.3,1.4
2019,10,12,05:00,UTC,7,987.1,99,0,-1,7.8,7.7,2290,232,3.7,3
2019,10,12,06:00,UTC,5,986.7,99,0,-1,7.9,7.8,7440,,,
2019,10,12,07:00,UTC,7,987.4,99,0.4,-1,8.8,8.6,34140,240,5.4,3.8
2019,10,12,08:00,UTC,7,987.5,94,0,-1,10,9.1,47330,249,9.8,6.1
2019,10,12,09:00,UTC,5,988.1,86,0,-1,11,8.7,40700,248,9.5,5.9
2019,10,12,10:00,UTC,7,988.5,82,0,-1,11.4,8.5,45380,250,12.1,7.6
2019,10,12,11:00,UTC,7,989.5,94,0,-1,9.8,8.9,12480,258,10.4,6.4
2019,10,12,12:00,UTC,7,990.6,87,0,-1,10.6,8.6,50000,252,9.9,6.7
2019,10,12,13:00,UTC,7,991.8,83,0,-1,10.5,7.8,50000,255,12.3,7.3
2019,10,12,14:00,UTC,7,993,87,0,-1,10,7.9,50000,253,11.4,7
2019,10,12,15:00,UTC,7,994.2,88,0,-1,9.5,7.5,50000,263,10.3,6.3
2019,10,12,16:00,UTC,7,995.4,89,0,-1,8.7,7,50000,259,7.2,4.3
2019,10,12,17:00,UTC,5,996.1,87,0,-1,8.8,6.7,50000,260,7.8,4.8
2019,10,12,18:00,UTC,7,996.6,86,0,-1,8.8,6.7,50000,254,5.1,3.9
2019,10,12,19:00,UTC,7,997.1,86,0,-1,8.8,6.5,50000,240,5.8,3.7
2019,10,12,20:00,UTC,7,997.4,86,0,-1,8.6,6.3,50000,218,5.1,3.4
2019,10,12,21:00,UTC,7,997.6,89,0,-1,8.6,6.9,50000,222,4.5,3.2
2019,10,12,22:00,UTC,7,997.6,88,0,-1,8.9,7,50000,216,4.4,3
2019,10,12,23:00,UTC,7,997.7,93,0,-1,9.1,7.9,22340,215,5.4,4
2019,10,13,00:00,UTC,3,997.5,96,0,-1,8.4,7.8,28600,222,4.3,2.9
2019,10,13,01:00,UTC,5,997.4,97,0,-1,8.2,7.8,33920,226,3.8,3
2019,10,13,02:00,UTC,7,997.7,97,0,-1,8.5,8,37350,213,5,3.5
2019,10,13,03:00,UTC,7,997.9,96,0,-1,8.9,8.3,27980,232,6.3,4
2019,10,13,04:00,UTC,7,998.3,96,0,-1,8.8,8.2,27600,235,6.9,4.2
2019,10,13,05:00,UTC,7,998.8,96,0,-1,8.9,8.3,29940,232,6,3.9
2019,10,13,06:00,UTC,7,999.3,95,0,-1,9.4,8.6,28740,243,6.1,4.2
2019,10,13,07:00,UTC,7,1000,93,0,-1,10.1,9,30740,248,5,3.5
2019,10,13,08:00,UTC,1,1000.7,87,0,-1,10.8,8.7,42140,240,7.5,5.3
2019,10,13,09:00,UTC,7,1001.5,81,0,-1,11.6,8.4,34220,251,7.7,4.2
2019,10,13,10:00,UTC,7,1002.5,79,0,-1,11.6,8,48780,244,8.4,5.3
2019,10,13,11:00,UTC,1,1003.5,84,0,-1,10.6,8.1,50000,249,8.1,5.3
2019,10,13,12:00,UTC,0,1004.6,66,0,-1,11.5,5.3,46470,275,9.8,6.5
2019,10,13,13:00,UTC,1,1005.8,67,0,-1,10.6,4.7,50000,264,10.2,5.5
2019,10,13,14:00,UTC,3,1007,67,0,-1,9.8,3.9,50000,270,11,5.7
2019,10,13,15:00,UTC,0,1007.8,77,0,-1,8.3,4.6,50000,255,5.1,3.5
2019,10,13,16:00,UTC,1,1009.2,84,0,-1,7.5,4.9,50000,251,6.3,3.7
2019,10,13,17:00,UTC,0,1010.2,84,0,-1,6.9,4.3,50000,275,6.7,4.2
2019,10,13,18:00,UTC,0,1011.1,87,0,-1,5.4,3.4,50000,269,5.3,3.5
2019,10,13,19:00,UTC,0,1011.7,90,0,-1,4.7,3.2,50000,258,4,3.2
2019,10,13,20:00,UTC,0,1012.2,93,0,-1,3.8,2.8,50000,273,3.3,2.9
2019,10,13,21:00,UTC,3,1012.6,97,0,-1,3.4,2.9,50000,266,2.7,2.2
2019,10,13,22:00,UTC,1,1012.9,97,0,-1,3,2.6,50000,197,1.6,1.4
2019,10,13,23:00,UTC,1,1012.9,98,0,-1,2.9,2.5,50000,185,1.3,0.9
2019,10,14,00:00,UTC,1,1012.3,98,0,-1,2.2,1.9,33000,113,1.4,1.1
2019,10,14,01:00,UTC,5,1011.7,98,0,-1,2.1,1.9,28970,58,2.4,2.2
2019,10,14,02:00,UTC,7,1011.4,97,0,-1,3.8,3.3,50000,67,3.2,2.3
2019,10,14,03:00,UTC,7,1010.5,95,0,-1,4.7,4,50000,65,3.9,3.1
2019,10,14,04:00,UTC,8,1009,93,0,-1,6.4,5.3,50000,101,6.7,4.3
2019,10,14,05:00,UTC,7,1008.6,89,1.7,-1,7.6,5.8,15960,113,8.9,5.7
2019,10,14,06:00,UTC,8,1007.8,93,0.8,-1,7.4,6.4,13160,84,7.3,5.1
2019,10,14,07:00,UTC,7,1007,96,0.7,-1,7.6,7,8080,76,6.2,4.3
2019,10,14,08:00,UTC,7,1006.2,96,0.6,-1,7.2,6.6,17850,38,5.6,3.7
2019,10,14,09:00,UTC,8,1005.4,97,0.2,-1,6.9,6.5,9950,25,5.4,3.4
2019,10,14,10:00,UTC,7,1005,97,2.2,-1,6.4,5.9,6960,22,8.4,5.1
2019,10,14,11:00,UTC,7,1005.4,96,3.3,-1,6,5.5,7830,19,9.3,5.9
2019,10,14,12:00,UTC,8,1005.5,95,1.3,-1,6,5.4,15530,28,9.2,5.5
2019,10,14,13:00,UTC,7,1006.3,91,0,-1,5.9,4.5,50000,29,10.6,6.1
2019,10,14,14:00,UTC,7,1007.1,89,0,-1,5.6,4,50000,29,9.7,5.7
2019,10,14,15:00,UTC,8,1008.9,88,0,-1,5.2,3.4,50000,13,7.9,5.5
2019,10,14,16:00,UTC,7,1010.6,89,0,-1,4.8,3.2,50000,8,6.8,3.8
2019,10,14,17:00,UTC,1,1012.1,90,0,-1,4.1,2.7,50000,350,7.3,4.7
2019,10,14,18:00,UTC,0,1013.2,91,0,-1,3.5,2.2,50000,355,5.5,4
2019,10,14,19:00,UTC,0,1014.6,95,0,-1,2.4,1.7,44950,340,4.3,2.9
2019,10,14,20:00,UTC,0,1015.6,97,0,-1,1.3,0.9,32510,332,3.6,2.4
2019,10,14,21:00,UTC,0,1016.5,98,0,-1,0.8,0.6,20720,321,4.3,3.3
2019,10,14,22:00,UTC,0,1017.4,99,0,-1,0.1,-0.1,20530,326,4.1,3
2019,10,14,23:00,UTC,0,1018.4,99,0,-1,0.3,0.2,36520,300,2.5,1.9
2019,10,15,00:00,UTC,0,1019.3,99,0,-1,-0.1,-0.2,37010,306,3.5,2.8
2019,10,15,01:00,UTC,0,1020.2,99,0,-1,-0.6,-0.7,12990,298,3.5,3.1
2019,10,15,02:00,UTC,0,1020.9,99,0,-1,-0.8,-1,19330,327,2.7,2.2
2019,10,15,03:00,UTC,0,1021.5,99,0,-1,-0.5,-0.6,34730,313,2.7,2
2019,10,15,04:00,UTC,0,1021.6,99,0,-1,-1.6,-1.7,21140,350,4.6,2.9
2019,10,15,05:00,UTC,1,1021.9,99,0,-1,-1.4,-1.5,30000,20,2.8,1.5
2019,10,15,06:00,UTC,0,1022.5,99,0,-1,-0.5,-0.6,22090,62,2.1,1.3
2019,10,15,07:00,UTC,0,1023.2,98,0,-1,1,0.7,21170,0,1.1,0
2019,10,15,08:00,UTC,1,1023.3,82,0,-1,3.5,0.7,42410,72,2.2,1.2
2019,10,15,09:00,UTC,5,1023.5,78,0,-1,5.6,2,43740,86,4.1,2.5
2019,10,15,10:00,UTC,7,1023.5,72,0,-1,6.5,1.8,50000,95,4.6,2.5
2019,10,15,11:00,UTC,1,1023.4,73,0,-1,6.9,2.3,49930,93,5.3,3.5
2019,10,15,12:00,UTC,5,1023.2,72,0,-1,6.8,2.1,50000,94,6,3.8
2019,10,15,13:00,UTC,5,1022.9,73,0,-1,6.8,2.3,50000,94,7.3,4.2
2019,10,15,14:00,UTC,7,1022.8,75,0,-1,6.8,2.7,50000,80,5.2,3.2
2019,10,15,15:00,UTC,7,1022.7,75,0,-1,6.6,2.5,50000,84,7.2,4.8
2019,10,15,16:00,UTC,7,1022.5,74,0,-1,7,2.6,50000,91,9.1,5.8
2019,10,15,17:00,UTC,7,1021.8,72,0,-1,7.1,2.4,50000,91,10.5,6.3
2019,10,15,18:00,UTC,7,1022.3,74,0,-1,7.3,3,47800,90,7.3,4.7
2019,10,15,19:00,UTC,7,1021.8,78,0,-1,6.5,3,50000,63,6.9,4.5
2019,10,15,20:00,UTC,7,1021.2,83,0,-1,6.4,3.7,46910,67,8.5,6
2019,10,15,21:00,UTC,7,1020.5,80,0,-1,6.9,3.7,43540,76,10.7,5.5
2019,10,15,22:00,UTC,7,1020.1,79,0,-1,7.5,4.1,50000,92,12,6.8
2019,10,15,23:00,UTC,8,1019.2,78,0.4,-1,7.4,3.7,39820,90,14.1,7.8
2019,10,16,00:00,UTC,7,1018.5,75,0,-1,7.6,3.4,50000,89,12.9,8.6
2019,10,16,01:00,UTC,8,1017.6,77,0,-1,7.6,3.7,50000,88,14.1,7.8
2019,10,16,02:00,UTC,8,1016.7,80,0,-1,7.4,4.1,50000,93,13.8,8.1
2019,10,16,03:00,UTC,8,1015.8,83,0,-1,7.2,4.5,48340,91,13.6,8.2
2019,10,16,04:00,UTC,8,1014.9,86,0,-1,7.3,5,29680,88,14.3,9.9
2019,10,16,05:00,UTC,8,1014.2,86,0,-1,7.5,5.4,50000,86,14,6.8
2019,10,16,06:00,UTC,7,1013.4,89,0,-1,7.8,6.1,50000,87,12.1,7.9
2019,10,16,07:00,UTC,8,1012.9,89,0,-1,8,6.3,50000,89,11.6,7.1
2019,10,16,08:00,UTC,8,1012.4,88,0,-1,8,6.2,31800,94,10.6,6.1
2019,10,16,09:00,UTC,8,1011.9,88,0,-1,7.9,6.1,31110,85,10.5,6.2
2019,10,16,10:00,UTC,8,1011.2,88,0,-1,7.9,6.1,28230,75,9.4,6
2019,10,16,11:00,UTC,8,1010.9,89,0,-1,7.8,6.1,20810,63,10.1,5.5
2019,10,16,12:00,UTC,8,1010.6,90,0,-1,7.6,6.1,17620,52,9.2,5.5
2019,10,16,13:00,UTC,8,1010.5,95,0,-1,5.3,4.6,9210,28,7.7,5.2
2019,10,16,14:00,UTC,8,1010.4,97,0,-1,4.9,4.4,7220,29,7.4,5.5
2019,10,16,15:00,UTC,8,1010.5,97,0,-1,4.7,4.3,6020,39,7.9,4.8
2019,10,16,16:00,UTC,8,1010.4,98,0,-1,4.7,4.3,5320,41,7.8,4.8
2019,10,16,17:00,UTC,8,1010.2,98,0,-1,4.7,4.4,3950,40,8.3,5.2
2019,10,16,18:00,UTC,8,1010.2,98,0,-1,4.6,4.3,4420,38,9,5.7
2019,10,16,19:00,UTC,8,1010.2,98,0,-1,4.5,4.1,4310,36,8.3,5
2019,10,16,20:00,UTC,8,1009.9,97,0,-1,4.3,3.9,6510,39,9.2,4.7
2019,10,16,21:00,UTC,8,1009.7,97,0,-1,4.3,3.9,7780,44,8.9,5.1
2019,10,16,22:00,UTC,8,1009.7,98,0,-1,4.3,4,4320,43,7.7,5.3
2019,10,16,23:00,UTC,8,1009.6,98,0,-1,4.3,4,2360,39,8.5,4.8
2019,10,17,00:00,UTC,8,1009.2,98,0.3,-1,4.3,4,2510,46,8.6,5.8
2019,10,17,01:00,UTC,8,1009.2,99,0,-1,4.3,4.1,2740,42,7.8,5.1
2019,10,17,02:00,UTC,8,1008.9,99,0,-1,4.4,4.2,4530,41,7.2,4.1
2019,10,17,03:00,UTC,8,1008.9,98,0,-1,4.5,4.2,8070,46,8.7,5.5
2019,10,17,04:00,UTC,8,1008.6,98,0,-1,4.5,4.1,3570,46,9.1,6
2019,10,17,05:00,UTC,8,1008.4,98,0,-1,4.4,4.1,4050,42,9,5.5
2019,10,17,06:00,UTC,8,1008,98,0.3,-1,4.5,4.1,3740,37,9.1,6.3
2019,10,17,07:00,UTC,8,1008.3,97,0.1,-1,4.6,4.1,7380,41,8.3,4.9
2019,10,17,08:00,UTC,8,1008.4,97,0,-1,4.5,4.1,3540,47,10.1,6.3
2019,10,17,09:00,UTC,8,1008.4,97,0,-1,4.6,4.2,7840,45,8.6,5.4
2019,10,17,10:00,UTC,7,1008.7,97,0,-1,4.6,4.2,4350,41,8.3,4.8
2019,10,17,11:00,UTC,7,1008.7,97,0,-1,4.8,4.4,4210,46,8.2,5.5
2019,10,17,12:00,UTC,7,1008.8,98,0,-1,4.9,4.6,3810,40,8.2,5.1
2019,10,17,13:00,UTC,7,1009.1,97,0,-1,5,4.5,8660,40,8.1,4.6
2019,10,17,14:00,UTC,7,1009.4,97,0,-1,5,4.5,8830,40,7.1,4.6
2019,10,17,15:00,UTC,7,1009.6,96,0,-1,5.1,4.6,9120,38,8.3,5.2
2019,10,17,16:00,UTC,7,1009.9,95,0,-1,5.2,4.5,21440,33,7.2,4.8
2019,10,17,17:00,UTC,7,1010.2,95,0,-1,5.1,4.4,24460,40,6.5,4.1
2019,10,17,18:00,UTC,7,1010.3,95,0,-1,5,4.3,23190,30,5.6,3.7
2019,10,17,19:00,UTC,7,1010.5,96,2.4,-1,4.9,4.3,8400,30,6.1,4.2
2019,10,17,20:00,UTC,7,1011,97,1,-1,4.8,4.4,9170,11,5,3.3
2019,10,17,21:00,UTC,7,1011.1,97,1,-1,4.7,4.3,11880,13,5,3.1
2019,10,17,22:00,UTC,7,1011.3,97,0.1,-1,4.7,4.2,21850,14,4.9,2.4
2019,10,17,23:00,UTC,7,1011.6,97,0.2,-1,4.6,4.2,16160,18,4.4,3
2019,10,18,00:00,UTC,7,1012,97,0,-1,4.7,4.3,34860,11,3.4,2.1
2019,10,18,01:00,UTC,7,1012,97,0,-1,4.6,4.2,17850,16,4.1,2.8
2019,10,18,02:00,UTC,7,1012.3,97,0,-1,4.7,4.2,39770,23,3.5,2.1
2019,10,18,03:00,UTC,7,1012.4,97,0,-1,4.6,4.2,12870,46,3,2.2
2019,10,18,04:00,UTC,7,1012.3,98,0,-1,4.6,4.3,6390,57,3.4,2.7
2019,10,18,05:00,UTC,7,1012.6,99,0,-1,4.9,4.7,5320,51,1.4,1
2019,10,18,06:00,UTC,7,1012.8,99,0,-1,5.2,5,4340,43,1.9,1.5
2019,10,18,07:00,UTC,7,1013.2,99,0,-1,5.6,5.4,3350,63,1.8,1.1
2019,10,18,08:00,UTC,7,1013.2,99,0,-1,6.3,6,4580,63,2.4,1.3
2019,10,18,09:00,UTC,7,1013.3,98,0,-1,6.9,6.6,7180,69,2.5,1.8
2019,10,18,10:00,UTC,7,1013.4,96,0,-1,8,7.4,9490,73,3.3,1.9
2019,10,18,11:00,UTC,7,1013,95,0,-1,8.8,8.1,7210,77,2.1,1.3
2019,10,18,12:00,UTC,7,1012.7,96,0,-1,9.2,8.5,7310,94,2.2,1.6
2019,10,18,13:00,UTC,7,1012.3,96,0,-1,9.6,8.9,14590,114,3.8,2.5
2019,10,18,14:00,UTC,7,1012.2,97,0,-1,9.9,9.4,4510,119,4.7,3.4
2019,10,18,15:00,UTC,7,1012,97,0,-1,9.9,9.5,9940,114,5.9,4.4
2019,10,18,16:00,UTC,8,1012,98,0.6,-1,9.9,9.6,1750,115,5.8,4
2019,10,18,17:00,UTC,7,1011.6,99,0.1,-1,9.9,9.7,2620,108,6.4,4.3
2019,10,18,18:00,UTC,8,1011.3,99,0.3,-1,10,9.8,2540,119,5.6,4.1
2019,10,18,19:00,UTC,9,1011,99,0.4,-1,10.4,10.2,920,133,4.9,3.5
2019,10,18,20:00,UTC,9,1010.8,99,0,-1,10.9,10.8,1030,160,5.4,3.3
2019,10,18,21:00,UTC,8,1010.4,99,0,-1,11,10.9,1050,163,2.7,1.7
2019,10,18,22:00,UTC,9,1010.3,99,0,-1,11.1,11,440,180,4.4,2.8
2019,10,18,23:00,UTC,9,1009.9,99,0,-1,11.2,11.1,800,183,2.4,1.6
2019,10,19,00:00,UTC,9,1009.5,100,0.2,-1,11,10.9,1190,141,2.5,1.8
2019,10,19,01:00,UTC,9,1008.9,100,0,-1,11.2,11.2,690,155,5.3,3.1
2019,10,19,02:00,UTC,7,1008.3,100,0,-1,11.6,11.5,4070,160,6,3.5
2019,10,19,03:00,UTC,8,1007.8,100,0,-1,11.5,11.4,2670,137,4.8,3
2019,10,19,04:00,UTC,7,1007.4,100,4.6,-1,11.6,11.5,3250,137,6.4,3.8
2019,10,19,05:00,UTC,8,1007,100,0.3,-1,11.5,11.4,4880,148,8.6,4.8
2019,10,19,06:00,UTC,8,1006.5,99,0,-1,11.6,11.5,4320,145,6.6,4.2
2019,10,19,07:00,UTC,8,1006.1,99,0,-1,11.7,11.5,4890,139,7.6,4.1
2019,10,19,08:00,UTC,7,1006.2,98,0.5,-1,11.5,11.2,4620,162,8.9,5.3
2019,10,19,09:00,UTC,7,1006.2,97,4.3,-1,11.5,11,3350,195,9.8,6
2019,10,19,10:00,UTC,7,1006.4,97,0,-1,11.7,11.3,8680,209,9.6,6.2
2019,10,19,11:00,UTC,7,1006.5,96,0,-1,11.5,11,10740,207,10.3,6.7
2019,10,19,12:00,UTC,5,1006.9,86,0,-1,12.1,9.8,37500,217,13,8.2
2019,10,19,13:00,UTC,1,1007.5,87,0,-1,11.5,9.4,44160,220,10.5,6.3
2019,10,19,14:00,UTC,1,1007.9,86,0,-1,10.9,8.7,39330,217,9.9,6.2
2019,10,19,15:00,UTC,5,1008.6,88,0,-1,10.9,9,27650,217,8.7,5.5
2019,10,19,16:00,UTC,7,1009.1,91,0,-1,10.8,9.4,26880,214,9.6,5.7
2019,10,19,17:00,UTC,8,1009.3,88,0,-1,10.8,8.9,34680,217,8.7,5.7
2019,10,19,18:00,UTC,7,1009.6,89,0,-1,10.6,8.8,29210,218,9.9,6
2019,10,19,19:00,UTC,8,1009.9,88,0,-1,10.9,8.9,32280,215,8.5,5.9
2019,10,19,20:00,UTC,7,1010.2,89,0,-1,10.6,8.9,26080,215,8,5
2019,10,19,21:00,UTC,8,1011.1,87,0,-1,10.6,8.6,33060,232,7.7,4.8
2019,10,19,22:00,UTC,8,1011.5,87,0,-1,10.8,8.7,36930,220,7.3,4.8
2019,10,19,23:00,UTC,7,1011.8,89,0,-1,10,8.3,38620,232,5.1,3.3
2019,10,20,00:00,UTC,0,1012,92,0,-1,9.1,8,28840,211,6.1,4.3
2019,10,20,01:00,UTC,5,1012.6,91,0,-1,9.7,8.3,30240,232,5.9,3.8
2019,10,20,02:00,UTC,5,1012.8,95,0,-1,8.9,8.2,20750,250,4.5,3.3
2019,10,20,03:00,UTC,1,1013.5,98,0,-1,8.2,7.8,12760,226,3.8,3
2019,10,20,04:00,UTC,1,1013.6,97,0,-1,8.4,8,13510,227,3.8,2.5
2019,10,20,05:00,UTC,3,1013.9,99,0,-1,8,7.8,5440,234,3.6,2.5
2019,10,20,06:00,UTC,1,1014.6,98,0,-1,8.4,8.2,9870,206,3.4,2.5
2019,10,20,07:00,UTC,1,1014.7,98,0,-1,8.1,7.9,8290,75,1.8,1.4
2019,10,20,08:00,UTC,5,1015.3,98,0,-1,9.1,8.9,12410,174,2.2,1.4
2019,10,20,09:00,UTC,8,1015.5,98,0,-1,10.7,10.3,8440,194,5.9,3.4
2019,10,20,10:00,UTC,8,1015.1,93,0,-1,10.9,9.8,16290,187,2.8,1.8
2019,10,20,11:00,UTC,8,1015.3,94,0,-1,10.4,9.4,11920,150,4.8,3
2019,10,20,12:00,UTC,8,1015.2,93,0,-1,10.3,9.2,16890,136,3.9,2.6
2019,10,20,13:00,UTC,8,1014.5,95,0,-1,10,9.1,12710,105,4.8,2.8
2019,10,20,14:00,UTC,7,1014.1,95,0.3,-1,9.7,9,13160,95,6.3,4.1
2019,10,20,15:00,UTC,8,1013.7,97,0.1,-1,9.7,9.3,11380,105,6.9,4.4
2019,10,20,16:00,UTC,7,1013,98,0.2,-1,9.9,9.6,11120,114,5.2,3.8
2019,10,20,17:00,UTC,7,1012.3,97,1.9,-1,9.7,9.3,7710,114,5.9,4.1
2019,10,20,18:00,UTC,7,1011.8,98,2,-1,9.7,9.4,7310,134,6.2,3.6
2019,10,20,19:00,UTC,7,1011.2,98,4.1,-1,9.7,9.4,4720,128,4.9,3
2019,10,20,20:00,UTC,7,1010.3,98,2.4,-1,9.7,9.5,6890,123,3.7,2.4
2019,10,20,21:00,UTC,7,1009.9,98,0,-1,9,8.7,25250,168,4,2.4
2019,10,20,22:00,UTC,8,1009.8,98,0,-1,9.9,9.7,9070,199,6.2,3.4
2019,10,20,23:00,UTC,7,1009.5,98,0,-1,10.3,10.1,11240,240,6.9,4.4
2019,10,21,00:00,UTC,7,1009.6,95,0,-1,10,9.2,31520,247,7.1,4.5
2019,10,21,01:00,UTC,5,1009.3,94,0,-1,9.2,8.2,45360,226,7.7,4.8
2019,10,21,02:00,UTC,8,1010,94,0,-1,9.1,8.3,50000,251,8.7,5.6
2019,10,21,03:00,UTC,7,1010.5,97,0,-1,8.8,8.3,5820,245,7.8,5.2
2019,10,21,04:00,UTC,8,1011.7,95,0,-1,8.7,7.9,50000,302,8,4.3
2019,10,21,05:00,UTC,8,1013.2,92,0,-1,7,5.7,50000,298,8.6,4.8
2019,10,21,06:00,UTC,3,1014.4,92,0,-1,5.5,4.2,50000,293,8.4,4.8
2019,10,21,07:00,UTC,8,1015.6,90,0,-1,5.6,4.2,50000,296,7.6,4.9
2019,10,21,08:00,UTC,8,1016.6,87,0,-1,6.5,4.5,50000,290,5.5,3.5
2019,10,21,09:00,UTC,8,1017.4,87,0,-1,6.8,4.7,50000,277,5.7,3.5
2019,10,21,10:00,UTC,8,1018,84,0,-1,6.8,4.3,20710,279,6.1,4.1
2019,10,21,11:00,UTC,8,1018.9,83,0,-1,6.8,4,50000,299,5.2,3.2
2019,10,21,12:00,UTC,8,1019.3,81,0,-1,6.6,3.5,50000,281,5.7,3.4
2019,10,21,13:00,UTC,8,1019.6,79,0,-1,6.3,3,50000,272,5.2,2.9
2019,10,21,14:00,UTC,8,1019.8,82,0,-1,6,3.2,50000,301,4.5,2.2
2019,10,21,15:00,UTC,8,1020.6,82,0,-1,5.6,2.7,50000,251,3.8,2.7
2019,10,21,16:00,UTC,8,1020.8,87,0,-1,4.9,3,50000,250,5.6,3
2019,10,21,17:00,UTC,8,1020.6,90,0,-1,4.5,3,50000,291,3.8,2.2
2019,10,21,18:00,UTC,8,1020.9,92,0,-1,4,2.8,36890,273,3.8,2.5
2019,10,21,19:00,UTC,8,1020.7,92,0,-1,3.7,2.5,19660,242,5,2.5
2019,10,21,20:00,UTC,8,1020.6,92,0,-1,3.5,2.3,23410,254,5.1,3.4
2019,10,21,21:00,UTC,8,1020.3,90,0,-1,3.1,1.6,49660,264,6.4,3.7
2019,10,21,22:00,UTC,8,1020.2,83,0,-1,2.9,0.3,50000,320,1.8,0.8
2019,10,21,23:00,UTC,7,1019.6,86,0,-1,2.6,0.5,50000,0,0.8,0
2019,10,22,00:00,UTC,8,1018.9,84,0,-1,3.5,1.1,50000,143,2.8,1.6
2019,10,22,01:00,UTC,8,1018,86,0,-1,4.7,2.6,50000,155,5.3,3.3
2019,10,22,02:00,UTC,8,1017,91,0,-1,6,4.7,5610,164,5.5,3.2
2019,10,22,03:00,UTC,8,1015.6,96,0,-1,8.3,7.8,14990,192,8.6,5.3
2019,10,22,04:00,UTC,7,1014.7,90,0,-1,9,7.5,50000,204,12,7.8
2019,10,22,05:00,UTC,7,1013.9,91,0,-1,9.3,7.9,50000,196,11.6,7.2
2019,10,22,06:00,UTC,8,1012.9,93,0,-1,9.6,8.5,37410,198,12,7.5
2019,10,22,07:00,UTC,8,1012,94,0,-1,9.9,9,23160,197,12.8,8.2
2019,10,22,08:00,UTC,7,1011.2,94,0,-1,10.1,9.2,16320,203,12.2,7.3
2019,10,22,09:00,UTC,8,1010.3,95,0,-1,10.3,9.5,11710,204,12.6,7.4
2019,10,22,10:00,UTC,8,1009.4,97,0.1,-1,10.3,9.9,4260,215,10.8,6.6
2019,10,22,11:00,UTC,7,1008.7,97,0.3,-1,10.7,10.2,3860,212,12.1,7.5
2019,10,22,12:00,UTC,7,1007.7,96,0,-1,10.9,10.2,19610,222,11.8,7.3
2019,10,22,13:00,UTC,7,1007.2,85,0,-1,10.7,8.3,50000,220,13.2,9.1
2019,10,22,14:00,UTC,7,1006.9,81,0,-1,10.4,7.2,50000,229,12.7,8.1
2019,10,22,15:00,UTC,7,1006.8,77,0,-1,10,6.1,50000,235,15.7,9.6
2019,10,22,16:00,UTC,7,1006.8,78,0,-1,9.8,6.2,50000,232,13.3,7.4
2019,10,22,17:00,UTC,7,1006.9,79,0,-1,10.1,6.7,50000,230,12.2,7.8
2019,10,22,18:00,UTC,7,1006.7,80,0,-1,10.3,6.9,50000,227,11.9,7.3
2019,10,22,19:00,UTC,7,1006.8,81,0,-1,10.3,7.1,50000,234,11.4,7
2019,10,22,20:00,UTC,1,1006.9,82,0,-1,10.1,7.1,50000,238,9.9,6.7
2019,10,22,21:00,UTC,1,1006.6,82,0,-1,9.7,6.7,50000,238,10.2,6.7
2019,10,22,22:00,UTC,3,1006.9,83,0,-1,9.4,6.7,50000,241,10.5,6.3
2019,10,22,23:00,UTC,0,1007.3,83,0,-1,9.2,6.5,50000,242,10.3,6.9
2019,10,23,00:00,UTC,0,1007.7,84,0,-1,8.9,6.4,49810,240,10.2,6.6
2019,10,23,01:00,UTC,1,1008,86,0,-1,8.5,6.3,44900,244,8.9,6.5
2019,10,23,02:00,UTC,3,1008.3,87,0,-1,8.2,6.2,47970,241,7.5,5
2019,10,23,03:00,UTC,1,1008.9,89,0,-1,7.8,6.2,38600,247,7,4.7
2019,10,23,04:00,UTC,1,1009.1,91,0,-1,7.3,5.9,39870,233,6.6,4.7
2019,10,23,05:00,UTC,0,1009.7,90,0,-1,7.5,6,33990,244,7.1,5
2019,10,23,06:00,UTC,0,1010.5,92,0,-1,7.3,6,32420,237,6.6,4.3
2019,10,23,07:00,UTC,0,1010.9,89,0,-1,8.2,6.5,32160,246,8.1,5.7
2019,10,23,08:00,UTC,0,1011.5,83,0,-1,9.3,6.5,41080,255,8.3,5.7
2019,10,23,09:00,UTC,0,1012.1,73,0,-1,10.3,5.7,41100,251,5.5,3.5
2019,10,23,10:00,UTC,0,1012.3,65,0,-1,11.2,4.8,50000,233,5.3,3.5
2019,10,23,11:00,UTC,1,1012.7,64,0,-1,11.7,5.2,41000,229,4.5,2.8
2019,10,23,12:00,UTC,0,1013,72,0,-1,11.9,6.9,36910,208,7.1,4.5
2019,10,23,13:00,UTC,5,1012.9,75,0,-1,11.1,6.9,39830,196,4.9,3.6
2019,10,23,14:00,UTC,5,1013.5,83,0,-1,10.2,7.5,41440,220,7.1,4.7
2019,10,23,15:00,UTC,7,1013.5,86,0,-1,9.9,7.6,36920,221,7.6,5.4
2019,10,23,16:00,UTC,8,1014,87,0,-1,10,8,27820,221,7.8,5.2
2019,10,23,17:00,UTC,8,1014,90,0,-1,9.8,8.3,23590,213,5.9,3.4
2019,10,23,18:00,UTC,7,1014,92,0,-1,10,8.7,18860,216,5.8,3.8
2019,10,23,19:00,UTC,8,1013.9,92,0,-1,10.2,9,18010,218,5.2,3
2019,10,23,20:00,UTC,8,1013.8,91,0,-1,10.2,8.8,20090,225,5.7,3.9
2019,10,23,21:00,UTC,8,1013.9,90,0,-1,10.2,8.6,26100,220,4.9,3.4
2019,10,23,22:00,UTC,8,1013.8,91,0,-1,10.2,8.8,22400,204,6.2,3.6
2019,10,23,23:00,UTC,8,1014,89,0,-1,10.4,8.7,25710,217,7.2,4
2019,10,24,00:00,UTC,8,1014.2,91,0,-1,10.2,8.8,20710,220,7.1,3.7
2019,10,24,01:00,UTC,8,1014,83,0,-1,10.3,7.5,32150,224,6.4,4.3
2019,10,24,02:00,UTC,8,1013.8,77,0,-1,10.4,6.5,44080,211,6.5,4.3
2019,10,24,03:00,UTC,8,1013.8,78,0,-1,10.4,6.7,38390,218,7.9,5.2
2019,10,24,04:00,UTC,7,1013.9,85,0,-1,10,7.6,31700,211,6.5,4.5
2019,10,24,05:00,UTC,3,1014.2,88,0,-1,10,8.1,25180,217,8.7,5.5
2019,10,24,06:00,UTC,5,1014.4,90,0,-1,10.1,8.6,22870,216,8.9,5.5
2019,10,24,07:00,UTC,7,1014.4,90,0,-1,10.4,8.9,21770,210,8.6,5.3
2019,10,24,08:00,UTC,5,1014.7,90,0,-1,10.7,9.1,23960,209,10.7,6.6
2019,10,24,09:00,UTC,7,1014.7,87,0,-1,11.1,9,29300,209,11.8,8.4
2019,10,24,10:00,UTC,7,1015,88,0,-1,10.9,8.9,28200,210,9,6.3
2019,10,24,11:00,UTC,1,1014.8,81,0,-1,10.9,7.7,39690,221,10.1,6.7
2019,10,24,12:00,UTC,5,1014.9,77,0,-1,11.8,7.9,38710,217,11.1,6.6
2019,10,24,13:00,UTC,7,1014.8,78,0,-1,11.4,7.7,48580,219,8.6,5.7
2019,10,24,14:00,UTC,5,1014.8,75,0,-1,10.9,6.6,39760,212,8.1,5.4
2019,10,24,15:00,UTC,7,1014.9,79,0,-1,10.6,7.1,43520,215,7.8,5.2
2019,10,24,16:00,UTC,8,1015,84,0,-1,10.7,8.1,39920,210,10.1,6.1
2019,10,24,17:00,UTC,8,1014.9,85,0,-1,10.8,8.4,42700,205,10.8,7
2019,10,24,18:00,UTC,8,1014.9,86,0,-1,10.7,8.5,44990,209,9.3,5.7
2019,10,24,19:00,UTC,3,1014.9,91,0,-1,10.2,8.8,35810,209,9,6.3
2019,10,24,20:00,UTC,0,1014.9,90,0,-1,10.1,8.6,35500,207,8.4,5.9
2019,10,24,21:00,UTC,1,1014.7,90,0,-1,10.2,8.6,40680,202,8.8,5.8
2019,10,24,22:00,UTC,7,1014.2,88,0,-1,10.4,8.5,43800,202,8.4,5.6
2019,10,24,23:00,UTC,7,1014.1,88,0,-1,10.1,8.3,39340,205,6.9,4.6
2019,10,25,00:00,UTC,0,1013.4,91,0,-1,9.6,8.3,31150,167,5.3,3.3
2019,10,25,01:00,UTC,0,1012.5,91,0,-1,9.4,8.1,30510,164,7.6,5.1
2019,10,25,02:00,UTC,3,1012,91,0,-1,9.6,8.1,33210,147,5.7,4.2
2019,10,25,03:00,UTC,0,1011.6,91,0,-1,9.3,7.9,22840,154,6.3,3.7
2019,10,25,04:00,UTC,0,1010.2,92,0,-1,9.4,8.2,17930,137,6.2,4.2
2019,10,25,05:00,UTC,0,1009.4,92,0,-1,9.5,8.3,19890,141,7.1,4.7
2019,10,25,06:00,UTC,0,1008.7,92,0,-1,9.6,8.4,14610,148,8.3,5
2019,10,25,07:00,UTC,3,1008.1,92,0,-1,10.2,9,10790,154,8.8,5.1
2019,10,25,08:00,UTC,8,1007.5,93,0,-1,10.5,9.4,5720,179,10.1,6
2019,10,25,09:00,UTC,8,1006.5,98,0.1,-1,10.1,9.8,1690,183,9.5,5.6
2019,10,25,10:00,UTC,8,1005.6,98,0.3,-1,10.4,10.1,2700,177,12,6.6
2019,10,25,11:00,UTC,8,1004.7,98,0,-1,10.8,10.4,3200,196,12.4,7.5
2019,10,25,12:00,UTC,7,1004.4,97,0,-1,10.9,10.5,4190,206,13.9,7.9
2019,10,25,13:00,UTC,8,1004.1,98,0.3,-1,10.8,10.5,2160,204,12,7.2
2019,10,25,14:00,UTC,8,1003.4,98,0.3,-1,10.8,10.6,2380,205,12.2,7.3
2019,10,25,15:00,UTC,8,1002.7,98,0.3,-1,11,10.8,,211,11.8,7.8
2019,10,25,16:00,UTC,8,1002.3,97,0,-1,11.5,11,,208,14,8.3
2019,10,25,17:00,UTC,7,1002.3,91,0,-1,11.7,10.4,,217,13.2,8.4
2019,10,25,18:00,UTC,1,1002.2,88,0,-1,10.7,8.8,,224,12.9,7.4
2019,10,25,19:00,UTC,0,1002.6,83,0,-1,10.2,7.4,,229,10.3,6.8
2019,10,25,20:00,UTC,0,1002.7,80,0,-1,10,6.8,,231,11.8,6.8
2019,10,25,21:00,UTC,0,1003.2,78,0,-1,9.9,6.3,,230,12.9,7.5
2019,10,25,22:00,UTC,3,1003.5,76,0,-1,10.1,6.1,,230,11.8,7.2
2019,10,25,23:00,UTC,1,1003.7,77,0,-1,9.3,5.4,,238,10.6,6.3
2019,10,26,00:00,UTC,0,1004,75,0,-1,9,4.7,,240,12.1,7.1
2019,10,26,01:00,UTC,0,1004.3,80,0,-1,8.2,4.8,,236,10.8,6.4
2019,10,26,02:00,UTC,0,1004.2,79,0,-1,7.8,4.5,,236,12.2,7
2019,10,26,03:00,UTC,3,1004.2,77,0,-1,7.8,4.1,,231,11.8,7.7
2019,10,26,04:00,UTC,7,1003.9,75,0,-1,7.8,3.6,,232,14.2,6.2
2019,10,26,05:00,UTC,7,1004.1,71,0,-1,7.8,2.9,50000,232,11.6,7.8
2019,10,26,06:00,UTC,7,1004.3,74,0,-1,8,3.7,48300,235,10.6,6.6
2019,10,26,07:00,UTC,7,1003.8,70,0,-1,8.5,3.4,47510,232,10.7,6.3
2019,10,26,08:00,UTC,7,1003.2,74,0,-1,8.8,4.3,42820,220,10.5,5.3
2019,10,26,09:00,UTC,8,1002.7,86,0.5,-1,7.4,5.3,17120,219,12.7,8
2019,10,26,10:00,UTC,8,1001.3,95,1.4,-1,7,6.2,11760,211,5.8,3.6
2019,10,26,11:00,UTC,7,998.9,96,2.5,-1,7.3,6.7,8540,166,6.7,4.6
2019,10,26,12:00,UTC,7,997,97,3.8,-1,7.3,7,4880,98,4.6,3.1
2019,10,26,13:00,UTC,8,995.2,98,3.5,-1,7.6,7.4,6670,50,4.7,3.3
2019,10,26,14:00,UTC,8,994.4,98,1.3,-1,7.4,7.1,7870,359,7,3.3
2019,10,26,15:00,UTC,8,994.7,97,0.2,-1,6.6,6.2,,341,8.1,4.3
2019,10,26,16:00,UTC,7,995.7,97,0,-1,6.3,5.8,,326,7.2,4.9
2019,10,26,17:00,UTC,7,996.9,95,0,-1,5.9,5.2,,306,6.6,4
2019,10,26,18:00,UTC,7,998.2,96,0,-1,5.4,4.8,,276,6.6,4.1
2019,10,26,19:00,UTC,1,999.4,94,0,-1,4.7,3.9,,267,7.8,4.8
2019,10,26,20:00,UTC,5,1000,95,0,-1,4.4,3.6,,258,8,5.3
2019,10,26,21:00,UTC,3,1000.5,95,0,-1,4.1,3.4,49930,264,8,5
2019,10,26,22:00,UTC,5,1001,96,0,-1,4,3.4,50000,275,6.2,4.2
2019,10,26,23:00,UTC,8,1001.2,94,0,-1,4.3,3.4,50000,271,5.2,3.4
2019,10,27,00:00,UTC,7,1001.2,96,0,-1,4,3.4,43880,270,5,3
2019,10,27,01:00,UTC,8,1000.7,96,0,-1,4.2,3.6,46360,261,4.8,3
2019,10,27,02:00,UTC,8,1000.7,96,0,-1,4.3,3.7,40670,228,3.9,2.6
2019,10,27,03:00,UTC,7,1000,98,0,-1,3.9,3.6,22160,234,4.2,3
2019,10,27,04:00,UTC,7,999.9,99,0,-1,3.8,3.6,10940,250,3.7,2.7
2019,10,27,05:00,UTC,7,999.2,99,0,-1,3.8,3.7,4710,291,1.3,0.9
2019,10,27,06:00,UTC,8,998.4,99,0,-1,3.8,3.7,1640,0,1.1,0
2019,10,27,07:00,UTC,7,998.2,99,0,-1,3.9,3.8,6280,63,1.6,0.9
2019,10,27,08:00,UTC,7,996.7,99,0,-1,3.8,3.7,8420,40,3.1,2.2
2019,10,27,09:00,UTC,8,995.5,95,0.3,-1,4,3.3,29250,31,5,3.3
2019,10,27,10:00,UTC,8,994.3,94,1.6,-1,3.7,2.8,14360,26,6.2,3.9
2019,10,27,11:00,UTC,8,993.1,95,1.1,-1,3.2,2.4,9580,37,6.7,4.2
2019,10,27,12:00,UTC,7,991.5,95,1.3,-1,2.5,1.9,11930,19,7.9,4.4
2019,10,27,13:00,UTC,7,992.6,95,3.3,-1,1.9,1.2,7740,352,8.4,5.1
2019,10,27,14:00,UTC,7,993.2,97,1.1,-1,1,0.5,5080,319,6.3,3.7
2019,10,27,15:00,UTC,7,994.5,97,0.5,-1,1,0.6,,311,7.2,4.5
2019,10,27,16:00,UTC,7,996.6,97,0,-1,1.4,1,,291,8.7,4.6
2019,10,27,17:00,UTC,7,997.7,96,0,-1,1.3,0.7,,284,9.5,4.6
2019,10,27,18:00,UTC,7,998.9,95,0,-1,1.4,0.6,,287,8.2,4.9
2019,10,27,19:00,UTC,0,999.9,95,0,-1,0.7,0,,288,7.4,4.3
2019,10,27,20:00,UTC,3,1000.8,96,0,-1,0.7,0.2,,278,8,4.6
2019,10,27,21:00,UTC,7,1001.8,93,0,-1,1.3,0.3,,282,6.2,3.8
2019,10,27,22:00,UTC,5,1002.7,94,0,-1,0.7,-0.1,,286,5.6,3.6
2019,10,27,23:00,UTC,7,1003.7,94,0,-1,1,0.1,,278,5.9,3.4
2019,10,28,00:00,UTC,7,1004.3,95,0,-1,0.5,-0.2,,297,4.3,2.9
2019,10,28,01:00,UTC,7,1004.9,95,0,-1,0.5,-0.2,,298,4.3,2.8
2019,10,28,02:00,UTC,7,1005.7,97,0,-1,0.3,-0.1,,295,4.3,2.5
2019,10,28,03:00,UTC,7,1006.3,95,0,-1,0.3,-0.3,,310,3.7,2.2
2019,10,28,04:00,UTC,7,1006.7,94,0,-1,0.4,-0.5,,329,3.9,2.1
2019,10,28,05:00,UTC,5,1007.1,93,0,-1,-0.3,-1.4,,324,2.9,1.5
2019,10,28,06:00,UTC,7,1007.8,85,0,-1,0.2,-2,50000,19,3.6,1.8
2019,10,28,07:00,UTC,7,1008.5,84,0,-1,0.4,-2,50000,51,3,1.6
2019,10,28,08:00,UTC,7,1009.1,85,0,0,0.6,-1.7,50000,87,3.6,2.4
2019,10,28,09:00,UTC,7,1009.7,82,0,0,0.8,-2,50000,127,2.4,1.2
2019,10,28,10:00,UTC,7,1009.8,80,0,0,1.5,-1.6,50000,58,2.7,1.7
2019,10,28,11:00,UTC,7,1010.1,78,0,0,2,-1.4,50000,52,2,1.1
2019,10,28,12:00,UTC,7,1010.1,78,0,0,2.3,-1.1,50000,44,2.8,1.6
2019,10,28,13:00,UTC,7,1010.4,83,0,0,2.3,-0.3,37350,22,3.2,2.1
2019,10,28,14:00,UTC,7,1010.5,93,0,0,1.2,0.1,8120,2,5.6,3.1
2019,10,28,15:00,UTC,7,1010.7,96,0.7,0,0.6,0,,11,4.5,2.4
2019,10,28,16:00,UTC,7,1010.9,97,0,0,0.5,0.1,,9,4.8,2.7
2019,10,28,17:00,UTC,7,1011.3,94,0,0,0.6,-0.2,,6,5,3.1
2019,10,28,18:00,UTC,8,1011.4,94,0,0,0.6,-0.3,,355,4.5,2.7
2019,10,28,19:00,UTC,7,1011.7,92,0,0,0.4,-0.8,,346,5.3,3.3
2019,10,28,20:00,UTC,7,1012,92,0,0,0.1,-1.1,,333,4.8,2.6
2019,10,28,21:00,UTC,0,1012.2,90,0,0,-0.6,-2.1,,334,4.5,2.4
2019,10,28,22:00,UTC,1,1012.4,88,0,0,-1.1,-2.8,,351,5.5,3.7
2019,10,28,23:00,UTC,0,1012.6,91,0,0,-2.1,-3.3,,320,4.1,2.3
2019,10,29,00:00,UTC,0,1013,91,0,0,-2.3,-3.6,,320,4.4,2.4
2019,10,29,01:00,UTC,0,1013.1,91,0,0,-2.4,-3.8,,326,4.7,2.9
2019,10,29,02:00,UTC,0,1013.3,94,0,0,-3.2,-4.1,,311,4.5,2.5
2019,10,29,03:00,UTC,0,1013.5,95,0,0,-3.5,-4.2,,317,3.7,2.5
2019,10,29,04:00,UTC,0,1013.4,96,0,0,-3.9,-4.4,,317,3.3,2.5
2019,10,29,05:00,UTC,3,1013.8,97,0,0,-3.7,-4.1,,283,5.2,3.6
2019,10,29,06:00,UTC,7,1014,96,0,0,-2.8,-3.4,22800,281,4.5,3.1
2019,10,29,07:00,UTC,8,1014.4,93,0,0,-1.7,-2.6,31550,289,6.6,3.4
2019,10,29,08:00,UTC,1,1014.7,90,0,0,-1.2,-2.6,46480,294,5.1,3.2
2019,10,29,09:00,UTC,1,1015,82,0,0,0,-2.7,50000,301,6.5,3.7
2019,10,29,10:00,UTC,5,1015.5,81,0,0,0.4,-2.5,50000,317,7.5,4.4
2019,10,29,11:00,UTC,3,1015.8,73,,0,0.6,-3.7,50000,324,8.7,4.8
2019,10,29,12:00,UTC,1,1016.1,71,0,0,1.1,-3.7,46460,316,9.4,4.4
2019,10,29,13:00,UTC,3,1016.4,71,0,0,1.3,-3.4,50000,311,4.4,2.3
2019,10,29,14:00,UTC,0,1016.9,76,0,0,0.2,-3.5,50000,301,5.3,3.2
2019,10,29,15:00,UTC,0,1017.5,82,0,0,-0.9,-3.6,,300,4.9,3.2
2019,10,29,16:00,UTC,0,1017.9,88,0,0,-1.5,-3.2,,295,4.9,3.5
2019,10,29,17:00,UTC,0,1018.5,89,0,0,-2.1,-3.7,,295,4.4,3.3
2019,10,29,18:00,UTC,0,1019,92,0,0,-2.7,-3.9,,280,5.7,4.2
2019,10,29,19:00,UTC,0,1019.6,86,0,0,-2.3,-4.2,,309,6,3.7
2019,10,29,20:00,UTC,0,1020.3,81,0,0,-2,-4.9,,320,6.3,3.6
2019,10,29,21:00,UTC,0,1020.7,87,0,0,-3.1,-4.9,,302,4.8,3.3
2019,10,29,22:00,UTC,0,1021,83,0,0,-2.5,-5,,319,8.3,4.1
2019,10,29,23:00,UTC,0,1021.5,84,0,0,-3,-5.4,,305,6.1,3.5
2019,10,30,00:00,UTC,0,1022,84,0,0,-3.4,-5.6,,304,6.2,4.1
2019,10,30,01:00,UTC,0,1022.2,88,0,0,-3.9,-5.6,,291,6.1,4.3
2019,10,30,02:00,UTC,0,1022.6,91,0,0,-4.4,-5.6,,298,5.1,3.9
2019,10,30,03:00,UTC,0,1023,90,0,0,-4.1,-5.5,,300,6.4,4.4
2019,10,30,04:00,UTC,0,1023.3,91,0,0,-4.1,-5.4,,293,7,4.3
2019,10,30,05:00,UTC,0,1023.6,92,0,0,-4.4,-5.5,,300,6.6,4.6
2019,10,30,06:00,UTC,0,1024.1,93,0,0,-4.3,-5.3,50000,300,5.3,3.9
2019,10,30,07:00,UTC,0,1024.5,88,0,0,-3.3,-5,49180,297,4.6,2.8
2019,10,30,08:00,UTC,0,1024.9,82,0,0,-1.8,-4.5,47750,284,4.9,2.7
2019,10,30,09:00,UTC,0,1025.1,78,0,0,-0.7,-4.1,50000,277,4,2.3
2019,10,30,10:00,UTC,0,1025,73,0,0,0.3,-4,48050,267,5.2,3.4
2019,10,30,11:00,UTC,0,1024.9,63,0,0,1.2,-5.1,47780,298,4.5,2.9
2019,10,30,12:00,UTC,0,1024.8,62,0,0,1.4,-5.1,49580,293,5.3,2.2
2019,10,30,13:00,UTC,0,1024.7,66,0,0,0.9,-4.8,50000,249,5.4,3.2
2019,10,30,14:00,UTC,0,1024.6,73,0,0,-0.6,-4.9,50000,252,4.4,3
2019,10,30,15:00,UTC,0,1024.4,72,0,0,-1.3,-5.7,,246,3.9,2.7
2019,10,30,16:00,UTC,0,1024,71,0,0,-0.9,-5.5,,227,4.6,3.4
2019,10,30,17:00,UTC,3,1023.6,70,0,0,-0.7,-5.4,,218,2.8,2.2
2019,10,30,18:00,UTC,7,1022.8,69,0,0,-0.2,-5.2,,190,4.8,2.8
2019,10,30,19:00,UTC,8,1022.2,74,0,0,0.4,-3.7,,176,4.9,3
2019,10,30,20:00,UTC,7,1021.5,86,0,0,2.2,0.1,,208,9.4,5.3
2019,10,30,21:00,UTC,8,1020.9,85,0,0,3,0.7,,180,3.7,2.2
2019,10,30,22:00,UTC,8,1020.2,86,0,0,2.8,0.7,,201,5.1,3.5
2019,10,30,23:00,UTC,7,1019.5,91,0,0,3,1.7,,192,8.1,4.8
2019,10,31,00:00,UTC,1,1018.6,93,0,0,2.4,1.4,,191,4.8,3.1
2019,10,31,01:00,UTC,5,1017.9,92,0,0,3.5,2.3,,195,6,4
2019,10,31,02:00,UTC,5,1017.1,88,0,0,3.3,1.4,,214,5.3,3.7
2019,10,31,03:00,UTC,7,1016.2,87,0,0,3.1,1.2,,208,5.3,3.7
2019,10,31,04:00,UTC,5,1015.4,87,0,0,3.6,1.7,,219,6.3,4.2
2019,10,31,05:00,UTC,5,1014.5,87,0,0,3.9,1.9,,216,5.1,3.5
2019,10,31,06:00,UTC,5,1014.3,89,0,0,4,2.3,50000,231,5.1,3.6
2019,10,31,07:00,UTC,7,1013.8,86,0,0,4.5,2.4,50000,250,6.7,4.4
2019,10,31,08:00,UTC,1,1013.4,86,0,0,4.4,2.4,50000,252,6.7,4.6
2019,10,31,09:00,UTC,5,1013,85,0,0,4.6,2.3,50000,257,6.1,3.7
2019,10,31,10:00,UTC,0,1012.5,78,0,0,5.5,1.9,49820,262,8,4.3
2019,10,31,11:00,UTC,7,1012.2,79,0,0,5.2,1.9,50000,253,6.8,4.5
2019,10,31,12:00,UTC,7,1012.1,81,0,0,5.1,2.1,50000,267,7,3.8
2019,10,31,13:00,UTC,3,1011.9,80,0,0,5.3,2.1,50000,270,5.8,4.5
2019,10,31,14:00,UTC,8,1011.9,83,0,0,4.9,2.3,50000,252,6.3,3.9
2019,10,31,15:00,UTC,7,1012,85,0,0,4.4,2.1,,252,5.4,3.7
2019,10,31,16:00,UTC,5,1012.2,83,0,0,4.1,1.4,,261,7,3.9
2019,10,31,17:00,UTC,7,1012.4,82,0,0,4.2,1.3,,265,7,4.9
2019,10,31,18:00,UTC,7,1012.4,83,0,0,3.7,1.1,,269,6,3.7
2019,10,31,19:00,UTC,3,1012.6,86,0,0,3.1,1,,264,6.6,4.3
2019,10,31,20:00,UTC,1,1012.8,90,0,0,2.3,0.8,,273,6,3.8
2019,10,31,21:00,UTC,0,1012.8,93,0,0,1.3,0.2,,264,6,4.3
2019,10,31,22:00,UTC,0,1012.7,95,0,0,0.2,-0.5,,260,5.6,3.9
2019,10,31,23:00,UTC,0,1012.8,95,0,0,0.1,-0.6,,264,6.8,4.5
2019,11,1,00:00,UTC,0,1012.8,95,0,0,0,-0.7,,262,7.5,4.1
2019,11,1,01:00,UTC,0,1013,94,0,0,-0.2,-1,,257,6.6,4.7
2019,11,1,02:00,UTC,0,1013,95,0,0,-0.7,-1.3,,252,5.7,4.3
2019,11,1,03:00,UTC,0,1012.9,96,0,0,-0.9,-1.5,,275,7.8,5
2019,11,1,04:00,UTC,0,1012.9,94,0,0,-0.8,-1.6,,268,7.9,4.9
2019,11,1,05:00,UTC,0,1013,93,0,0,-1.2,-2.2,,279,5.9,4.2
2019,11,1,06:00,UTC,0,1013.2,92,0,0,-0.6,-1.7,50000,263,6.9,4.1
2019,11,1,07:00,UTC,0,1013.2,92,0,0,-0.5,-1.7,50000,286,6.2,3.8
2019,11,1,08:00,UTC,0,1013.3,84,0,0,1.1,-1.2,48730,291,5.7,3.8
2019,11,1,09:00,UTC,1,1013.4,79,0,0,2.4,-0.9,48660,302,5,3.5
2019,11,1,10:00,UTC,0,1013.3,72,0,0,3.7,-0.9,47440,302,5.9,3.5
2019,11,1,11:00,UTC,0,1013.2,69,0,0,4.2,-1,17380,294,7.2,3.7
2019,11,1,12:00,UTC,0,1013.1,69,0,0,4.2,-1,48120,287,6.6,3.4
2019,11,1,13:00,UTC,1,1013.1,73,0,0,3.7,-0.7,50000,265,6.5,4.2
2019,11,1,14:00,UTC,0,1013.1,78,0,0,2.7,-0.8,50000,255,4.5,2.6
2019,11,1,15:00,UTC,0,1013,82,0,0,1.8,-1,,275,3.4,2.5
2019,11,1,16:00,UTC,1,1012.8,88,0,0,1,-0.8,,254,2.6,2.2
2019,11,1,17:00,UTC,1,1012.6,92,0,0,0.1,-1,,232,1.8,1.6
2019,11,1,18:00,UTC,0,1012.4,91,0,0,0.3,-1.1,,233,1.6,1.3
2019,11,1,19:00,UTC,0,1012.1,95,0,0,-1.3,-1.9,,194,1.7,1.5
2019,11,1,20:00,UTC,7,1011.8,93,0,0,-0.5,-1.5,,149,1.6,1.5
2019,11,1,21:00,UTC,0,1011.5,94,0,0,-0.5,-1.4,,107,4,3.6
2019,11,1,22:00,UTC,3,1011,97,0,0,0.3,-0.2,,115,3.1,2.7
2019,11,1,23:00,UTC,3,1010.5,95,0,0,0.3,-0.4,,99,4.8,3.5
2019,11,2,00:00,UTC,7,1009.8,92,0,0,0.8,-0.5,,111,4.2,3.7
2019,11,2,01:00,UTC,7,1009.1,86,0,0,2.7,0.7,,146,5.5,3.8
2019,11,2,02:00,UTC,7,1008.2,82,0,0,4,1.1,,125,6.2,4.2
2019,11,2,03:00,UTC,7,1007.4,76,0,0,4.8,1,,134,8.4,4.9
2019,11,2,04:00,UTC,7,1006.5,79,0,0,5.2,1.8,,126,8.9,5.9
2019,11,2,05:00,UTC,7,1005.8,91,0.7,0,5.3,4,,143,7.5,5
2019,11,2,06:00,UTC,7,1005.1,91,0,0,5.7,4.4,50000,143,7.9,5
2019,11,2,07:00,UTC,7,1004.5,95,1.1,0,5.5,4.8,10720,146,7.9,4.6
2019,11,2,08:00,UTC,7,1003.7,95,1.1,0,5.4,4.7,14810,143,8.8,4.9
2019,11,2,09:00,UTC,7,1002.9,94,0,0,5.8,4.9,25120,145,9.2,5.9
2019,11,2,10:00,UTC,7,1002.1,84,0,0,5.4,3,50000,145,9.8,6.1
2019,11,2,11:00,UTC,5,1001.1,81,0,0,5.6,2.7,48310,140,11,6.1
2019,11,2,12:00,UTC,7,999.9,77,0,0,5.8,2.1,48240,145,10.6,6.3
2019,11,2,13:00,UTC,7,998.8,78,0,0,5.9,2.3,38170,143,10.4,5.7
2019,11,2,14:00,UTC,7,997.9,76,0,0,5.8,1.9,38270,150,11.2,7.4
2019,11,2,15:00,UTC,7,997.1,75,0,0,5.7,1.7,,146,11.3,7.2
2019,11,2,16:00,UTC,7,996.3,77,0,,5.5,1.9,,153,10.9,6.1
2019,11,2,17:00,UTC,7,995.7,89,1.5,0,4.6,3,,147,10,6.6
2019,11,2,18:00,UTC,7,995.2,92,0.8,0,4.2,2.9,,161,10.7,6.4
2019,11,2,19:00,UTC,7,994.5,92,0.8,0,4,2.9,,164,10.1,6.4
2019,11,2,20:00,UTC,8,993.9,93,0,0,4,3,,171,8,4.8
2019,11,2,21:00,UTC,8,993.3,91,0,0,4.1,2.7,,181,8.7,5.3
2019,11,2,22:00,UTC,7,992.8,91,0,0,4.3,3,,191,5.1,3.1
2019,11,2,23:00,UTC,8,992.3,92,0,0,4.5,3.2,,205,4.6,3.2
2019,11,3,00:00,UTC,8,992.2,97,0.4,0,4.4,4,,208,3.3,2
2019,11,3,01:00,UTC,8,992,98,0,0,4.3,4,,229,1.1,0.8
2019,11,3,02:00,UTC,8,992,99,0,0,4.2,4,,56,1.7,1.4
2019,11,3,03:00,UTC,7,992,99,0,0,4.4,4.2,,14,1.2,0.9
2019,11,3,04:00,UTC,7,991.9,99,0,0,3.9,3.7,,4,2.9,1.4
2019,11,3,05:00,UTC,7,992.2,99,0,0,3.9,3.7,,347,2.2,1.3
2019,11,3,06:00,UTC,9,992.4,99,0,0,3.4,3.2,820,331,2.4,1.4
2019,11,3,07:00,UTC,9,992.9,99,0,0,2.6,2.5,460,302,1.9,1.1
2019,11,3,08:00,UTC,7,993.4,99,0,0,2.7,2.6,2130,336,1.5,0.5
2019,11,3,09:00,UTC,5,993.9,99,0,0,3,2.9,11850,331,2.8,1.5
2019,11,3,10:00,UTC,8,994.2,99,0,0,2.3,2.2,1230,335,3.4,2.2
2019,11,3,11:00,UTC,8,994.6,99,0,0,2.5,2.3,2580,329,4.5,2.5
2019,11,3,12:00,UTC,7,995.2,99,0,0,2.8,2.6,4700,321,4.8,3.3
2019,11,3,13:00,UTC,7,995.7,98,0,0,3.1,2.8,6650,319,3.1,1.8
2019,11,3,14:00,UTC,8,996.2,92,0,0,3.4,2.1,15450,331,3.9,2
2019,11,3,15:00,UTC,3,996.6,91,0,0,2.9,1.6,,332,4,2.4
2019,11,3,16:00,UTC,3,997.4,96,0,0,1.5,0.9,,325,3.4,2.1
2019,11,3,17:00,UTC,0,998,98,0,0,0.7,0.4,,292,3.2,2.8
2019,11,3,18:00,UTC,7,998.5,95,0,0,2.1,1.4,,8,8.2,4
2019,11,3,19:00,UTC,0,999.1,95,0,0,1.2,0.4,,352,5.4,3.5
2019,11,3,20:00,UTC,7,999.7,90,0,0,0.7,-0.7,,355,7.1,5
2019,11,3,21:00,UTC,7,999.7,90,0,0,0.2,-1.3,,354,8.1,5
2019,11,3,22:00,UTC,7,1000.3,90,0,0,-0.1,-1.6,,4,6,3.8
2019,11,3,23:00,UTC,7,1000.3,91,0,0,-0.1,-1.5,,9,5.3,3.3
2019,11,4,00:00,UTC,7,1000.3,89,0,0,-0.2,-1.7,,23,5.9,3.5
2019,11,4,01:00,UTC,7,1000.4,90,0,0,-0.4,-1.8,,21,5.8,3.4
2019,11,4,02:00,UTC,7,1000.3,89,0,0,-0.5,-2.1,,15,7,4.3
2019,11,4,03:00,UTC,7,1000.3,89,0,0,-0.9,-2.5,,28,7.9,5.1
2019,11,4,04:00,UTC,7,1000.8,87,0,0,-1.1,-2.9,,18,7.7,4.5
2019,11,4,05:00,UTC,7,1001,85,0,0,-1.1,-3.3,,19,6.7,3.9
2019,11,4,06:00,UTC,7,1001.6,83,0,0,-1.1,-3.6,50000,25,6.8,4
2019,11,4,07:00,UTC,7,1001.5,83,0,0,-1,-3.4,50000,20,9.3,4.8
2019,11,4,08:00,UTC,7,1002,81,0,0,-0.7,-3.6,50000,28,7.9,4.5
2019,11,4,09:00,UTC,7,1002.7,80,0,0,-0.5,-3.5,50000,27,7.7,5.1
2019,11,4,10:00,UTC,7,1002.7,78,0,0,0,-3.3,50000,30,8.7,4.5
2019,11,4,11:00,UTC,1,1002.8,77,0,0,0,-3.5,50000,27,8.2,5.4
2019,11,4,12:00,UTC,0,1002.6,75,0,0,0.1,-3.9,50000,28,8.6,5.6
2019,11,4,13:00,UTC,0,1002.3,73,0,0,0,-4.3,50000,37,9.8,5.8
2019,11,4,14:00,UTC,0,1002.7,77,0,0,-0.2,-3.8,50000,24,7.7,4.8
2019,11,4,15:00,UTC,0,1003.1,80,0,0,-0.6,-3.6,,26,8.6,5.6
2019,11,4,16:00,UTC,1,1003.6,85,0,0,-1.3,-3.5,50000,36,9.3,5.6
2019,11,4,17:00,UTC,3,1003.3,86,0,0,-1.6,-3.6,50000,36,8.3,5.6
2019,11,4,18:00,UTC,1,1003.3,86,0,0,-1.9,-3.9,50000,29,9,6
2019,11,4,19:00,UTC,7,1003.3,86,0,0,-1.9,-4,50000,30,8.7,5.5
2019,11,4,20:00,UTC,7,1003.3,86,0,0,-2,-4.1,50000,33,9.3,6.3
2019,11,4,21:00,UTC,1,1002.8,86,0,0,-2.4,-4.5,50000,23,8.8,5.4
2019,11,4,22:00,UTC,0,1002.5,85,0,0,-2.5,-4.7,50000,23,8.2,4.7
2019,11,4,23:00,UTC,0,1002.4,86,0,0,-2.9,-5,50000,17,8,4.8
2019,11,5,00:00,UTC,0,1002.3,83,0,0,-2.8,-5.2,50000,20,8.2,4.8
2019,11,5,01:00,UTC,0,1002.1,82,0,0,-2.6,-5.2,50000,27,9.8,5.2
2019,11,5,02:00,UTC,5,1001.6,83,0,0,-2.7,-5.3,50000,22,8.6,5.2
2019,11,5,03:00,UTC,7,1001.3,83,0,0,-2.6,-5.1,50000,23,8.9,5.6
2019,11,5,04:00,UTC,7,1000.9,83,0,0,-2.4,-4.9,50000,23,9.6,6.2
2019,11,5,05:00,UTC,7,1000.5,81,0,0,-2.1,-5,50000,18,9.2,5.7
2019,11,5,06:00,UTC,7,1000.4,77,0,0,-1.9,-5.5,50000,20,9.2,5.7
2019,11,5,07:00,UTC,1,1000.4,73,0,0,-1.8,-6,50000,19,10.3,6.2
2019,11,5,08:00,UTC,3,1000.1,70,0,0,-1.6,-6.4,50000,19,9.5,5.9
2019,11,5,09:00,UTC,3,999.8,68,0,0,-1.4,-6.5,50000,15,9.2,5.8
2019,11,5,10:00,UTC,5,999.4,63,0,0,-1.1,-7.3,50000,13,10.5,7
2019,11,5,11:00,UTC,1,999,59,0,0,-0.9,-7.9,50000,12,10.7,6.7
2019,11,5,12:00,UTC,5,998.6,51,0,0,-0.4,-9.4,50000,15,12.5,7.6
2019,11,5,13:00,UTC,7,998.5,44,0,0,0.1,-10.8,50000,12,12.4,7.1
2019,11,5,14:00,UTC,7,998.5,42,0,0,0,-11.3,50000,14,12.6,7.5
2019,11,5,15:00,UTC,8,998.9,44,0,0,-0.5,-11.4,,14,12.3,7.1
2019,11,5,16:00,UTC,3,999.5,46,0,0,-1,-11.3,,9,11.4,5.7
2019,11,5,17:00,UTC,7,999.8,45,0,0,-1.2,-11.5,,7,11.6,6.8
2019,11,5,18:00,UTC,5,1000,45,0,0,-1.4,-12,,8,11.7,6.8
2019,11,5,19:00,UTC,1,1000.1,45,0,0,-1.8,-12.2,,8,11.5,6.8
2019,11,5,20:00,UTC,1,1000.4,42,0,0,-1.8,-13,,12,10.8,6.5
2019,11,5,21:00,UTC,7,1000.6,40,0,0,-1.8,-13.6,,10,10,6.1
2019,11,5,22:00,UTC,0,1001.4,40,0,0,-1.8,-13.8,,13,10.6,6.4
2019,11,5,23:00,UTC,1,1002,41,0,0,-2.1,-13.7,,17,11.6,6.3
2019,11,6,00:00,UTC,0,1002.2,42,0,0,-2.3,-13.4,,13,14.8,7.5
2019,11,6,01:00,UTC,0,1002.5,45,0,0,-2.9,-13.3,,15,8.3,5
2019,11,6,02:00,UTC,0,1002.5,47,0,0,-3.5,-13.2,,17,8.1,5.2
2019,11,6,03:00,UTC,0,1002.7,45,0,0,-3.5,-13.7,,17,9.4,5.6
2019,11,6,04:00,UTC,0,1003.1,46,0,0,-3.8,-13.8,,11,7,4.8
2019,11,6,05:00,UTC,0,1003.2,47,0,0,-4.2,-13.8,,8,9.5,6.2
2019,11,6,06:00,UTC,0,1003.8,48,0,0,-4.4,-13.8,50000,8,7.7,5.1
2019,11,6,07:00,UTC,0,1004.3,48,0,0,-4.2,-13.5,50000,11,6.6,4.1
2019,11,6,08:00,UTC,0,1004.3,48,0,0,-3.5,-12.9,50000,11,7.1,4.3
2019,11,6,09:00,UTC,0,1004.2,45,0,0,-2.5,-12.8,50000,20,7.2,4.4
2019,11,6,10:00,UTC,0,1004.4,43,0,0,-1.5,-12.6,50000,28,6.9,4.2
2019,11,6,11:00,UTC,1,1004.1,42,0,0,-1,-12.2,47030,15,7.1,4.6
2019,11,6,12:00,UTC,1,1004.1,43,0,0,-0.9,-11.9,50000,26,7.6,4.4
2019,11,6,13:00,UTC,0,1003.8,48,0,0,-1.6,-11.2,46270,27,8.6,5.5
2019,11,6,14:00,UTC,0,1004.2,52,0,0,-2.2,-10.7,50000,27,7.6,4.4
2019,11,6,15:00,UTC,1,1004.5,57,0,0,-2.7,-10.1,,32,6.9,4.4
2019,11,6,16:00,UTC,5,1004.8,61,0,0,-3.2,-9.7,,31,8,4.6
2019,11,6,17:00,UTC,0,1004.7,65,0,0,-3.7,-9.4,,34,8.1,5.2
2019,11,6,18:00,UTC,1,1004.5,69,0,0,-4.2,-9,,23,8,5
2019,11,6,19:00,UTC,7,1004.7,72,0,0,-3.9,-8.3,,27,8.5,5.6
2019,11,6,20:00,UTC,7,1004.6,75,0,0,-3.7,-7.5,,29,8.9,5.4
2019,11,6,21:00,UTC,7,1004.7,78,0,0,-3.3,-6.6,26770,31,8.7,5.6
2019,11,6,22:00,UTC,7,1004.8,80,0,0,-3.3,-6.2,50000,18,8.1,5.3
2019,11,6,23:00,UTC,7,1004.9,82,0,0,-2.9,-5.5,47140,22,7.7,4.5
2019,11,7,00:00,UTC,7,1005.3,84,0,1,-2.9,-5.2,50000,27,7.6,4.8
2019,11,7,01:00,UTC,7,1005.4,88,0,0,-2.9,-4.7,5410,31,8.6,5.2
2019,11,7,02:00,UTC,7,1005.8,91,0.3,0,-3.3,-4.5,2640,28,8.4,5.1
2019,11,7,03:00,UTC,7,1006.1,91,0.3,0,-3.1,-4.5,6130,31,8.8,6.1
2019,11,7,04:00,UTC,7,1006.4,91,0.1,0,-3.2,-4.4,2800,31,10,5.4
2019,11,7,05:00,UTC,7,1006.7,91,0,0,-3,-4.3,,29,9.3,5.5
2019,11,7,06:00,UTC,7,1007.3,89,0,0,-2.7,-4.3,6680,31,9,5.1
2019,11,7,07:00,UTC,7,1008,92,0.3,0,-2.6,-3.8,2160,36,6.7,4.6
2019,11,7,08:00,UTC,7,1008.4,90,0,0,-2.5,-3.9,4080,36,7.8,5.5
2019,11,7,09:00,UTC,7,1008.8,90,0,2,-2.1,-3.6,12490,38,8,5.1
2019,11,7,10:00,UTC,7,1009.1,88,0,2,-1.9,-3.6,50000,40,8.4,5.3
2019,11,7,11:00,UTC,7,1009.5,89,0,2,-1.5,-3.2,50000,37,7.7,4.7
2019,11,7,12:00,UTC,7,1009.5,89,0,2,-1.4,-3,50000,37,8.5,5.6
2019,11,7,13:00,UTC,7,1009.8,88,0,2,-1.3,-2.9,50000,37,8.5,4.6
2019,11,7,14:00,UTC,7,1010.2,87,0,2,-1.1,-3,,41,7.5,4.7
2019,11,7,15:00,UTC,7,1010.5,86,0,2,-0.8,-2.8,,39,7,4.6
2019,11,7,16:00,UTC,7,1010.9,86,0,2,-0.7,-2.8,,34,6.7,4.5
2019,11,7,17:00,UTC,7,1011.1,83,0,0,-0.7,-3.2,,43,7.5,4.7
2019,11,7,18:00,UTC,7,1011,81,0,2,-0.7,-3.5,,44,7,4.6
2019,11,7,19:00,UTC,7,1011.2,81,0,2,-0.8,-3.7,,43,6.7,4.5
2019,11,7,20:00,UTC,8,1011.6,81,0,2,-0.8,-3.7,,36,5.5,3.6
2019,11,7,21:00,UTC,8,1011.9,82,0,2,-0.9,-3.5,,31,5.9,3.9
2019,11,7,22:00,UTC,8,1012.3,83,0,2,-0.9,-3.5,,22,4.9,3
2019,11,7,23:00,UTC,8,1012.2,83,0,0,-1,-3.5,,33,5.2,3
2019,11,8,00:00,UTC,8,1012.4,84,0,1,-1.1,-3.4,,29,4.8,3.1
2019,11,8,01:00,UTC,8,1012.5,86,0,0,-1.1,-3.1,,37,5.1,3.5
2019,11,8,02:00,UTC,8,1012.8,87,0,0,-1,-2.9,,34,3.8,2.7
2019,11,8,03:00,UTC,8,1013,90,0,0,-1.1,-2.6,,38,4.3,2.9
2019,11,8,04:00,UTC,8,1013.4,94,0,0,-1.1,-2,,21,3.2,2.2
2019,11,8,05:00,UTC,8,1013.6,95,0.1,2,-1.1,-1.7,3810,35,3.9,2.6
2019,11,8,06:00,UTC,8,1013.8,96,0,2,-0.8,-1.3,6600,49,4.6,3.1
2019,11,8,07:00,UTC,8,1014.4,96,0,2,-0.4,-1,9150,30,2.7,2
2019,11,8,08:00,UTC,8,1014.9,96,0,2,0,-0.6,6630,37,3.6,2.3
2019,11,8,09:00,UTC,8,1015.8,96,0,2,0.3,-0.3,4590,31,3.1,2.3
2019,11,8,10:00,UTC,8,1015.9,97,0,0,0.5,0,4010,20,3.3,2.4
2019,11,8,11:00,UTC,8,1016.4,97,0,0,0.8,0.3,6100,41,2.3,1.6
2019,11,8,12:00,UTC,8,1016.8,97,0,0,1,0.5,7480,38,2.8,1.7
2019,11,8,13:00,UTC,8,1016.8,96,0,0,1.1,0.6,9990,56,3.5,2.3
2019,11,8,14:00,UTC,7,1017.1,96,0,0,1.1,0.5,,54,4.1,2.9
2019,11,8,15:00,UTC,8,1017.5,96,0,0,1.2,0.7,,55,3,2.3
2019,11,8,16:00,UTC,8,1017.5,97,0,0,1.6,1.2,,64,5,3.8
2019,11,8,17:00,UTC,8,1017.2,97,0,0,2.5,2,,106,5.4,3.7
2019,11,8,18:00,UTC,8,1017,92,0,0,4.6,3.4,,105,6.2,4.5
2019,11,8,19:00,UTC,8,1017.2,97,0.9,0,4.8,4.3,,120,6.3,4.4
2019,11,8,20:00,UTC,8,1017.1,98,0.4,0,5.1,4.8,,125,6.8,3.8
2019,11,8,21:00,UTC,7,1017.2,97,0,0,5.6,5.2,,139,8.1,5
2019,11,8,22:00,UTC,7,1017.3,95,0,0,5.4,4.7,,144,7.8,4.7
2019,11,8,23:00,UTC,8,1017,92,0,0,5.7,4.5,,161,7.1,4.2
2019,11,9,00:00,UTC,8,1016.7,90,0,0,5.8,4.3,,157,8.3,4.3
2019,11,9,01:00,UTC,8,1016.6,89,0,0,5.9,4.3,,164,7.5,4.8
2019,11,9,02:00,UTC,7,1016,91,0,0,5.8,4.4,,141,6.7,4.1
2019,11,9,03:00,UTC,7,1015.9,92,0,0,5.9,4.7,,132,5.6,4
2019,11,9,04:00,UTC,7,1015.1,91,0,0,6,4.6,,123,5.4,3.5
2019,11,9,05:00,UTC,7,1014.8,92,0,0,5.9,4.7,,119,6.8,4.6
2019,11,9,06:00,UTC,7,1014.4,91,0,0,6.3,4.9,20980,121,6.9,4.6
2019,11,9,07:00,UTC,8,1014.2,90,0,0,6.4,5,25060,117,6.5,4.8
2019,11,9,08:00,UTC,7,1013.6,89,0,0,6.6,5,34570,116,9.4,6.8
2019,11,9,09:00,UTC,7,1013.2,92,0,0,6.5,5.2,26820,119,7.6,5.2
2019,11,9,10:00,UTC,7,1012.8,93,0,0,6.5,5.5,14420,124,6.3,4.2
2019,11,9,11:00,UTC,7,1012.2,94,0,0,6.4,5.4,24240,116,5.6,4
2019,11,9,12:00,UTC,7,1011.5,93,0,0,6.5,5.4,25500,116,5.1,3.4
2019,11,9,13:00,UTC,7,1011,94,0,0,6.5,5.5,18160,102,4.4,3
2019,11,9,14:00,UTC,7,1010.5,94,0,0,6.4,5.5,,102,4.1,2.7
2019,11,9,15:00,UTC,8,1010.6,95,0,0,6.2,5.4,,78,2.7,1.9
2019,11,9,16:00,UTC,8,1010.4,95,0,0,6.1,5.4,,84,3.3,2.5
2019,11,9,17:00,UTC,8,1009.8,94,0,0,6,5.2,,75,3.6,2.3
2019,11,9,18:00,UTC,8,1009.7,95,0,0,6,5.3,,55,2.5,1.8
2019,11,9,19:00,UTC,8,1009.7,95,0,0,6,5.3,,36,3.1,2.4
2019,11,9,20:00,UTC,8,1009.1,97,0,0,5.7,5.2,,65,3.7,2.8
2019,11,9,21:00,UTC,8,1008.7,97,0,0,5.6,5.2,,57,4.3,3
2019,11,9,22:00,UTC,7,1008.7,97,2.1,0,5.6,5.1,,64,3.2,2.5
2019,11,9,23:00,UTC,8,1008.7,98,2.1,0,5.5,5.2,,59,3.5,2.5
2019,11,10,00:00,UTC,8,1008.2,99,0.7,0,5.6,5.4,,64,3.1,2.3
2019,11,10,01:00,UTC,9,1007.6,99,0.5,0,5.7,5.6,,72,3.2,2.3
2019,11,10,02:00,UTC,9,1007.4,99,0.3,0,6.1,6,,97,3.7,2.7
2019,11,10,03:00,UTC,8,1007.1,99,0.4,0,6.2,6.1,,110,5.1,3.6
2019,11,10,04:00,UTC,8,1006.6,99,0,0,6.4,6.3,,106,4.1,3.1
2019,11,10,05:00,UTC,8,1006.3,99,0,0,6.6,6.5,,106,4,3.1
2019,11,10,06:00,UTC,8,1006,99,0.2,0,6.8,6.6,7290,99,5,3
2019,11,10,07:00,UTC,8,1005.8,99,1.5,0,7.2,7,6470,109,6.4,4.5
2019,11,10,08:00,UTC,7,1005.7,99,0.6,0,7.4,7.3,9510,117,5.2,3.5
2019,11,10,09:00,UTC,8,1005.4,99,0.1,0,7.9,7.8,6450,135,6.4,3.6
2019,11,10,10:00,UTC,7,1005.2,99,0,0,8.3,8.1,8090,138,6.5,4
2019,11,10,11:00,UTC,7,1005.1,98,0,0,8.5,8.3,6360,167,7.5,4.3
2019,11,10,12:00,UTC,7,1004.9,97,0,0,8.7,8.2,7330,165,8,4.5
2019,11,10,13:00,UTC,7,1004.6,97,0.8,0,8.4,7.9,5880,160,9.6,5.6
2019,11,10,14:00,UTC,7,1004.6,97,1.5,0,8.2,7.8,,166,9.9,6.1
2019,11,10,15:00,UTC,8,1004.6,97,0.3,0,8,7.5,,174,9.6,5.7
2019,11,10,16:00,UTC,7,1004.8,98,0.6,0,8.1,7.7,,184,8.4,5
2019,11,10,17:00,UTC,8,1004.8,97,0,0,8,7.6,,170,6.8,4.3
2019,11,10,18:00,UTC,8,1005.1,96,0,0,7.5,6.9,,199,6.9,4.7
2019,11,10,19:00,UTC,8,1005.4,96,0,0,7.3,6.6,,210,5.7,4
2019,11,10,20:00,UTC,8,1005.6,98,0,0,7.2,7,,211,3.8,2.5
2019,11,10,21:00,UTC,8,1006.1,98,0,0,7,6.8,,244,4.1,3.2
2019,11,10,22:00,UTC,8,1007.1,97,0,0,4,3.5,,291,8.1,5.2
2019,11,10,23:00,UTC,8,1007.8,95,0,0,3.2,2.5,,293,7.8,5
2019,11,11,00:00,UTC,8,1008.4,96,0,0,1.8,1.2,,285,9.7,5.7
2019,11,11,01:00,UTC,8,1008.7,95,0,0,1.5,0.8,,300,8.6,5.1
2019,11,11,02:00,UTC,8,1009,96,0,0,1.5,0.8,,286,6.8,3.6
2019,11,11,03:00,UTC,8,1009.5,95,0,0,1.3,0.5,,289,4.9,2.9
2019,11,11,04:00,UTC,8,1009.6,94,0,0,1.1,0.3,,280,8,4.1
2019,11,11,05:00,UTC,8,1009.8,94,0,0,0.9,0.1,,309,6,3.3
2019,11,11,06:00,UTC,8,1010.4,96,0,0,0.7,0.1,9450,291,4.6,3
2019,11,11,07:00,UTC,8,1010.6,96,0,0,0.4,-0.2,20320,285,6,3.9
2019,11,11,08:00,UTC,8,1010.8,94,0,0,0.4,-0.4,8400,313,4.1,1.8
2019,11,11,09:00,UTC,8,1010.6,93,0,0,0.5,-0.4,25580,326,5.1,3.4
2019,11,11,10:00,UTC,8,1010.7,94,0,0,0.5,-0.3,31590,284,6.6,3.3
2019,11,11,11:00,UTC,8,1010.8,94,0,0,0.4,-0.4,16720,344,3,1.9
2019,11,11,12:00,UTC,8,1011,96,0,0,0.2,-0.3,13890,324,3.1,1.9
2019,11,11,13:00,UTC,8,1011.1,96,0,0,0.3,-0.4,50000,308,4.5,2.8
2019,11,11,14:00,UTC,8,1011.4,96,0,0,-0.3,-0.8,,277,6,3.2
2019,11,11,15:00,UTC,7,1011.7,97,0,0,-0.7,-1.1,15870,269,6.6,4.4
2019,11,11,16:00,UTC,7,1011.9,97,0,0,-0.7,-1.1,10310,264,6,3.7
2019,11,11,17:00,UTC,7,1012.2,98,0,0,-1,-1.3,8120,274,7.6,4.3
2019,11,11,18:00,UTC,7,1012.4,98,0,0,-0.8,-1.1,7260,285,4.6,2.8
2019,11,11,19:00,UTC,7,1012.7,98,0,0,-0.8,-1.1,12640,294,4.6,2.3
2019,11,11,20:00,UTC,7,1013.2,97,0,0,-0.7,-1.1,36330,293,6.6,4.3
2019,11,11,21:00,UTC,7,1013.6,96,0,0,-0.5,-1,29860,280,6.4,4
2019,11,11,22:00,UTC,7,1014.4,96,0,0,-0.4,-1,30960,291,6.4,3.8
2019,11,11,23:00,UTC,7,1014.8,97,0,0,-0.4,-0.8,11620,286,5.3,3
2019,11,12,00:00,UTC,7,1015.6,97,0,0,-0.3,-0.7,5410,254,4.3,2.5
2019,11,12,01:00,UTC,7,1016,91,0,0,0,-1.3,50000,311,4.2,2.4
2019,11,12,02:00,UTC,3,1016.1,91,0,0,-0.4,-1.6,50000,2,3.2,2
2019,11,12,03:00,UTC,1,1016.5,95,0,0,-1.1,-1.9,25560,87,2.4,1.6
2019,11,12,04:00,UTC,0,1016.5,95,0,0,-1.1,-1.8,20130,67,2.9,1.9
2019,11,12,05:00,UTC,0,1017,96,0,0,-1,-1.6,27940,102,4.3,2.9
2019,11,12,06:00,UTC,0,1017.4,95,0,0,-0.9,-1.6,29090,65,4.1,3.2
2019,11,12,07:00,UTC,7,1017.9,94,0,0,-0.1,-1.1,31450,62,2.8,2.1
2019,11,12,08:00,UTC,7,1018.2,93,0,0,1,0,31360,66,4.3,3.2
2019,11,12,09:00,UTC,7,1018.3,93,0,0,2,1.1,31470,60,4.1,2.9
2019,11,12,10:00,UTC,7,1018.4,88,0,0,3.8,1.9,45520,122,6.5,2.9
2019,11,12,11:00,UTC,7,1018.4,81,0,0,5.6,2.5,50000,123,6.8,4.2
2019,11,12,12:00,UTC,7,1018.3,83,0,0,5.6,3,50000,132,8.2,5.8
2019,11,12,13:00,UTC,7,1017.4,75,0,0,5.6,1.6,50000,119,8.6,6.1
2019,11,12,14:00,UTC,7,1016.9,80,0,0,5.1,2,50000,110,9.4,5.9
2019,11,12,15:00,UTC,5,1016.4,81,0,0,5.4,2.4,50000,110,12.2,7.2
2019,11,12,16:00,UTC,7,1015.6,81,0,0,5.7,2.7,50000,113,13.6,8.6
2019,11,12,17:00,UTC,7,1014.9,79,0,0,5.9,2.5,50000,117,15,10.4
2019,11,12,18:00,UTC,7,1014.3,87,1,0,5.2,3.2,11890,113,14.3,8.8
2019,11,12,19:00,UTC,7,1013.9,92,1.4,0,4.9,3.7,10570,119,11.8,7.1
2019,11,12,20:00,UTC,7,1013.4,95,1.6,0,5,4.2,11600,125,10.8,6.2
2019,11,12,21:00,UTC,7,1012.9,94,2,0,5.4,4.5,9620,137,9.8,6.4
2019,11,12,22:00,UTC,8,1012.8,95,2.2,0,5.7,5,8820,144,11,6.4
2019,11,12,23:00,UTC,8,1012.2,95,1.4,0,6.1,5.3,10050,149,9.7,6.1
2019,11,13,00:00,UTC,8,1012.1,95,0.1,0,6.3,5.5,12810,154,10.6,5.8
2019,11,13,01:00,UTC,8,1011.7,95,0.1,0,6.3,5.6,8880,157,9.1,4.9
2019,11,13,02:00,UTC,8,1011.5,96,0.3,0,6.2,5.6,5390,145,10,5.7
2019,11,13,03:00,UTC,8,1011.1,97,0,0,6.1,5.7,7090,145,9,6
2019,11,13,04:00,UTC,8,1011.1,97,0,0,6,5.5,7950,142,10.3,5.2
2019,11,13,05:00,UTC,8,1010.7,96,1,0,6.1,5.5,6980,145,8.5,5.7
2019,11,13,06:00,UTC,8,1010.2,96,1,0,6.1,5.6,8510,136,9.3,4.6
2019,11,13,07:00,UTC,7,1009.9,97,0.1,0,6.2,5.7,11970,125,8,5.8
2019,11,13,08:00,UTC,8,1009.5,96,0.6,0,6,5.5,7390,118,9.8,6.7
2019,11,13,09:00,UTC,8,1009.3,96,1.7,0,6.1,5.5,5290,118,8.6,5.8
2019,11,13,10:00,UTC,7,1008.5,98,2.1,0,6.1,5.7,3730,107,7.2,5.2
2019,11,13,11:00,UTC,8,1008,97,0.4,0,6.3,5.9,7640,111,7.8,5
2019,11,13,12:00,UTC,7,1007.8,97,1.8,0,6.5,6,6020,118,8.3,5.9
2019,11,13,13:00,UTC,8,1007.3,97,1.6,0,6.8,6.4,6990,123,6.5,4.2
2019,11,13,14:00,UTC,8,1006.7,97,0.5,0,7.1,6.6,,120,7.5,5.2
2019,11,13,15:00,UTC,8,1006.4,97,1.3,0,7.3,6.8,7680,118,7.4,4.6
2019,11,13,16:00,UTC,7,1006.4,98,2.3,0,7.4,7.1,5640,126,7.2,4.3
2019,11,13,17:00,UTC,7,1006,98,1.7,0,7.5,7.3,4570,126,6.4,4
2019,11,13,18:00,UTC,7,1005.6,98,3.8,0,7.6,7.3,4250,124,6.5,4
2019,11,13,19:00,UTC,7,1005.7,99,2,0,7.6,7.4,6710,130,4.9,3
2019,11,13,20:00,UTC,7,1004.9,99,0,0,7.8,7.6,5000,119,4.9,3.7
2019,11,13,21:00,UTC,7,1005.1,99,0.5,0,8.1,7.9,2610,143,6.6,3.9
2019,11,13,22:00,UTC,8,1005.4,99,0.2,0,8.2,8.1,1840,141,6.7,4.5
2019,11,13,23:00,UTC,8,1005.1,99,0.1,0,8.3,8.1,1880,154,5.4,3.3
2019,11,14,00:00,UTC,7,1005.3,99,0,0,8.3,8.1,2900,141,4.5,3.1
2019,11,14,01:00,UTC,7,1005.2,99,0,0,8.4,8.3,3520,143,6.3,4.8
2019,11,14,02:00,UTC,8,1005.4,99,0,0,8.6,8.5,3060,146,7.3,5.2
2019,11,14,03:00,UTC,7,1005.3,99,0,0,8.7,8.6,2890,134,5,3.3
2019,11,14,04:00,UTC,7,1005.2,99,0,0,8.6,8.5,3770,130,5.5,3.8
2019,11,14,05:00,UTC,8,1004.8,99,0,0,8.9,8.6,4440,119,7,4.8
2019,11,14,06:00,UTC,7,1004.5,98,2.3,0,9,8.7,4190,115,8.8,5.8
2019,11,14,07:00,UTC,7,1004.6,97,0,0,9,8.7,4950,120,9.9,6.4
2019,11,14,08:00,UTC,7,1004.6,96,0.4,0,8.8,8.2,6890,126,9.3,5.6
2019,11,14,09:00,UTC,8,1004.9,95,0,0,8.9,8,7100,131,9.2,6
2019,11,14,10:00,UTC,8,1005.1,95,0,0,8.9,8.1,6480,141,8.9,6
2019,11,14,11:00,UTC,7,1005.3,96,0,0,9.1,8.5,3530,149,8.7,5.5
2019,11,14,12:00,UTC,7,1005.3,94,0,0,9.6,8.7,6050,142,9.8,6.8
2019,11,14,13:00,UTC,8,1005.5,92,0,0,10,8.7,7270,147,10.2,6.5
2019,11,14,14:00,UTC,8,1005.6,90,0,0,10,8.5,,156,9.4,5.6
2019,11,14,15:00,UTC,8,1006.5,84,0,0,9.7,7,,192,15,9.4
2019,11,14,16:00,UTC,8,1007.7,88,0,0,7.9,6.1,50000,201,18.4,12.5
2019,11,14,17:00,UTC,8,1009,91,0,0,6.6,5.2,50000,212,18.9,11.3
2019,11,14,18:00,UTC,8,1011.1,90,0,0,6.2,4.6,42060,233,11.6,7.5
2019,11,14,19:00,UTC,8,1013.2,87,0,0,5.2,3.2,50000,247,13.9,9.3
2019,11,14,20:00,UTC,8,1015.3,85,0,0,5.1,2.8,50000,255,11.4,6.2
2019,11,14,21:00,UTC,5,1016.8,84,0,0,4.7,2.2,50000,255,8.3,5.1
2019,11,14,22:00,UTC,1,1018.3,87,0,0,4.2,2.2,50000,245,6.2,4.7
2019,11,14,23:00,UTC,1,1019.3,91,0,0,3.4,2.1,50000,240,5.5,3.3
2019,11,15,00:00,UTC,7,1020.6,88,0,0,4.5,2.6,50000,247,7,5
2019,11,15,01:00,UTC,8,1021.8,84,0,0,4.5,2.1,50000,255,7.5,4.6
2019,11,15,02:00,UTC,8,1022.8,81,0,0,4.4,1.4,50000,253,7.6,5.2
2019,11,15,03:00,UTC,7,1023.5,80,0,0,4.1,0.9,50000,283,5.8,3.9
2019,11,15,04:00,UTC,0,1023.8,88,0,0,2.6,0.8,50000,309,3,1.8
2019,11,15,05:00,UTC,0,1024.6,93,0,0,1.7,0.6,45380,322,1.8,1.2
2019,11,15,06:00,UTC,0,1025.1,94,0,0,1.3,0.3,31010,300,1.3,0.8
2019,11,15,07:00,UTC,0,1025.9,96,0,0,0.9,0.3,9080,73,0.9,0.8
2019,11,15,08:00,UTC,0,1026.4,95,0,0,0.8,0.1,13730,50,1.4,1.1
2019,11,15,09:00,UTC,0,1026.8,89,0,0,2.8,1.2,15590,64,1.7,1.1
2019,11,15,10:00,UTC,0,1027,82,0,0,3.6,0.8,30470,69,2.5,1.2
2019,11,15,11:00,UTC,0,1027.1,82,0,0,3.6,0.8,34290,70,2.8,1.9
2019,11,15,12:00,UTC,0,1027,83,0,0,3.7,1,48740,73,2,1.2
2019,11,15,13:00,UTC,0,1027.2,83,0,0,3.5,0.9,37790,24,3,2.2
2019,11,15,14:00,UTC,0,1027.3,86,0,0,2.7,0.6,28720,25,3.9,2.9
2019,11,15,15:00,UTC,1,1027.4,90,0,0,1.7,0.3,19080,51,2.9,1.9
2019,11,15,16:00,UTC,0,1027.4,93,0,0,0.6,-0.4,20920,33,3,2.4
2019,11,15,17:00,UTC,0,1027.3,93,0,0,0.7,-0.3,24550,29,3.4,2.9
2019,11,15,18:00,UTC,0,1027.3,91,0,0,0.6,-0.6,32360,21,6,5.3
2019,11,15,19:00,UTC,0,1027,93,0,0,0.2,-0.8,29890,33,4.3,3
2019,11,15,20:00,UTC,0,1026.7,93,0,0,-0.1,-1.1,26210,20,4.5,3.6
2019,11,15,21:00,UTC,0,1026.1,94,0,0,-0.3,-1.1,20230,27,5.2,4.3
2019,11,15,22:00,UTC,0,1025.9,95,0,0,-0.9,-1.6,21880,15,5.2,3
2019,11,15,23:00,UTC,0,1025.3,96,0,0,-1.5,-2.1,17170,11,5.4,2.7
2019,11,16,00:00,UTC,7,1025.1,95,0,0,-1,-1.7,24840,15,4.7,2.8
2019,11,16,01:00,UTC,8,1024.3,92,0,0,-0.1,-1.2,35310,18,5.4,3.7
2019,11,16,02:00,UTC,8,1023.9,92,0,0,0.1,-1.1,35540,11,6,4.4
2019,11,16,03:00,UTC,8,1023.4,92,0,0,0.2,-0.9,29510,15,4.4,2.6
2019,11,16,04:00,UTC,8,1023.1,91,0,0,0.5,-0.9,42790,31,6,4
2019,11,16,05:00,UTC,7,1022.8,92,0,0,0.5,-0.7,49690,34,6.8,4.3
2019,11,16,06:00,UTC,7,1022.4,93,0,0,0.7,-0.4,31150,38,7.3,4.8
2019,11,16,07:00,UTC,8,1022.8,92,0,0,0.7,-0.4,33390,35,7.7,4.8
2019,11,16,08:00,UTC,8,1022.4,92,0,0,0.6,-0.6,32120,32,6.9,4.8
2019,11,16,09:00,UTC,8,1022.1,91,0,0,0.5,-0.7,34300,42,7.1,4.3
2019,11,16,10:00,UTC,8,1021.8,90,0,0,0.7,-0.7,38040,34,6.1,3.6
2019,11,16,11:00,UTC,8,1021.1,90,0,0,0.9,-0.6,36630,32,6.2,4
2019,11,16,12:00,UTC,8,1021.2,90,0,0,1,-0.5,23660,31,5.4,3.2
2019,11,16,13:00,UTC,8,1021,93,0,0,0.8,-0.2,12920,37,6.1,3.9
2019,11,16,14:00,UTC,8,1021,96,0,0,0.9,0.3,,36,6.7,4
2019,11,16,15:00,UTC,8,1020.5,96,0,0,1.2,0.7,9440,46,5.8,3.7
2019,11,16,16:00,UTC,7,1020,97,0,0,1.3,0.9,5900,51,6.3,4.2
2019,11,16,17:00,UTC,7,1019.8,98,0,0,1.6,1.3,6810,60,6.9,4.2
2019,11,16,18:00,UTC,7,1019.7,98,0,0,1.9,1.6,6130,55,7.2,4.8
2019,11,16,19:00,UTC,7,1019,98,0.3,0,2.4,2.2,5100,59,6.7,5.1
2019,11,16,20:00,UTC,7,1018.2,98,0,0,2.8,2.6,9240,51,7.6,5.2
2019,11,16,21:00,UTC,7,1017.8,83,0,0,4.9,2.2,37930,100,13.7,8.1
2019,11,16,22:00,UTC,7,1019,87,0,0,4.8,2.8,19370,114,11.8,7.6
2019,11,16,23:00,UTC,7,1017.7,91,0,0,4.4,3,14060,108,10.8,7.4
2019,11,17,00:00,UTC,7,1016.8,93,0,0,4.3,3.3,10050,106,10.7,7.2
2019,11,17,01:00,UTC,7,1016.7,93,0,0,4.7,3.7,10940,108,10.5,6.5
2019,11,17,02:00,UTC,7,1016.5,96,0,0,4.9,4.3,7710,116,9.6,7
2019,11,17,03:00,UTC,7,1016.5,98,0.4,0,5.2,4.8,2930,119,9.5,5.9
2019,11,17,04:00,UTC,7,1015.9,98,0,0,5.5,5.3,3070,120,7.7,4.3
2019,11,17,05:00,UTC,7,1016,98,0,0,6.1,5.9,5240,135,7.4,4.7
2019,11,17,06:00,UTC,7,1015.8,98,0,0,6.8,6.5,5370,151,8.2,4.8
2019,11,17,07:00,UTC,7,1016.1,98,0,0,7.5,7.2,4650,172,10.6,5.6
2019,11,17,08:00,UTC,7,1016.9,98,0,0,8.1,7.7,4960,,,
2019,11,17,09:00,UTC,7,1017.5,87,0,0,8.5,6.4,13320,200,10.8,6.2
2019,11,17,10:00,UTC,7,1017.8,82,0,0,8.2,5.3,48500,210,8.9,5.7
2019,11,17,11:00,UTC,7,1018.2,83,0,0,8.3,5.6,39210,200,9.8,6.2
2019,11,17,12:00,UTC,7,1018.3,85,0,0,8.3,5.9,38010,177,8.7,4.3
2019,11,17,13:00,UTC,7,1018.8,86,0,0,8.1,5.9,26540,174,10.2,6.2
2019,11,17,14:00,UTC,7,1019,86,0,0,8.2,6.1,,185,9.6,5
2019,11,17,15:00,UTC,7,1019,87,0,0,8.3,6.2,,191,9.6,6.1
2019,11,17,16:00,UTC,7,1019.4,87,0,0,8.1,6.1,,197,10.2,6.3
2019,11,17,17:00,UTC,7,1019.7,88,0,0,7.9,6,,194,11.4,6.1
2019,11,17,18:00,UTC,7,1020,90,0,0,7.7,6.1,,206,9,5.6
2019,11,17,19:00,UTC,7,1020.6,92,0,0,7.5,6.2,,203,9.7,6.6
2019,11,17,20:00,UTC,7,1021.2,93,0,0,7.5,6.4,,208,9.4,6.5
2019,11,17,21:00,UTC,7,1021.7,94,0,0,7.5,6.5,,216,8.4,5.1
2019,11,17,22:00,UTC,7,1022,94,0,0,7.4,6.5,,214,7.1,5.1
2019,11,17,23:00,UTC,7,1022.3,95,0,0,7.3,6.5,,210,7.2,4.7
2019,11,18,00:00,UTC,7,1022.6,95,0,0,7.2,6.5,,218,5.6,3.9
2019,11,18,01:00,UTC,7,1022.7,96,0,0,7,6.4,,221,6.3,4.2
2019,11,18,02:00,UTC,8,1023.1,96,0,0,6.8,6.2,,216,4.1,2.2
2019,11,18,03:00,UTC,5,1023.2,95,0,0,6.5,5.6,,265,2,1.5
2019,11,18,04:00,UTC,1,1023.3,95,0,0,4.8,4.1,,335,1.8,1.1
2019,11,18,05:00,UTC,0,1023.4,97,0,0,5,4.6,,51,1.8,1
2019,11,18,06:00,UTC,0,1023.9,98,0,0,4.6,4.3,6470,117,2.4,2
2019,11,18,07:00,UTC,9,1024.4,98,0,0,4.1,3.9,370,138,2.6,2
2019,11,18,08:00,UTC,9,1024.6,99,0,0,4.2,4.1,390,76,3.3,2.2
2019,11,18,09:00,UTC,8,1025,99,0,0,5.6,5.4,8340,108,7,4.7
2019,11,18,10:00,UTC,8,1025,97,0,0,5.9,5.4,12550,98,6.5,4.2
2019,11,18,11:00,UTC,8,1024.7,96,0,0,5.8,5.3,9110,96,5.4,3.5
2019,11,18,12:00,UTC,8,1024.4,95,0,0,5.8,5,10910,69,6.3,4.5
2019,11,18,13:00,UTC,8,1024.3,97,0,0,5.6,5.1,6630,75,6.3,4.2
2019,11,18,14:00,UTC,8,1024.2,97,0,0,5.5,5.1,5210,67,6.9,4.7
2019,11,18,15:00,UTC,8,1023.8,95,0,0,5.8,5.1,7000,61,8.6,5.6
2019,11,18,16:00,UTC,8,1023.5,93,0,0,6.1,5.1,9530,68,9.4,5.9
2019,11,18,17:00,UTC,7,1023.4,92,0,0,6,4.9,13250,77,10.3,7
2019,11,18,18:00,UTC,8,1022.9,94,0,0,6,5.1,10390,73,12.7,7.6
2019,11,18,19:00,UTC,8,1022.6,94,0,0,6.1,5.2,5350,72,10.2,6.8
2019,11,18,20:00,UTC,8,1022.1,97,0,0,6.2,5.7,2910,75,12.7,7.5
2019,11,18,21:00,UTC,7,1021.7,98,0.4,0,6.7,6.4,3010,87,13.9,9
2019,11,18,22:00,UTC,8,1021.8,98,0.3,0,6.8,6.5,3260,98,11.1,6
2019,11,18,23:00,UTC,8,1021.5,97,0,0,6.6,6.2,7020,115,9.1,6.5
2019,11,19,00:00,UTC,8,1021.1,93,0,0,6.7,5.7,17150,96,8.5,5.6
2019,11,19,01:00,UTC,8,1020.6,96,0,0,6.6,6.1,8720,91,12.4,7.3
2019,11,19,02:00,UTC,7,1020.8,97,0,0,6.8,6.3,6960,108,10.8,6.2
2019,11,19,03:00,UTC,7,1020.3,96,0,0,6.8,6.2,12010,107,7.9,5.6
2019,11,19,04:00,UTC,7,1020.4,94,0,0,6.9,6,14710,111,9.1,6
2019,11,19,05:00,UTC,8,1020.4,92,0,0,7,5.7,14920,120,9,6.6
2019,11,19,06:00,UTC,8,1020.8,87,0,0,7,5,17990,117,9.7,6.8
2019,11,19,07:00,UTC,8,1021,87,0,0,6.9,4.8,17260,127,9.7,6.2
2019,11,19,08:00,UTC,8,1021.4,86,0,0,7,4.8,14340,123,8.9,6.3
2019,11,19,09:00,UTC,7,1021.7,86,0,0,7,4.8,14090,135,9,5.8
2019,11,19,10:00,UTC,8,1021.9,85,0,0,7,4.5,14430,142,8,4.3
2019,11,19,11:00,UTC,8,1022.2,86,0,0,6.8,4.6,13860,141,8,4.8
2019,11,19,12:00,UTC,7,1022.5,88,0,0,6.5,4.7,13770,132,8.4,5
2019,11,19,13:00,UTC,8,1022.9,87,0,0,6.6,4.6,17400,142,8.1,5.5
2019,11,19,14:00,UTC,8,1023,88,0,0,6.6,4.8,9720,134,7.2,4.2
2019,11,19,15:00,UTC,8,1023.3,89,0,0,6.5,4.8,12320,124,7.6,4.8
2019,11,19,16:00,UTC,8,1023.7,89,0,0,6.4,4.7,11030,122,7.9,4.9
2019,11,19,17:00,UTC,8,1024,89,0,0,6.4,4.7,10100,128,7.6,5.3
2019,11,19,18:00,UTC,8,1024.1,90,0,0,6.3,4.8,10060,134,7.6,4.8
2019,11,19,19:00,UTC,7,1024.5,90,0,0,6.2,4.6,9420,132,9.3,5.8
2019,11,19,20:00,UTC,7,1024.8,91,0,0,6.1,4.7,8510,137,8.3,5.8
2019,11,19,21:00,UTC,8,1025.2,91,0,0,6.1,4.7,8670,140,6.9,5
2019,11,19,22:00,UTC,8,1025.8,93,0,0,5.8,4.7,9500,156,8,4.3
2019,11,19,23:00,UTC,8,1026,90,0,0,5.6,4.1,8760,150,6.6,4.1
2019,11,20,00:00,UTC,8,1025.9,92,0,0,5.6,4.3,7700,129,5.2,3.4
2019,11,20,01:00,UTC,8,1026.3,96,0,0,5.2,4.6,5230,127,6.7,4.4
2019,11,20,02:00,UTC,8,1026.7,94,0,0,5.6,4.6,9950,130,7.2,4.6
2019,11,20,03:00,UTC,8,1027,94,0,0,5.6,4.8,9880,138,8.7,5.3
2019,11,20,04:00,UTC,8,1027.3,93,0,0,5.8,4.7,12930,140,8.6,5.5
2019,11,20,05:00,UTC,7,1027.6,93,0,0,5.8,4.9,13950,140,9.4,6.1
2019,11,20,06:00,UTC,8,1028.1,94,0,0,5.9,5,13920,147,8.4,5
2019,11,20,07:00,UTC,8,1028.7,93,0,0,6,4.9,15550,147,10.4,6
2019,11,20,08:00,UTC,7,1029.4,93,0,0,6.2,5.1,17150,144,8.5,5.4
2019,11,20,09:00,UTC,7,1029.8,92,0,0,6.3,5.1,16800,155,7.8,5.2
2019,11,20,10:00,UTC,7,1030.4,91,0,0,6.4,5.1,16210,161,7.3,4.2
2019,11,20,11:00,UTC,7,1030.6,92,0,0,6.5,5.2,14540,147,4.5,3.3
2019,11,20,12:00,UTC,7,1031.2,90,0,0,6.7,5.2,14600,168,6.2,4.1
2019,11,20,13:00,UTC,7,1031.7,91,0,0,6.3,4.9,16360,164,5.3,3.1
2019,11,20,14:00,UTC,8,1032.1,92,0,0,6.1,4.9,14940,142,5,3.4
2019,11,20,15:00,UTC,8,1032.4,92,0,0,5.9,4.7,15760,152,4.6,2.9
2019,11,20,16:00,UTC,7,1032.8,90,0,0,5.8,4.3,18700,134,5.4,2.9
2019,11,20,17:00,UTC,8,1033.3,90,0,0,5.6,4.1,22280,115,5.2,3.7
2019,11,20,18:00,UTC,8,1033.3,90,0,0,5.4,3.8,26950,110,4.7,3.2
2019,11,20,19:00,UTC,7,1033.6,89,0,0,5.4,3.7,29800,102,4.4,2.7
2019,11,20,20:00,UTC,8,1033.6,87,0,0,5.3,3.3,37220,88,6.2,4.1
2019,11,20,21:00,UTC,8,1033.8,88,0,0,5,3.2,43970,94,6,4.1
2019,11,20,22:00,UTC,8,1033.9,88,0,0,5.1,3.3,33080,100,5,3.3
2019,11,20,23:00,UTC,8,1034,87,0,0,5.2,3.2,41550,113,5.7,3
2019,11,21,00:00,UTC,8,1033.9,87,0,0,5,3.1,46160,115,6.9,4.8
2019,11,21,01:00,UTC,8,1034,90,0,0,4.9,3.4,26560,111,7.1,4.3
2019,11,21,02:00,UTC,8,1033.9,89,0,0,5.3,3.6,26390,133,5.4,3.3
2019,11,21,03:00,UTC,8,1033.8,85,0,0,5.5,3.2,36960,128,7.1,4.6
2019,11,21,04:00,UTC,8,1033.6,86,0,0,5.4,3.3,35580,116,7.1,5.3
2019,11,21,05:00,UTC,8,1033.6,88,0,0,4.8,3,50000,95,9.5,6.2
2019,11,21,06:00,UTC,8,1033.8,88,0,0,4.2,2.4,50000,94,7.9,5.2
2019,11,21,07:00,UTC,8,1033.8,86,0,0,4.2,2.1,50000,104,7.6,5
2019,11,21,08:00,UTC,8,1034.1,89,0,0,3.8,2.2,32960,116,7.4,5.2
2019,11,21,09:00,UTC,8,1034.2,80,0,0,3.2,0.1,42700,128,8.4,5.6
2019,11,21,10:00,UTC,8,1034.1,77,0,0,3.7,0.1,42520,128,8.6,5.7
2019,11,21,11:00,UTC,8,1033.7,76,0,0,4.1,0.3,36390,128,9.4,6.2
2019,11,21,12:00,UTC,8,1033.3,77,0,0,4.3,0.6,40720,124,7.1,4.5
2019,11,21,13:00,UTC,8,1033.2,74,0,0,4.4,0.1,47190,130,10.7,6.5
2019,11,21,14:00,UTC,8,1033,72,0,0,4.4,-0.3,,144,9.1,5
2019,11,21,15:00,UTC,8,1033,72,0,0,4.8,0.2,,140,8.8,5.7
2019,11,21,16:00,UTC,8,1032.8,72,0,0,5.2,0.5,,135,8.7,5.7
2019,11,21,17:00,UTC,7,1032.5,70,0,0,5.4,0.3,,154,10.1,6
2019,11,21,18:00,UTC,7,1032.2,75,0,0,5.2,1.1,,136,9.4,6
2019,11,21,19:00,UTC,7,1031.9,84,0,0,4.5,2,,151,8,4.7
2019,11,21,20:00,UTC,7,1031.7,83,0,0,4.7,2,,130,9.4,5.8
2019,11,21,21:00,UTC,7,1031.6,84,0,0,4.7,2.2,,128,10,5.5
2019,11,21,22:00,UTC,7,1031.4,83,0,0,4.5,1.8,,135,10,6
2019,11,21,23:00,UTC,7,1031.2,82,0,0,4.4,1.6,,135,9.7,6.5
2019,11,22,00:00,UTC,7,1031.2,83,0,0,3.9,1.3,,140,10.9,6.5
2019,11,22,01:00,UTC,7,1031,80,0,0,3.9,0.8,,138,9.1,5.8
2019,11,22,02:00,UTC,7,1030.9,77,0,0,3.9,0.2,,139,10.2,6.1
2019,11,22,03:00,UTC,7,1030.8,76,0,0,3.7,-0.3,,134,9,5.3
2019,11,22,04:00,UTC,7,1030.8,73,0,0,3.3,-1.1,,131,9,5.8
2019,11,22,05:00,UTC,7,1030.7,73,0,0,3,-1.3,,124,8.8,6.1
2019,11,22,06:00,UTC,7,1031,72,0,0,2.5,-2,50000,130,9.9,6.1
2019,11,22,07:00,UTC,7,1031,74,0,0,2.3,-2,31750,118,8.6,5.3
2019,11,22,08:00,UTC,7,1031.2,74,0,0,1.8,-2.3,37560,137,8.4,5.5
2019,11,22,09:00,UTC,7,1031.2,75,0,0,1.6,-2.3,30760,119,7,5.3
2019,11,22,10:00,UTC,7,1030.9,77,0,0,1.4,-2.3,34520,113,7.8,5.3
2019,11,22,11:00,UTC,7,1030.6,78,0,0,1.3,-2.1,29280,114,6.6,4.7
2019,11,22,12:00,UTC,7,1030.2,78,0,0,1.1,-2.3,31080,111,7.6,5.6
2019,11,22,13:00,UTC,7,1030,78,0,0,0.8,-2.6,39220,104,8.4,4.8
2019,11,22,14:00,UTC,7,1030.1,80,0,0,0.5,-2.6,,108,7.3,5.1
2019,11,22,15:00,UTC,7,1030.2,80,0,0,0.3,-2.7,,112,8.7,5.6
2019,11,22,16:00,UTC,7,1030.1,80,0,0,0.1,-3,,116,8.5,5.7
2019,11,22,17:00,UTC,7,1030.1,81,0,0,0,-2.9,,115,7.6,5.7
2019,11,22,18:00,UTC,7,1030.2,80,0,0,-0.2,-3.2,,110,7.5,4.9
2019,11,22,19:00,UTC,7,1030.1,78,0,0,-0.2,-3.6,,115,7.4,5.8
2019,11,22,20:00,UTC,7,1030,78,0,0,-0.1,-3.4,,106,7,4.9
2019,11,22,21:00,UTC,7,1030,77,0,0,0.2,-3.3,,114,6.4,4.5
2019,11,22,22:00,UTC,8,1029.8,79,0,0,0.4,-2.9,,118,6.2,4.3
2019,11,22,23:00,UTC,8,1029.8,77,0,0,0.6,-3,,121,7.2,4.7
2019,11,23,00:00,UTC,7,1029.6,73,0,0,0.8,-3.6,,128,7.5,4.7
2019,11,23,01:00,UTC,7,1029.3,70,0,0,0.7,-4.1,,151,6.7,3.6
2019,11,23,02:00,UTC,7,1029,69,0,0,0.7,-4.4,,131,5,3.5
2019,11,23,03:00,UTC,7,1029,67,0,0,0.9,-4.6,,128,6.3,3.9
2019,11,23,04:00,UTC,7,1029.2,65,0,0,0.8,-5,,127,7.1,4.7
2019,11,23,05:00,UTC,7,1028.9,64,0,0,0.8,-5.3,,124,6.5,4.3
2019,11,23,06:00,UTC,7,1028.9,63,0,0,0.8,-5.4,,120,6,4.2
2019,11,23,07:00,UTC,7,1029.1,64,0,0,0.8,-5.3,50000,132,6.5,4.4
2019,11,23,08:00,UTC,7,1029.2,64,0,0,0.8,-5.2,49760,127,6.3,3.9
2019,11,23,09:00,UTC,7,1029.1,63,0,0,0.8,-5.3,48560,130,4.3,2.7
2019,11,23,10:00,UTC,7,1028.8,64,0,0,1,-5.1,50000,115,5.2,3.7
2019,11,23,11:00,UTC,7,1028.6,62,0,0,1.1,-5.3,49130,117,4.4,3
2019,11,23,12:00,UTC,7,1028.4,64,0,0,1,-5.1,50000,109,5.3,3.9
2019,11,23,13:00,UTC,7,1028.3,65,0,0,0.6,-5.2,50000,109,5.6,4
2019,11,23,14:00,UTC,3,1028.1,69,0,0,0.2,-4.8,,113,5.4,3.6
2019,11,23,15:00,UTC,7,1027.9,69,0,0,0.4,-4.5,,96,6,3.7
2019,11,23,16:00,UTC,7,1027.7,69,0,0,0.7,-4.3,,98,6,3.7
2019,11,23,17:00,UTC,7,1027.7,71,0,0,0.9,-3.8,,99,5.2,3.1
2019,11,23,18:00,UTC,7,1027.8,75,0,0,0.8,-3.1,,108,4.8,3.3
2019,11,23,19:00,UTC,3,1027.9,76,0,0,0.4,-3.3,,115,5.4,3.8
2019,11,23,20:00,UTC,0,1027.9,78,0,0,-0.2,-3.5,,130,6.2,3.8
2019,11,23,21:00,UTC,7,1028.2,76,0,0,-0.2,-3.9,,124,4.5,3.4
2019,11,23,22:00,UTC,7,1028.1,75,0,0,-0.4,-4.2,,134,5.8,3.7
2019,11,23,23:00,UTC,7,1028.3,75,0,0,-0.4,-4.3,,121,3.9,2.7
2019,11,24,00:00,UTC,8,1027.8,76,0,0,-0.5,-4.2,,101,4.7,2.9
2019,11,24,01:00,UTC,8,1027.5,77,0,0,-0.4,-4,,90,4.9,2.8
2019,11,24,02:00,UTC,8,1027.2,77,0,0,-0.4,-3.9,,104,5.4,2.9
2019,11,24,03:00,UTC,1,1027,78,0,0,-0.8,-4.1,,106,5.1,3.4
2019,11,24,04:00,UTC,7,1026.9,79,0,0,-0.8,-3.9,,106,6,3.6
2019,11,24,05:00,UTC,7,1026.8,80,0,0,-0.9,-3.9,,109,5.9,3.7
2019,11,24,06:00,UTC,5,1026.7,80,0,0,-0.9,-3.9,,109,5.1,3.8
2019,11,24,07:00,UTC,7,1026.9,80,0,0,-0.8,-3.8,40880,112,4.8,3.2
2019,11,24,08:00,UTC,7,1026.7,77,0,0,-0.5,-3.9,38250,102,6.2,3.2
2019,11,24,09:00,UTC,7,1026.7,76,0,0,-0.3,-4,43710,105,5.7,3.6
2019,11,24,10:00,UTC,7,1026.6,77,0,0,-0.2,-3.8,39920,112,5,3.5
2019,11,24,11:00,UTC,7,1026.2,75,0,0,-0.1,-4.1,44690,105,5.9,3.7
2019,11,24,12:00,UTC,7,1026.1,76,0,0,-0.1,-3.8,46380,95,5.5,3.4
2019,11,24,13:00,UTC,7,1025.9,76,0,0,-0.2,-3.8,40840,109,4.5,2.5
2019,11,24,14:00,UTC,7,1025.6,76,0,0,-0.2,-3.9,42990,,,
2019,11,24,15:00,UTC,7,1025.7,75,0,0,-0.2,-4.1,,108,5.7,3.7
2019,11,24,16:00,UTC,7,1025.4,75,0,0,-0.1,-4,,102,5.3,3.5
2019,11,24,17:00,UTC,5,1025.4,77,0,0,-0.4,-4,,113,5.4,3.9
2019,11,24,18:00,UTC,7,1025.2,77,0,0,-0.5,-4.1,,125,4.8,3.3
2019,11,24,19:00,UTC,7,1024.5,75,0,0,-0.4,-4.3,,115,5.4,4
2019,11,24,20:00,UTC,1,1024.3,72,0,0,-0.7,-5.2,,132,5.2,3.8
2019,11,24,21:00,UTC,0,1024.4,78,0,0,-1,-4.3,,138,4.2,2.6
2019,11,24,22:00,UTC,0,1024.3,79,0,0,-1.1,-4.3,,136,3,1.8
2019,11,24,23:00,UTC,1,1024.2,83,0,0,-1.6,-4,,101,2.5,1.8
2019,11,25,00:00,UTC,7,1023.9,84,0,0,-1.6,-4,,116,2.2,1.9
2019,11,25,01:00,UTC,1,1023.5,87,0,0,-1.4,-3.2,,100,3,2.3
2019,11,25,02:00,UTC,3,1023.1,89,0,0,-1.5,-3.1,,122,2.7,2.1
2019,11,25,03:00,UTC,0,1022.9,90,0,0,-1.9,-3.3,,131,2.2,1.4
2019,11,25,04:00,UTC,0,1022.7,91,0,0,-2.3,-3.6,,114,2.2,1.9
2019,11,25,05:00,UTC,0,1022.4,92,0,0,-2.7,-3.7,,116,2.3,2
2019,11,25,06:00,UTC,7,1022.3,88,0,0,-1.6,-3.4,16490,132,4.5,2.8
2019,11,25,07:00,UTC,8,1022.3,84,0,0,0.1,-2.3,26120,165,6,3.7
2019,11,25,08:00,UTC,7,1022.2,84,0,0,0.4,-2,19800,142,5,3
2019,11,25,09:00,UTC,7,1021.9,82,0,0,0.8,-1.9,26840,194,5.3,3.5
2019,11,25,10:00,UTC,7,1021.6,82,0,0,0.8,-1.9,23610,269,2.5,1.2
2019,11,25,11:00,UTC,7,1021.3,82,0,0,0.7,-1.9,14070,3,2.6,1.4
2019,11,25,12:00,UTC,8,1020.8,80,0,0,0.7,-2.3,15850,12,2.4,1.5
2019,11,25,13:00,UTC,8,1020.7,83,0,0,0.7,-1.9,16190,354,3,1.7
2019,11,25,14:00,UTC,8,1020.5,85,0,0,0.6,-1.6,,17,2.5,1.8
2019,11,25,15:00,UTC,8,1020.3,86,0,0,0.5,-1.5,,41,1.7,1.4
2019,11,25,16:00,UTC,8,1020,88,0,0,0.6,-1.2,,35,1.4,0.8
2019,11,25,17:00,UTC,7,1019.7,89,0,0,0.8,-0.8,,55,1.9,1.4
2019,11,25,18:00,UTC,8,1019.5,89,0,0,0.9,-0.7,,54,2,0.9
2019,11,25,19:00,UTC,7,1019.1,88,0,0,1.2,-0.6,,151,3.6,2.2
2019,11,25,20:00,UTC,7,1018.7,88,0,0,1.2,-0.6,,129,3.5,2.3
2019,11,25,21:00,UTC,7,1018.3,85,0,0,1.3,-0.9,,123,2.5,1.7
2019,11,25,22:00,UTC,7,1018,83,0,0,1.6,-0.9,,193,4.2,2.5
2019,11,25,23:00,UTC,8,1017.9,83,0,0,1.3,-1.3,,239,4.8,3.3
2019,11,26,00:00,UTC,8,1017.5,83,0,0,1.1,-1.5,,253,3.3,2.1
2019,11,26,01:00,UTC,8,1017.2,82,0,0,1.1,-1.6,,223,2.8,1.6
2019,11,26,02:00,UTC,8,1016.5,83,0,0,1.1,-1.5,,239,2.7,1.6
2019,11,26,03:00,UTC,8,1016,82,0,0,1,-1.7,,275,2.2,1.4
2019,11,26,04:00,UTC,8,1015.6,83,0,0,1.1,-1.4,,206,2.4,1.6
2019,11,26,05:00,UTC,8,1015.3,84,0,0,1.1,-1.2,25310,232,3.8,2.3
2019,11,26,06:00,UTC,8,1015.1,84,0,0,1.3,-1,25600,216,6,3.3
2019,11,26,07:00,UTC,7,1014.7,87,0,0,0.9,-1.1,23660,174,6.3,4.3
2019,11,26,08:00,UTC,8,1014.4,86,0,0,0.9,-1.1,18180,171,7.3,4.5
2019,11,26,09:00,UTC,7,1014,86,0,0,1.1,-0.9,14990,212,4.4,2.7
2019,11,26,10:00,UTC,7,1013.4,86,0,0,1.3,-0.9,14390,205,5.5,3.5
2019,11,26,11:00,UTC,8,1012.9,84,0,0,1.3,-1.1,15410,198,6,4.1
2019,11,26,12:00,UTC,8,1012.4,85,0,0,1.3,-1,16290,197,6.8,3.7
2019,11,26,13:00,UTC,8,1012,88,0,0,1.2,-0.7,11080,207,6.1,3.9
2019,11,26,14:00,UTC,8,1011.5,86,0,0,1.4,-0.7,,204,5.7,4
2019,11,26,15:00,UTC,8,1011.2,93,0,0,1.6,0.5,,200,6.1,3.7
2019,11,26,16:00,UTC,8,1010.9,97,0,0,1.3,0.8,2720,179,8.8,4.3
2019,11,26,17:00,UTC,8,1010.5,97,0.1,0,1.2,0.8,2180,192,8.2,5.1
2019,11,26,18:00,UTC,7,1010.2,97,0.3,0,1.4,0.9,2110,196,8.9,5.1
2019,11,26,19:00,UTC,7,1009.7,97,0.3,0,1.4,1,3310,194,9.2,5.8
2019,11,26,20:00,UTC,7,1009.4,97,0,0,1.7,1.3,3900,194,9,5.2
2019,11,26,21:00,UTC,7,1008.9,97,0,0,1.8,1.4,3970,207,8.9,5.2
2019,11,26,22:00,UTC,7,1008.6,97,0,0,2,1.6,4790,198,9.3,6
2019,11,26,23:00,UTC,7,1008.4,97,0.5,0,2,1.6,5160,204,8.8,6
2019,11,27,00:00,UTC,7,1008,96,0.3,0,2,1.5,6810,203,7,4.8
2019,11,27,01:00,UTC,7,1007.6,96,0.1,0,1.9,1.4,7420,205,8.3,5.5
2019,11,27,02:00,UTC,7,1007.3,96,0,0,2,1.4,9820,213,5.2,3.5
2019,11,27,03:00,UTC,7,1006.8,94,0,0,2.1,1.2,19150,204,5.9,3.9
2019,11,27,04:00,UTC,7,1006.9,92,0,0,2,0.8,34870,186,5.6,3.2
2019,11,27,05:00,UTC,7,1006.8,96,0,0,1.7,1,13260,192,5.1,3.3
2019,11,27,06:00,UTC,7,1006.4,95,0,0,1.5,0.8,16920,179,6.7,3.5
2019,11,27,07:00,UTC,7,1006.3,94,0,0,1.5,0.7,21590,149,5.4,3.9
2019,11,27,08:00,UTC,7,1006.3,94,0,0,1.5,0.7,32480,149,5.7,3.7
2019,11,27,09:00,UTC,7,1006.2,93,0,0,1.6,0.7,25970,178,7.1,4.3
2019,11,27,10:00,UTC,7,1005.7,91,0,0,2,0.6,38870,149,4.1,2.5
2019,11,27,11:00,UTC,7,1005.4,92,0,0,2.2,1,11170,140,4,2.8
2019,11,27,12:00,UTC,7,1005.1,97,0.7,0,2,1.5,6030,131,3.3,2.2
2019,11,27,13:00,UTC,7,1004.7,97,0.5,0,2.1,1.6,6390,137,4.4,2.8
2019,11,27,14:00,UTC,7,1004.3,96,0.3,0,2.2,1.6,11230,147,5.8,2.7
2019,11,27,15:00,UTC,7,1003.9,96,0.5,0,2,1.4,20160,143,6.9,5.1
2019,11,27,16:00,UTC,7,1003.6,96,0.5,0,2.2,1.6,6160,148,6,3.5
2019,11,27,17:00,UTC,7,1003.1,96,0.7,0,2.3,1.8,7130,155,6.5,4.4
2019,11,27,18:00,UTC,7,1002.6,97,0.4,0,2.4,2,7840,159,6.1,3.7
2019,11,27,19:00,UTC,7,1002.2,97,0.7,0,3.1,2.7,4980,164,6,3.4
2019,11,27,20:00,UTC,7,1001.9,98,2,0,3.7,3.3,3830,183,8.3,4
2019,11,27,21:00,UTC,7,1001.4,97,0.4,0,3.6,3.2,4580,179,8.6,4.9
2019,11,27,22:00,UTC,7,1001.3,97,0.3,0,3.6,3.2,5480,174,8.4,4.9
2019,11,27,23:00,UTC,8,1000.8,97,0,0,3.4,3,4940,170,9.1,6.1
2019,11,28,00:00,UTC,8,1000.5,97,0,0,3.4,3,6110,178,9.4,5.7
2019,11,28,01:00,UTC,8,1000,96,0,0,3.2,2.7,6100,169,7.3,4.6
2019,11,28,02:00,UTC,8,999.7,96,0,0,3.1,2.5,5760,176,7.9,5.1
2019,11,28,03:00,UTC,8,999.1,97,0,0,2.9,2.5,4040,163,7.9,4.4
2019,11,28,04:00,UTC,8,998.5,98,0,0,2.7,2.4,4400,166,7.2,3.7
2019,11,28,05:00,UTC,8,997.9,95,0,0,2.7,2,7530,152,6.6,4
2019,11,28,06:00,UTC,8,997.4,95,0,0,2.7,2,2820,146,8.3,5.1
2019,11,28,07:00,UTC,8,996.9,98,0.2,0,2.8,2.5,2660,148,7.9,4.9
2019,11,28,08:00,UTC,8,996.4,97,1,0,3.1,2.7,3750,142,6.6,3.9
2019,11,28,09:00,UTC,8,995.8,97,1.8,0,3.4,3,4250,143,7.8,4.5
2019,11,28,10:00,UTC,7,995,96,2,0,3.4,2.9,4330,158,9,5.2
2019,11,28,11:00,UTC,7,994.3,96,1.6,0,3,2.3,5360,157,7.5,4.4
2019,11,28,12:00,UTC,7,994,95,1.3,0,2.8,2.1,5780,169,9.1,5.7
2019,11,28,13:00,UTC,8,993.5,96,1.1,0,2.9,2.4,4940,162,7.4,4.7
2019,11,28,14:00,UTC,7,993.1,95,1.1,0,2.9,2.2,6630,160,10.8,5.8
2019,11,28,15:00,UTC,8,992.5,96,0.3,0,3.2,2.5,4230,173,10.5,6.6
2019,11,28,16:00,UTC,8,992.2,95,0,0,3.6,2.8,12160,174,11.9,7.5
2019,11,28,17:00,UTC,8,991.8,97,0.8,0,3.6,3.2,2410,167,10,7.1
2019,11,28,18:00,UTC,8,991.5,96,0,0,4,3.4,10720,170,10,5.5
2019,11,28,19:00,UTC,8,991.2,97,0,0,4.1,3.7,5040,172,12,6.7
2019,11,28,20:00,UTC,8,990.8,98,2.2,0,4,3.6,4940,168,10.7,6.3
2019,11,28,21:00,UTC,8,990.6,97,0.3,0,4,3.6,2950,170,11.8,7.7
2019,11,28,22:00,UTC,7,990.4,97,2.5,0,4.3,3.9,2970,169,9.5,6
2019,11,28,23:00,UTC,8,989.9,95,0,0,4.7,4,11570,172,11.4,6.3
2019,11,29,00:00,UTC,8,989.5,95,0,0,4.7,4,11170,174,14.4,7.3
2019,11,29,01:00,UTC,8,989.2,95,0,0,4.8,4,9750,167,14.3,8.6
2019,11,29,02:00,UTC,8,988.9,97,1.1,0,4.6,4.1,3910,172,13.6,7.2
2019,11,29,03:00,UTC,8,988.7,97,0,0,4.6,4.2,4320,169,14,7.5
2019,11,29,04:00,UTC,8,988.4,97,0,0,4.5,4.1,4400,172,13.6,9.3
2019,11,29,05:00,UTC,8,988,96,0,0,4.6,4,5890,169,13.5,7
2019,11,29,06:00,UTC,8,987.9,96,0,0,4.6,4,5460,170,14.5,7.8
2019,11,29,07:00,UTC,8,987.7,96,0,0,4.6,4.1,5170,170,13.8,8.3
2019,11,29,08:00,UTC,8,987.3,95,0,0,4.8,4.1,6440,169,13.7,8.2
2019,11,29,09:00,UTC,8,987,96,0.8,0,5,4.4,4440,177,13.8,7.2
2019,11,29,10:00,UTC,8,986.6,97,2.2,0,4.8,4.4,3370,170,12.5,7
2019,11,29,11:00,UTC,8,986.2,98,0,0,4.7,4.3,3560,172,11,6.8
2019,11,29,12:00,UTC,8,985.7,98,0,0,4.8,4.4,3900,167,12.4,7.5
2019,11,29,13:00,UTC,8,985.2,97,0,0,4.9,4.4,5500,174,11.2,6.8
2019,11,29,14:00,UTC,8,984.8,97,0,0,4.8,4.3,,174,10.8,6.6
2019,11,29,15:00,UTC,8,984.6,96,0.5,0,4.7,4.1,,183,11.9,5.8
2019,11,29,16:00,UTC,7,985.1,95,1.9,0,3.2,2.4,4830,258,10.2,5.3
2019,11,29,17:00,UTC,8,986,96,1.5,0,0.1,-0.5,1410,325,13.6,6.8
2019,11,29,18:00,UTC,9,987.1,95,0.4,0,-0.5,-1.2,1340,320,13.4,7.6
2019,11,29,19:00,UTC,8,987.9,93,0,2,-0.7,-1.6,5000,326,10.8,7.2
2019,11,29,20:00,UTC,7,989.1,92,0,2,-0.9,-2.1,29150,309,9.2,6
2019,11,29,21:00,UTC,7,990.5,89,0,2,-1.5,-3,50000,300,10.1,5.9
2019,11,29,22:00,UTC,8,991.9,88,0,2,-2.2,-3.9,50000,297,8.7,5
2019,11,29,23:00,UTC,1,992.7,89,0,2,-3.2,-4.7,50000,297,8.5,5.1
2019,11,30,00:00,UTC,0,993.8,88,0,2,-4.2,-5.9,50000,298,8.5,4.7
2019,11,30,01:00,UTC,0,994.9,86,0,0,-4.8,-6.7,50000,298,8.8,5.6
2019,11,30,02:00,UTC,0,995.6,89,0,0,-5.2,-6.8,50000,295,7,3.9
2019,11,30,03:00,UTC,0,996.7,90,0,0,-5,-6.5,50000,294,8.9,5.1
2019,11,30,04:00,UTC,0,997.7,85,0,0,-5.2,-7.3,50000,298,7.2,4.1
2019,11,30,05:00,UTC,0,998.3,86,0,0,-5.6,-7.6,50000,296,7.2,4
2019,11,30,06:00,UTC,0,999.2,90,0,0,-5.5,-6.9,50000,274,7.9,4.8
2019,11,30,07:00,UTC,0,999.8,91,0,0,-5.3,-6.6,50000,277,8.9,5.5
2019,11,30,08:00,UTC,0,1000.5,88,0,0,-4.5,-6.2,50000,277,8.6,5.1
2019,11,30,09:00,UTC,0,1001.1,86,0,0,-3.2,-5.1,50000,279,8.5,4.9
2019,11,30,10:00,UTC,0,1001.7,85,0,0,-2.6,-4.7,50000,266,8.5,4.6
2019,11,30,11:00,UTC,5,1002.3,82,0,0,-2.1,-4.8,50000,281,8.3,5.2
2019,11,30,12:00,UTC,5,1003.1,83,0,0,-2.3,-4.8,50000,284,8.2,4.2
2019,11,30,13:00,UTC,1,1003.8,87,0,0,-3.5,-5.4,50000,271,6.3,3.8
2019,11,30,14:00,UTC,0,1004.4,87,0,0,-3.7,-5.6,50000,266,7.8,4.9
2019,11,30,15:00,UTC,0,1004.9,90,0,0,-4.3,-5.7,50000,264,7,4.2
2019,11,30,16:00,UTC,0,1005.4,92,0,0,-4.5,-5.5,50000,266,4.7,3.2
2019,11,30,17:00,UTC,7,1005.5,91,0,0,-3.3,-4.5,50000,261,7,4.4
2019,11,30,18:00,UTC,3,1005.9,92,0,0,-3.7,-4.8,50000,263,6.6,4.4
2019,11,30,19:00,UTC,1,1006.6,93,0,0,-4,-4.9,50000,284,6.5,4.4
2019,11,30,20:00,UTC,3,1007.2,95,0,0,-3.9,-4.6,50000,278,7.8,5
2019,11,30,21:00,UTC,0,1007.6,94,0,0,-4.2,-5,50000,267,5.8,3.8
2019,11,30,22:00,UTC,0,1007.8,94,0,0,-4.6,-5.5,50000,260,5.9,4
2019,11,30,23:00,UTC,0,1008,91,0,2,-4.5,-5.8,50000,255,6.1,4.3
2019,12,1,00:00,UTC,0,1008.2,91,0,2,-4.5,-5.8,50000,255,7.5,4.6
2019,12,1,01:00,UTC,0,1008.4,91,0,2,-4.7,-5.9,50000,258,6.5,4.4
2019,12,1,02:00,UTC,0,1008.2,90,0,2,-4.4,-5.8,49350,256,6.5,4.3
2019,12,1,03:00,UTC,3,1008.1,92,0,2,-3.9,-5,50000,248,7.5,5.3
2019,12,1,04:00,UTC,0,1007.7,89,0,2,-3.5,-5,50000,233,7.8,5.1
2019,12,1,05:00,UTC,0,1007.6,89,0,2,-3.8,-5.4,50000,250,7.9,5.5
2019,12,1,06:00,UTC,1,1007.2,85,0,2,-2.8,-5,50000,243,9.1,6.3
2019,12,1,07:00,UTC,0,1006.8,87,0,2,-2.9,-4.7,50000,233,8.6,5.7
2019,12,1,08:00,UTC,0,1006.7,87,0,2,-1.9,-3.8,50000,237,8.1,5.3
2019,12,1,09:00,UTC,3,1006.5,88,0,2,-1.1,-2.9,50000,240,9.3,6.7
2019,12,1,10:00,UTC,0,1006.3,88,0,2,-0.9,-2.6,50000,234,7.8,4.7
2019,12,1,11:00,UTC,0,1005.9,87,0,2,-0.6,-2.5,50000,233,9.4,6
2019,12,1,12:00,UTC,7,1005.8,86,0,2,-0.3,-2.4,50000,230,10,6.3
2019,12,1,13:00,UTC,1,1005.2,87,0,2,-0.6,-2.5,50000,229,9.2,6.6
2019,12,1,14:00,UTC,1,1004.9,86,0,2,-0.6,-2.7,50000,234,9.9,5.8
2019,12,1,15:00,UTC,5,1004.7,81,0,2,-0.6,-3.6,50000,237,9.8,5.9
2019,12,1,16:00,UTC,3,1004.5,82,0,2,-0.3,-3,50000,240,8.2,5.3
2019,12,1,17:00,UTC,7,1004.4,83,0,3,-0.3,-2.8,50000,243,7.8,6.1
2019,12,1,18:00,UTC,7,1004.1,84,0,3,-0.4,-2.8,50000,244,8.1,5.8
2019,12,1,19:00,UTC,7,1003.8,85,0,3,-0.2,-2.5,10940,244,8.1,5.6
2019,12,1,20:00,UTC,7,1003.8,86,0,3,-0.2,-2.3,50000,248,8.3,5.8
2019,12,1,21:00,UTC,7,1003.5,87,0,3,-0.4,-2.2,50000,242,8.2,5.5
2019,12,1,22:00,UTC,1,1003.5,89,0,3,-1,-2.5,50000,252,7.7,5.3
2019,12,1,23:00,UTC,3,1003.6,90,0,2,-1.2,-2.6,50000,256,7,4.6
2019,12,2,00:00,UTC,1,1003.5,92,0,2,-1.5,-2.6,50000,256,7.4,5
2019,12,2,01:00,UTC,0,1003.2,92,0,2,-2.1,-3.2,50000,257,6.3,4.6
2019,12,2,02:00,UTC,0,1003,90,0,2,-2.1,-3.5,50000,255,7,4.9
2019,12,2,03:00,UTC,7,1003.1,88,0,3,-1.5,-3.2,50000,252,6.1,4.7
2019,12,2,04:00,UTC,7,1003,91,0,3,-2.1,-3.4,50000,247,5,3.5
2019,12,2,05:00,UTC,0,1002.8,90,0,2,-2.5,-3.9,50000,242,6.3,4
2019,12,2,06:00,UTC,0,1002.8,88,0,2,-1.9,-3.6,50000,245,6.8,4.8
2019,12,2,07:00,UTC,0,1003,90,0,3,-2.1,-3.6,50000,244,7.7,5.2
2019,12,2,08:00,UTC,0,1003.5,89,0,3,-1.9,-3.4,50000,243,6.6,4.7
2019,12,2,09:00,UTC,0,1003.4,87,0,3,-1.7,-3.5,50000,251,7.2,5.1
2019,12,2,10:00,UTC,0,1003.6,84,0,3,-1.2,-3.5,41680,250,6.7,4.3
2019,12,2,11:00,UTC,0,1003.5,83,0,3,-0.7,-3.3,43420,259,7.5,4.3
2019,12,2,12:00,UTC,0,1003.7,83,0,3,-0.7,-3.3,50000,255,5.7,3.9
2019,12,2,13:00,UTC,0,1003.9,85,0,3,-1.3,-3.5,50000,253,5.8,3.8
2019,12,2,14:00,UTC,1,1004.3,90,0,3,-2.3,-3.7,50000,259,5.7,3.7
2019,12,2,15:00,UTC,0,1004.6,91,0,3,-2.7,-3.9,50000,254,4.9,3.5
2019,12,2,16:00,UTC,0,1005.2,93,0,3,-3.2,-4.1,49400,264,6.9,4.2
2019,12,2,17:00,UTC,0,1005.5,93,0,3,-3.5,-4.4,50000,267,6.2,4
2019,12,2,18:00,UTC,0,1006.2,94,0,3,-3.6,-4.4,49660,271,5.6,3.9
2019,12,2,19:00,UTC,0,1006.6,94,0,3,-3.7,-4.4,50000,274,7.3,4.6
2019,12,2,20:00,UTC,0,1006.8,94,0,3,-3.9,-4.8,50000,272,6.8,4.2
2019,12,2,21:00,UTC,0,1007.3,93,0,3,-4,-4.9,50000,264,7.3,4.3
2019,12,2,22:00,UTC,0,1008,93,0,3,-4.3,-5.3,50000,269,7,4.3
2019,12,2,23:00,UTC,0,1008.2,93,0,3,-4.5,-5.5,50000,276,7.1,4.4
2019,12,3,00:00,UTC,0,1008.3,92,0,3,-4.5,-5.5,50000,272,7.4,4.5
2019,12,3,01:00,UTC,0,1008.7,93,0,3,-4.4,-5.4,50000,268,7.5,4.6
2019,12,3,02:00,UTC,0,1008.8,92,0,3,-3.8,-4.9,50000,267,7.8,4.7
2019,12,3,03:00,UTC,0,1008.9,91,0,3,-3.8,-5,50000,269,7.7,4
2019,12,3,04:00,UTC,1,1009,92,0,3,-3.6,-4.6,50000,266,9.2,5.8
2019,12,3,05:00,UTC,7,1009.2,91,0,2,-3.2,-4.4,50000,257,7.4,4.2
2019,12,3,06:00,UTC,1,1009.3,92,0,2,-3.4,-4.5,50000,266,6.8,4.4
2019,12,3,07:00,UTC,0,1009.5,93,0,3,-3.5,-4.5,49590,265,6.3,3.8
2019,12,3,08:00,UTC,0,1009.7,93,0,3,-3.5,-4.4,48890,255,5.7,3.8
2019,12,3,09:00,UTC,0,1009.7,92,0,3,-2.6,-3.8,41170,255,6.1,4
2019,12,3,10:00,UTC,0,1009.5,89,0,3,-2,-3.6,41780,255,6.7,4.6
2019,12,3,11:00,UTC,0,1009.6,85,0,4,-0.8,-3,50000,263,9.2,5.3
2019,12,3,12:00,UTC,0,1009.5,84,0,4,-0.7,-3.1,43460,258,7.6,4.6
2019,12,3,13:00,UTC,0,1009.3,86,0,4,-0.8,-2.9,45600,253,6.9,4.7
2019,12,3,14:00,UTC,0,1008.9,89,0,4,-1.6,-3.2,50000,234,6.6,4.1
2019,12,3,15:00,UTC,1,1008.5,89,0,4,-1.7,-3.3,50000,229,6.5,4.4
2019,12,3,16:00,UTC,7,1007.9,87,0,4,-0.8,-2.7,50000,229,6.7,4.4
2019,12,3,17:00,UTC,1,1007.4,84,0,4,-0.5,-2.9,50000,224,6.7,4.4
2019,12,3,18:00,UTC,0,1006.8,82,0,4,0,-2.8,50000,219,5.8,3.9
2019,12,3,19:00,UTC,1,1005.7,79,0,4,0.6,-2.7,50000,223,7.3,4.8
2019,12,3,20:00,UTC,7,1005.4,78,0,4,1.7,-1.8,50000,230,9.1,5.2
2019,12,3,21:00,UTC,7,1004,83,0.6,4,1.9,-0.7,50000,221,7.7,5.5
2019,12,3,22:00,UTC,8,1003.7,86,1,4,3,0.9,43810,216,10,6.8
2019,12,3,23:00,UTC,8,1003.1,93,0.3,3,3.2,2.1,22780,219,8.4,5.4
2019,12,4,00:00,UTC,8,1002.6,97,0,3,3.2,2.8,13310,229,7.5,5.3
2019,12,4,01:00,UTC,8,1001.6,94,0,4,3.5,2.6,50000,231,9,5.8
2019,12,4,02:00,UTC,8,1001,95,0,3,3.2,2.5,17100,232,10.7,6.2
2019,12,4,03:00,UTC,8,1000.8,97,0,2,2.9,2.5,16710,246,8.9,5.7
2019,12,4,04:00,UTC,8,1001.1,98,0,2,2.7,2.4,7470,251,8.4,6
2019,12,4,05:00,UTC,8,1001,98,0,2,2.7,2.4,24740,244,9.2,6
2019,12,4,06:00,UTC,8,1000.6,97,0,0,3.1,2.6,26110,242,10,7.1
2019,12,4,07:00,UTC,8,1000.8,95,0,0,3.3,2.6,48910,244,9.1,6.2
2019,12,4,08:00,UTC,7,1001.1,94,0,0,3.8,2.9,49940,250,9.6,6.7
2019,12,4,09:00,UTC,7,1001.7,92,0,0,4.3,3.1,50000,258,10.5,6.7
2019,12,4,10:00,UTC,1,1002.2,88,0,0,5.1,3.2,50000,266,14.5,8.2
2019,12,4,11:00,UTC,0,1002.2,86,0,0,5.5,3.4,50000,271,11,5.8
2019,12,4,12:00,UTC,0,1002.9,85,0,0,5.4,3.2,50000,274,11,5.6
2019,12,4,13:00,UTC,0,1002.9,85,0,0,5,2.7,50000,271,10,5.7
2019,12,4,14:00,UTC,0,1003.7,86,0,0,4.9,2.7,50000,262,8.2,5.6
2019,12,4,15:00,UTC,0,1004.2,89,0,0,3.9,2.3,50000,247,6.8,5
2019,12,4,16:00,UTC,0,1004.8,90,0,0,3.8,2.3,50000,247,7.6,5
2019,12,4,17:00,UTC,0,1004.9,92,0,0,3.5,2.3,50000,238,6.4,4.4
2019,12,4,18:00,UTC,0,1005.2,92,0,0,2.9,1.7,50000,241,6.7,4.5
2019,12,4,19:00,UTC,0,1005.2,91,0,0,3,1.7,50000,238,6.5,4.3
2019,12,4,20:00,UTC,0,1005.5,94,0,0,2.9,2.1,50000,219,7.3,5.6
2019,12,4,21:00,UTC,8,1004.8,97,0,0,4.1,3.6,25870,230,10.2,7.1
2019,12,4,22:00,UTC,8,1004.3,95,0,0,4.5,3.8,49070,224,13,7.7
2019,12,4,23:00,UTC,8,1004.2,95,0,0,4.5,3.8,35360,231,12.2,7.4
2019,12,5,00:00,UTC,8,1003.7,95,0,0,4.9,4.2,22180,224,12.8,7.8
2019,12,5,01:00,UTC,8,1003.1,94,0,0,5.3,4.4,19390,224,13.6,9.4
2019,12,5,02:00,UTC,8,1002.7,92,0,0,5.3,4.2,20670,220,13.1,8.7
2019,12,5,03:00,UTC,8,1002.3,91,0,0,5.6,4.3,23560,219,13.3,9.2
2019,12,5,04:00,UTC,8,1002,90,0,0,6.1,4.5,23590,223,14.8,8.6
2019,12,5,05:00,UTC,8,1001.1,86,0,0,6.2,4.1,29380,220,15,9.3
2019,12,5,06:00,UTC,8,1000.9,82,0,0,6,3.3,33780,231,12.8,8.2
2019,12,5,07:00,UTC,8,1000.9,83,0,0,5.5,2.8,36670,243,11.5,7.9
2019,12,5,08:00,UTC,8,1000.6,82,0,0,5.8,2.9,32140,239,12.3,7.7
2019,12,5,09:00,UTC,8,1000.1,79,0,0,6.3,3,38460,233,12.5,8
2019,12,5,10:00,UTC,8,999.4,81,0,0,6.2,3.3,39980,232,11.1,6.5
2019,12,5,11:00,UTC,8,998.7,83,0,0,6.2,3.5,37730,229,12.7,7.5
2019,12,5,12:00,UTC,8,997.4,84,0,0,6.5,4,38170,216,12.1,7.9
2019,12,5,13:00,UTC,7,996.7,84,0,0,6.6,4.2,37030,223,12.1,7.1
2019,12,5,14:00,UTC,7,996.3,77,0,0,6.6,3,43530,225,12,7.6
2019,12,5,15:00,UTC,8,995.9,74,0,0,6.8,2.5,46180,231,12.4,8.2
2019,12,5,16:00,UTC,8,995.7,73,0,0,6.7,2.2,49580,233,13.8,8.4
2019,12,5,17:00,UTC,8,995.2,74,0,0,6.7,2.4,46930,227,13.2,8.6
2019,12,5,18:00,UTC,8,995,75,0,0,6.8,2.6,50000,229,11.1,6.6
2019,12,5,19:00,UTC,7,994.2,79,0,0,6.7,3.3,38600,225,12.9,7.6
2019,12,5,20:00,UTC,8,993.7,80,0,0,6.7,3.5,33830,222,13.3,8.2
2019,12,5,21:00,UTC,8,993.3,79,0,0,6.7,3.4,41270,226,13.2,7.3
2019,12,5,22:00,UTC,7,993,75,0,0,7,2.8,37690,234,14.7,8.6
2019,12,5,23:00,UTC,8,992.6,78,0,0,6.7,3.1,29160,230,14.5,8.5
2019,12,6,00:00,UTC,8,992.2,83,0,0,6.2,3.6,20840,229,11,6.8
2019,12,6,01:00,UTC,8,991.6,84,0,0,6.2,3.6,22300,228,8,5.3
2019,12,6,02:00,UTC,8,991.2,83,0,0,6.6,4,26090,220,11.6,7.2
2019,12,6,03:00,UTC,8,990.4,83,0,0,6.6,4,29660,223,12,8
2019,12,6,04:00,UTC,7,989.8,90,0,0,5.6,4.1,9620,222,12.2,7.6
2019,12,6,05:00,UTC,8,989,94,0,0,5.4,4.4,9990,220,12.5,8.1
2019,12,6,06:00,UTC,8,988.5,93,0,0,4.8,3.7,14830,222,9.8,6.7
2019,12,6,07:00,UTC,8,987.9,95,0.7,0,4.9,4.1,13100,218,11.5,6.8
2019,12,6,08:00,UTC,8,987.4,95,0.8,0,4.8,4.1,10210,219,9.6,6.6
2019,12,6,09:00,UTC,8,987.2,95,0.4,0,4.6,3.8,13970,222,11.4,7.1
2019,12,6,10:00,UTC,8,986.5,94,0.2,0,4.8,3.9,16330,223,10.4,7.1
2019,12,6,11:00,UTC,8,986.2,96,0.1,0,5,4.3,18170,222,7.6,4.7
2019,12,6,12:00,UTC,8,986,96,0.3,0,5,4.5,9950,221,6.4,3.9
2019,12,6,13:00,UTC,7,985.8,97,0,0,5.1,4.7,33570,219,5.5,3.8
2019,12,6,14:00,UTC,7,986.1,97,0,0,5.4,5,37830,217,6.4,4.3
2019,12,6,15:00,UTC,7,986.4,97,0,0,5.6,5.2,33810,235,5.7,3.5
2019,12,6,16:00,UTC,7,987.1,97,0,0,5.6,5.1,22930,227,4.4,3.2
2019,12,6,17:00,UTC,7,987.8,97,0,0,5.5,5.1,11270,227,6.4,4.5
2019,12,6,18:00,UTC,5,988,95,0,0,5,4.2,50000,222,7.9,4.5
2019,12,6,19:00,UTC,8,988.9,96,0,0,5.3,4.7,7410,223,6.9,4.4
2019,12,6,20:00,UTC,7,988.9,94,0,0,5.4,4.5,50000,220,8.4,5.7
2019,12,6,21:00,UTC,7,989.9,95,0,0,5.2,4.5,27110,240,8.9,6.1
2019,12,6,22:00,UTC,7,990.3,93,0,0,5.2,4.2,50000,232,8.2,5.1
2019,12,6,23:00,UTC,7,991,92,0,0,5.2,4,24660,243,10.3,6.4
2019,12,7,00:00,UTC,7,991.2,90,0,0,4.9,3.5,50000,243,8.1,5.2
2019,12,7,01:00,UTC,7,991.7,93,0,0,4.3,3.3,50000,222,6.3,4.5
2019,12,7,02:00,UTC,7,991.3,93,0,0,4.4,3.3,50000,217,4.6,3
2019,12,7,03:00,UTC,7,990.9,91,0,0,5.1,3.9,50000,195,2.4,1.7
2019,12,7,04:00,UTC,7,990.2,96,1,0,5.2,4.6,2850,189,3.1,2
2019,12,7,05:00,UTC,7,989.4,98,0.7,0,6.5,6.3,2940,191,6.8,4.8
2019,12,7,06:00,UTC,7,988.8,99,2.6,0,6.6,6.4,3140,170,10.9,6
2019,12,7,07:00,UTC,7,988.2,98,2.3,0,6.5,6.1,6880,176,11.6,7.4
2019,12,7,08:00,UTC,7,987.8,98,0.9,0,6.1,5.7,2590,180,13.5,7.3
2019,12,7,09:00,UTC,7,987.1,98,0.8,0,6,5.7,2870,189,13.8,8.3
2019,12,7,10:00,UTC,7,985.9,98,0.4,0,5.9,5.6,3700,185,13.5,8
2019,12,7,11:00,UTC,7,985.2,98,0.6,0,5.9,5.5,3050,177,12.8,7.7
2019,12,7,12:00,UTC,7,984.4,98,1,0,5.8,5.5,3410,187,14.2,7.3
2019,12,7,13:00,UTC,7,983.5,98,0,0,5.8,5.5,3240,189,14.6,7.5
2019,12,7,14:00,UTC,7,982.7,98,0,0,5.8,5.5,4660,179,14.2,7
2019,12,7,15:00,UTC,7,982,98,0.3,0,6.1,5.8,7750,185,13.8,8.3
2019,12,7,16:00,UTC,7,981.4,98,0.6,0,6.3,5.9,2820,192,17.3,7.7
2019,12,7,17:00,UTC,7,980.8,97,0.3,0,6.4,6,5560,195,13.8,8.3
2019,12,7,18:00,UTC,7,980.1,94,0,0,5.8,4.9,50000,219,10.1,6.5
2019,12,7,19:00,UTC,7,980.1,92,0,0,4.6,3.4,35240,222,11.6,7.3
2019,12,7,20:00,UTC,7,979.9,94,0,0,4.4,3.5,34300,230,6.2,4
2019,12,7,21:00,UTC,7,980.6,92,0,0,2.9,1.7,19400,294,13.8,7.4
2019,12,7,22:00,UTC,7,981.4,90,0,0,2.3,0.9,50000,288,10.5,6.2
2019,12,7,23:00,UTC,7,982.6,89,0,0,2.3,0.8,50000,286,11.9,6.1
2019,12,8,00:00,UTC,7,983.7,90,0,0,2.3,0.8,15220,275,11,5.5
2019,12,8,01:00,UTC,5,984.5,91,0,0,2,0.6,33370,270,9.9,6.2
2019,12,8,02:00,UTC,7,985.5,81,0,0,2.5,-0.5,50000,280,13.9,8.5
2019,12,8,03:00,UTC,3,986.2,87,0,0,1.6,-0.4,49830,270,11.8,6.7
2019,12,8,04:00,UTC,3,986.8,84,0,0,1.7,-0.7,50000,269,10.3,6.2
2019,12,8,05:00,UTC,3,987.7,83,0,0,1.5,-1.1,50000,258,10.1,6.5
2019,12,8,06:00,UTC,3,988.2,83,0,0,1.3,-1.3,50000,253,8.2,5.1
2019,12,8,07:00,UTC,1,988.9,85,0,0,1,-1.3,50000,251,9,5.8
2019,12,8,08:00,UTC,3,989.2,85,0,0,1.2,-1,50000,243,10.2,6.7
2019,12,8,09:00,UTC,1,989.6,87,0,0,1.3,-0.7,50000,232,8.7,5.5
2019,12,8,10:00,UTC,1,989.2,88,0,0,1.4,-0.3,50000,234,6.6,3.9
2019,12,8,11:00,UTC,0,988.7,88,0,0,1.8,0.1,50000,230,6.6,4.2
2019,12,8,12:00,UTC,1,988.4,88,0,0,2.1,0.4,50000,216,5,3.1
2019,12,8,13:00,UTC,7,987.5,87,0,0,2.5,0.7,50000,217,3.9,3
2019,12,8,14:00,UTC,7,986.8,83,0,0,3.4,0.7,50000,192,10.7,5.7
2019,12,8,15:00,UTC,7,985.4,85,0,0,3.7,1.5,19550,174,11.8,8.2
2019,12,8,16:00,UTC,9,984.2,92,1.4,0,2.6,1.4,11130,173,12.8,8
2019,12,8,17:00,UTC,7,982.4,95,2.2,0,2.5,1.7,8830,142,13.6,8.3
2019,12,8,18:00,UTC,7,980.4,95,0.9,0,2.8,2,15160,148,13.8,8.9
2019,12,8,19:00,UTC,8,978.2,97,0.3,0,3.6,3.2,4520,151,13.7,8.6
2019,12,8,20:00,UTC,8,976.7,98,2.5,0,4.6,4.2,4420,159,14.2,8.7
2019,12,8,21:00,UTC,8,975.5,98,0.9,0,5.7,5.4,4500,170,15.4,9.2
2019,12,8,22:00,UTC,8,974.8,98,2.2,0,6.4,6.1,3260,194,16.6,11
2019,12,8,23:00,UTC,7,974.8,95,0.2,0,7,6.2,8110,212,14.8,10.2
2019,12,9,00:00,UTC,8,975.5,90,0,0,7,5.5,30830,217,13.7,8.9
2019,12,9,01:00,UTC,8,976.2,83,0,0,6.8,4,23540,222,14.2,8.8
2019,12,9,02:00,UTC,8,976.5,84,0,0,6.6,4.2,19070,217,12.4,7.8
2019,12,9,03:00,UTC,7,976.8,84,0,0,6.3,3.8,9630,221,15.1,8.9
2019,12,9,04:00,UTC,7,977,88,0.4,0,6.1,4.2,8780,220,17.6,10.2
2019,12,9,05:00,UTC,8,977.5,88,0,0,6,4.2,13110,226,13,7.1
2019,12,9,06:00,UTC,7,978,84,0,0,6,3.5,21210,224,13.8,8.5
2019,12,9,07:00,UTC,1,978.5,85,0,0,5.2,3,36900,223,15.2,9.8
2019,12,9,08:00,UTC,7,979.6,87,0,0,5.8,3.9,13010,220,17.5,9.9
2019,12,9,09:00,UTC,1,980.6,84,0,0,5.4,2.8,39050,224,13.8,8.4
2019,12,9,10:00,UTC,3,981.2,84,0,0,5.8,3.3,35700,224,10.7,5.8
2019,12,9,11:00,UTC,1,981.9,82,0,0,5.6,2.8,44800,223,13.8,7.7
2019,12,9,12:00,UTC,1,982.8,83,0,0,5.4,2.7,42620,223,12.2,7.3
2019,12,9,13:00,UTC,1,983.6,86,0,0,5.3,3.2,41440,214,10,6.3
2019,12,9,14:00,UTC,5,984.5,84,0,0,5.6,3.2,45130,226,10.8,7.1
2019,12,9,15:00,UTC,7,985.5,93,0.4,0,5.3,4.2,9600,227,9,6
2019,12,9,16:00,UTC,7,986.4,94,1.1,0,5.4,4.4,11230,228,8.5,5
2019,12,9,17:00,UTC,7,987.4,94,0.8,0,5.3,4.3,16580,231,13.5,6.7
2019,12,9,18:00,UTC,8,988.2,95,1.1,0,5.1,4.3,15390,234,11.2,5.5
2019,12,9,19:00,UTC,7,989.1,92,0,0,5.3,4.2,39240,224,8.6,5.8
2019,12,9,20:00,UTC,5,990.2,90,0,0,5.2,3.7,38290,224,10.8,6.5
2019,12,9,21:00,UTC,7,991.3,90,0,0,5.1,3.6,38050,269,5.8,3.1
2019,12,9,22:00,UTC,8,992.4,96,0.8,0,3.9,3.3,10800,280,4.9,3.2
2019,12,9,23:00,UTC,8,993,94,0,0,2.2,1.4,7190,334,5,3
2019,12,10,00:00,UTC,7,994.1,96,2.8,2,0.8,0.2,1010,341,4.7,2.7
2019,12,10,01:00,UTC,8,995.2,97,1,0,0.4,0,1530,331,4.4,2.3
2019,12,10,02:00,UTC,7,995.9,96,0,0,0.4,-0.1,5930,338,6,3.4
2019,12,10,03:00,UTC,8,997.2,98,0.3,0,0.3,0,13300,312,3.6,2.4
2019,12,10,04:00,UTC,8,998,94,0,0,0.2,-0.6,9910,327,7.8,4.6
2019,12,10,05:00,UTC,7,1000,93,0,0,-0.2,-1.3,17800,286,6.7,4.3
2019,12,10,06:00,UTC,7,1000.9,94,0,0,-0.8,-1.7,13010,307,5.1,3.3
2019,12,10,07:00,UTC,8,1002.3,88,0,0,-1.1,-2.9,50000,315,8.1,4.4
2019,12,10,08:00,UTC,,,,,,,,,,,
2019,12,10,09:00,UTC,,,,,,-2,,,,,
2019,12,10,10:00,UTC,,,,,,,,,,,
2019,12,10,11:00,UTC,,,,,,,,,,,
2019,12,10,12:00,UTC,,,,,,-2.5,,,,,
2019,12,10,13:00,UTC,,,,,,,,,,,
2019,12,10,14:00,UTC,1,1012,86,0,0,-3.1,-5.1,50000,313,4.2,2.3
2019,12,10,15:00,UTC,0,1013.4,92,0,0,-4.2,-5.2,38250,296,4.3,3.3
2019,12,10,16:00,UTC,0,1014.4,92,0,0,-4.2,-5.4,43800,304,3.5,2.3
2019,12,10,17:00,UTC,0,1015.2,94,0,0,-5.1,-5.8,31490,285,3.8,3.1
2019,12,10,18:00,UTC,0,1016.1,95,0,0,-5.3,-6,33670,286,3.7,2.8
2019,12,10,19:00,UTC,0,1016.4,94,0,0,-5.2,-6.1,31710,285,3.1,2.7
2019,12,10,20:00,UTC,0,1016.9,96,0,0,-5.6,-6.1,32940,238,1.8,1.4
2019,12,10,21:00,UTC,0,1017.6,93,0,0,-4.5,-5.5,41420,243,2.7,2.2
2019,12,10,22:00,UTC,0,1017.6,94,0,0,-5.1,-5.9,31550,194,1.3,0.9
2019,12,10,23:00,UTC,3,1017.6,95,0,0,-5.3,-5.9,28910,81,1,0.5
2019,12,11,00:00,UTC,7,1017.2,93,0,1,-3.4,-4.4,39120,161,5.5,3.5
2019,12,11,01:00,UTC,7,1017.2,84,0,0,-0.8,-3.1,50000,179,8.6,4.9
2019,12,11,02:00,UTC,7,1016.8,84,0,0,-0.6,-2.9,50000,165,10.8,5.3
2019,12,11,03:00,UTC,7,1016.4,84,0,0,-0.4,-2.8,50000,175,10,4.8
2019,12,11,04:00,UTC,7,1015.8,87,0,0,-0.2,-2.1,50000,164,9.6,5.1
2019,12,11,05:00,UTC,7,1014.9,89,0,0,0.4,-1.2,50000,164,10.6,5.8
2019,12,11,06:00,UTC,7,1014.7,89,0,0,0.4,-1.3,49450,160,10.6,6.4
2019,12,11,07:00,UTC,7,1014,86,0,0,0.8,-1.2,50000,171,13.7,8.4
2019,12,11,08:00,UTC,7,1013.6,87,0,0,0.7,-1.3,49370,167,12.9,7.2
2019,12,11,09:00,UTC,7,1012.8,84,0,0,1.1,-1.4,50000,170,17.7,9.2
2019,12,11,10:00,UTC,7,1012.1,84,0,0,1.3,-1.2,48220,168,14.6,10.1
2019,12,11,11:00,UTC,7,1011.2,84,0,0,1.5,-0.8,48050,169,15.8,9.4
2019,12,11,12:00,UTC,7,1010.3,81,0,0,2.1,-0.7,48300,182,16.6,10.4
2019,12,11,13:00,UTC,7,1009.9,78,0,0,2.3,-1.1,50000,180,17.7,10
2019,12,11,14:00,UTC,7,1009.6,77,0,0,2.5,-1.2,50000,187,16.9,9.8
2019,12,11,15:00,UTC,8,1009.6,87,0,0,1.7,-0.2,7860,183,14.8,8.2
2019,12,11,16:00,UTC,8,1009.8,91,0.1,0,1.6,0.3,8480,190,13.9,7.2
2019,12,11,17:00,UTC,8,1009.7,91,0.3,0,2,0.6,9450,193,15.4,8.5
2019,12,11,18:00,UTC,8,1009.5,91,0.6,0,2.1,0.8,17750,182,11.4,6.1
2019,12,11,19:00,UTC,8,1009.9,92,0.2,0,2.2,0.9,11980,177,12.3,7.5
2019,12,11,20:00,UTC,8,1010,90,0.1,0,2.5,1,8970,187,12.3,7.2
2019,12,11,21:00,UTC,7,1010,91,0.2,0,2.5,1.3,8660,187,10.4,6.4
2019,12,11,22:00,UTC,7,1010,92,0.3,0,2.2,1.1,6140,176,14,8.1
2019,12,11,23:00,UTC,7,1009.9,94,0.1,0,1.9,1,4200,175,12.3,7.3
2019,12,12,00:00,UTC,7,1009.7,92,0.1,0,1.8,0.5,11830,171,13.3,8.6
2019,12,12,01:00,UTC,7,1009.5,89,0,0,1.5,-0.1,23390,180,13.7,8.4
2019,12,12,02:00,UTC,7,1009.2,89,0,0,1.5,-0.2,24660,177,13.9,7.7
2019,12,12,03:00,UTC,7,1009.2,87,0,0,1.3,-0.6,28970,175,13,7.1
2019,12,12,04:00,UTC,7,1009.2,87,0,0,0.9,-1.1,30030,179,14.8,9.7
2019,12,12,05:00,UTC,5,1009.2,84,0,0,0.7,-1.7,41550,177,12.5,7.4
2019,12,12,06:00,UTC,7,1009.2,85,0,0,0.3,-2,37890,180,12.7,6.8
2019,12,12,07:00,UTC,7,1009,82,0,0,0.6,-2,45790,182,13.4,7.5
2019,12,12,08:00,UTC,7,1009.2,80,0,0,0.8,-2.3,47850,191,12.5,7.9
2019,12,12,09:00,UTC,7,1008.9,78,0,0,1.1,-2.3,50000,193,14,7.3
2019,12,12,10:00,UTC,7,1008.5,80,0,0,1.3,-1.8,48860,183,14.1,8.8
2019,12,12,11:00,UTC,7,1008,79,0,0,1.5,-1.8,49720,189,11.1,6.5
2019,12,12,12:00,UTC,7,1007.4,82,0,0,1.6,-1.2,50000,170,10.2,6.2
2019,12,12,13:00,UTC,7,1007.2,81,0,0,1.5,-1.4,49860,159,10.8,6.3
2019,12,12,14:00,UTC,7,1006.6,82,0,0,1.4,-1.3,47820,142,9.9,6.6
2019,12,12,15:00,UTC,7,1006,82,0,0,1.3,-1.5,17090,142,10.6,6
2019,12,12,16:00,UTC,7,1005,85,0,0,1.5,-0.7,13240,140,9.1,4.9
2019,12,12,17:00,UTC,7,1004.2,92,0.1,0,1.2,0,6590,151,10.2,6.2
2019,12,12,18:00,UTC,7,1003.7,97,1.6,0,0.5,0,1820,149,10.8,5.3
2019,12,12,19:00,UTC,7,1003.4,93,0,0,1.4,0.3,14510,163,12.7,7.5
2019,12,12,20:00,UTC,7,1002.9,90,0,0,1.7,0.2,24150,166,11.9,5.9
2019,12,12,21:00,UTC,7,1002.8,85,0,0,1.8,-0.5,39300,167,11,5.5
2019,12,12,22:00,UTC,7,1002.4,84,0,0,1.8,-0.6,36730,157,10.6,6.8
2019,12,12,23:00,UTC,7,1002.1,84,0,0,1.8,-0.5,29020,167,11.1,6.8
2019,12,13,00:00,UTC,7,1001.6,84,0,0,1.8,-0.6,26590,164,11.6,6.3
2019,12,13,01:00,UTC,7,1001.7,85,0,0,1.7,-0.6,21830,160,10.3,6
2019,12,13,02:00,UTC,7,1002.1,82,0,0,1.9,-0.9,20440,176,11.7,7
2019,12,13,03:00,UTC,8,1001.8,88,0,0,2.1,0.2,7670,168,9.9,5.9
2019,12,13,04:00,UTC,8,1001.9,90,0,0,2,0.5,10290,169,10.9,6.5
2019,12,13,05:00,UTC,7,1002,89,0,0,2.4,0.8,10330,176,10.9,6.6
2019,12,13,06:00,UTC,7,1002.1,90,0,0,2.4,1,8330,178,10.1,6.3
2019,12,13,07:00,UTC,7,1002.4,89,0,0,2.8,1.1,10130,173,9.8,5
2019,12,13,08:00,UTC,8,1002.9,87,0,0,2.8,0.9,11580,172,11.2,5.7
2019,12,13,09:00,UTC,8,1003.2,86,0,0,2.9,0.9,12280,175,9,5.2
2019,12,13,10:00,UTC,7,1003.2,86,0,0,2.9,0.8,11430,174,7.5,4.3
2019,12,13,11:00,UTC,7,1003,86,0,0,3,1,12240,170,7.4,4.6
2019,12,13,12:00,UTC,7,1003,86,0,0,3,0.8,12730,150,7.3,3.5
2019,12,13,13:00,UTC,7,1003.2,85,0,0,2.8,0.5,12020,143,6.3,3.7
2019,12,13,14:00,UTC,7,1003.1,83,0,0,2.8,0.2,10600,144,7.7,5.2
2019,12,13,15:00,UTC,7,1002.9,89,0,0,3.2,1.6,8860,150,8.3,5.2
2019,12,13,16:00,UTC,8,1002.8,89,0,0,3.2,1.6,14730,145,9.5,5.7
2019,12,13,17:00,UTC,7,1002.8,86,0,0,3,0.9,15340,123,8.9,6
2019,12,13,18:00,UTC,8,1002.6,80,0,0,3,-0.1,24030,138,9.7,5.9
2019,12,13,19:00,UTC,8,1002.2,80,0,0,2.8,-0.3,31100,121,7.3,5.1
2019,12,13,20:00,UTC,8,1001.9,82,0,0,2.8,0.1,22520,113,11.3,8.3
2019,12,13,21:00,UTC,8,1001.8,84,0,0,2.6,0.1,35120,116,8.1,5.8
2019,12,13,22:00,UTC,8,1001.5,83,0,0,2.6,0.1,35830,118,10.1,6.8
2019,12,13,23:00,UTC,8,1001,84,0,0,2.5,0.2,34770,117,10.1,7.6
2019,12,14,00:00,UTC,8,1000.7,83,0,0,2.6,0,37870,116,10.6,7.1
2019,12,14,01:00,UTC,7,1000.4,87,0.3,0,2.1,0.1,11820,119,9.4,6.2
2019,12,14,02:00,UTC,7,1000.2,91,0.3,0,1.7,0.4,7250,123,7.9,5.4
2019,12,14,03:00,UTC,8,999.7,84,0,0,2.4,0,32300,128,10.6,6.9
2019,12,14,04:00,UTC,8,999.4,79,0,0,2.6,-0.6,32900,129,10.5,6.4
2019,12,14,05:00,UTC,7,999.2,87,0,0,2.1,0.2,12400,128,9.7,6.2
2019,12,14,06:00,UTC,8,999,90,0,0,2,0.5,16390,122,9.1,5.8
2019,12,14,07:00,UTC,8,999.2,94,0,0,1.7,0.8,11890,118,10.1,7.3
2019,12,14,08:00,UTC,8,999.3,88,0,0,2.3,0.5,23730,123,10.4,5.9
2019,12,14,09:00,UTC,8,999.3,90,0,0,2.3,0.8,12810,140,8,5.3
2019,12,14,10:00,UTC,7,999.2,87,0,0,2.4,0.4,29890,131,10.8,6.2
2019,12,14,11:00,UTC,8,999.1,88,0,0,2.3,0.6,22470,126,7.4,4.7
2019,12,14,12:00,UTC,8,998.7,86,0,0,2.4,0.4,27360,119,9.4,7.1
2019,12,14,13:00,UTC,8,998.6,85,0,0,2.5,0.2,23900,120,9.4,6.3
2019,12,14,14:00,UTC,7,998.4,90,0,0,2.1,0.6,14330,122,10.3,5.7
2019,12,14,15:00,UTC,8,998.5,86,0,0,2.6,0.5,17980,131,10.6,6.3
2019,12,14,16:00,UTC,8,998.2,86,0,0,2.4,0.3,16080,135,11,7.2
2019,12,14,17:00,UTC,8,998.3,85,0,0,2.6,0.3,18050,141,10.2,6.3
2019,12,14,18:00,UTC,7,998.1,85,0,0,2.8,0.6,15630,138,12,7.3
2019,12,14,19:00,UTC,8,998,85,0,0,2.8,0.5,16920,135,11.1,6.8
2019,12,14,20:00,UTC,8,998.1,86,0,0,2.7,0.6,18050,139,9.9,5.5
2019,12,14,21:00,UTC,8,997.8,86,0,0,2.9,0.7,15260,124,8.9,6.3
2019,12,14,22:00,UTC,8,997.5,92,1.3,0,2.3,1,8880,123,11,6.6
2019,12,14,23:00,UTC,8,997.3,93,1.3,0,2.2,1.1,6930,122,9.1,6.4
2019,12,15,00:00,UTC,7,997,93,1.4,0,2.2,1.1,7930,123,10.6,6.1
2019,12,15,01:00,UTC,7,996.7,96,1.4,0,1.6,1.1,6780,115,9.5,6.5
2019,12,15,02:00,UTC,8,996.3,96,1.9,0,1.5,1,6500,125,9.4,6.2
2019,12,15,03:00,UTC,8,996.3,98,0.6,0,1,0.7,6830,120,7.6,5.1
2019,12,15,04:00,UTC,8,996,95,0.4,0,2.2,1.5,10710,140,8.1,4.4
2019,12,15,05:00,UTC,8,995.9,94,0.5,0,2.2,1.3,8700,147,8.7,5.6
2019,12,15,06:00,UTC,8,995.9,94,1.3,0,2.2,1.3,8450,140,9,6
2019,12,15,07:00,UTC,8,996,95,0.3,0,2.2,1.5,13370,135,6.8,3.9
2019,12,15,08:00,UTC,8,996,94,0.8,0,2.1,1.2,9830,133,7.7,5.1
2019,12,15,09:00,UTC,8,995.8,95,0.8,0,2.2,1.5,9100,127,6.9,4.1
2019,12,15,10:00,UTC,8,995.9,95,0.7,0,2,1.3,10920,119,6.8,4.9
2019,12,15,11:00,UTC,8,995.7,95,0.2,0,2,1.4,14600,116,7.9,5.3
2019,12,15,12:00,UTC,8,995.7,96,0.3,0,2.1,1.5,19340,124,5.4,3.5
2019,12,15,13:00,UTC,8,995.9,95,0.7,0,2.2,1.5,9880,135,6.7,4.2
2019,12,15,14:00,UTC,8,995.7,94,0,0,2.6,1.7,50000,147,6.3,4
2019,12,15,15:00,UTC,8,995.4,93,0,0,2.8,1.7,50000,138,7.3,4.5
2019,12,15,16:00,UTC,8,995.3,93,0,0,2.8,1.8,49840,139,8.3,4.8
2019,12,15,17:00,UTC,8,995.1,95,0.5,0,2.9,2.2,19480,145,7.4,4.5
2019,12,15,18:00,UTC,8,994.7,94,0,0,3.1,2.3,19510,150,8,4.8
2019,12,15,19:00,UTC,8,994.3,96,0.3,0,3.1,2.5,7190,150,8.8,5
2019,12,15,20:00,UTC,8,994.2,98,0.6,0,3.2,2.8,4470,144,8.7,5.4
2019,12,15,21:00,UTC,7,993.8,98,0,0,3.5,3.1,21960,149,6.5,3.9
2019,12,15,22:00,UTC,8,993.7,96,0,0,3.7,3.1,32550,156,7,4.3
2019,12,15,23:00,UTC,8,993.1,95,0,0,4,3.3,29380,168,7.5,3.9
2019,12,16,00:00,UTC,7,992.9,92,0,0,4.1,2.9,49910,165,7.6,4.5
2019,12,16,01:00,UTC,8,992.6,93,0.3,0,4,2.9,19600,151,7.8,4.8
2019,12,16,02:00,UTC,8,992.5,90,0,0,3.7,2.2,43790,169,6.8,4.4
2019,12,16,03:00,UTC,7,992.3,91,0,0,3.2,1.9,22490,148,7,4.2
2019,12,16,04:00,UTC,7,992.2,90,0,0,3.1,1.7,18550,120,3.5,2.3
2019,12,16,05:00,UTC,7,992.2,90,0,0,3.1,1.6,50000,89,2.7,1.8
2019,12,16,06:00,UTC,8,992.6,89,0,0,3.2,1.6,50000,69,1.9,1.2
2019,12,16,07:00,UTC,8,993.6,94,0,0,3.1,2.2,5780,358,3.9,2.4
2019,12,16,08:00,UTC,8,994.4,94,0,0,3.1,2.3,20630,1,4,2.3
2019,12,16,09:00,UTC,7,995.6,94,0,0,3,2.1,19450,317,3.3,2
2019,12,16,10:00,UTC,7,996.6,96,0,0,3,2.3,9540,304,3.4,2.3
2019,12,16,11:00,UTC,7,997.7,95,0,0,2.9,2.2,15520,273,5.1,3.4
2019,12,16,12:00,UTC,7,998.7,93,0,0,3.1,2,33550,252,5.4,3.5
2019,12,16,13:00,UTC,7,999.9,94,0,0,2.9,2,31420,246,6.2,4.2
2019,12,16,14:00,UTC,7,1000.6,95,0,0,2.7,1.9,28740,221,6.4,3.9
2019,12,16,15:00,UTC,8,1001.2,89,0,0,3.4,1.8,36180,240,7,4.6
2019,12,16,16:00,UTC,8,1001.4,93,0,0,3.1,2.1,35640,220,6.1,3.8
2019,12,16,17:00,UTC,8,1001.7,87,0,0,3.5,1.6,50000,229,6.5,4.6
2019,12,16,18:00,UTC,1,1001.9,89,0,0,2.2,0.5,50000,234,7.3,4.8
2019,12,16,19:00,UTC,7,1001.7,90,0,0,2.8,1.2,31410,204,5.5,3.8
2019,12,16,20:00,UTC,7,1001.4,92,0,0,3.5,2.3,17580,200,7.5,4.3
2019,12,16,21:00,UTC,7,1000.9,96,0.4,0,4.4,3.8,16530,202,11.1,5.7
2019,12,16,22:00,UTC,7,1000.4,91,0,0,4.5,3.1,22150,199,10.9,6.1
2019,12,16,23:00,UTC,7,999.8,93,2.5,0,4.3,3.3,7710,196,11.8,7.1
2019,12,17,00:00,UTC,7,998.8,94,5.6,0,3.9,3.1,5490,216,11.1,7.8
2019,12,17,01:00,UTC,7,998.1,95,0.4,0,4.8,4.1,7510,211,15,8.8
2019,12,17,02:00,UTC,7,998.2,95,0,0,4.1,3.3,44040,211,7.8,5.4
2019,12,17,03:00,UTC,7,998,95,0,0,4.3,3.5,32500,217,7,4.7
2019,12,17,04:00,UTC,7,998,92,0,0,4.4,3.1,45570,221,8.6,5.4
2019,12,17,05:00,UTC,7,998.4,91,0,0,4.5,3.1,50000,232,9.3,5.9
2019,12,17,06:00,UTC,7,999.4,91,0,0,4.1,2.7,50000,251,8.9,5.9
2019,12,17,07:00,UTC,7,1000.5,88,0,0,3.8,2,50000,256,8.7,5
2019,12,17,08:00,UTC,7,1001.6,83,0,0,3.8,1.2,50000,268,9,5.2
2019,12,17,09:00,UTC,7,1002.2,88,0,0,3.5,1.7,50000,242,6.9,4.2
2019,12,17,10:00,UTC,7,1002.9,87,0,0,3.4,1.4,50000,257,10.8,6
2019,12,17,11:00,UTC,5,1003.3,87,0,0,3.5,1.6,50000,232,5.7,3.3
2019,12,17,12:00,UTC,7,1003.6,83,0,0,3.9,1.3,50000,238,9.9,5.7
2019,12,17,13:00,UTC,7,1004.4,88,0,0,3.7,1.9,50000,220,6.5,4.3
2019,12,17,14:00,UTC,7,1004.6,85,0,0,4,1.7,50000,247,7.4,5.1
2019,12,17,15:00,UTC,7,1004.9,86,0,0,4,1.8,50000,241,5.4,3.2
2019,12,17,16:00,UTC,7,1005.3,84,0,0,4.3,1.7,49010,231,5.4,3.8
2019,12,17,17:00,UTC,3,1005,86,0,0,3.6,1.4,48660,269,6.2,3.4
2019,12,17,18:00,UTC,7,1005.1,90,0,0,3.2,1.7,41380,226,3.6,2
2019,12,17,19:00,UTC,7,1005.5,88,0,0,3.4,1.7,50000,210,3.5,2.2
2019,12,17,20:00,UTC,7,1005.5,84,0,0,4.1,1.6,50000,200,4,2.3
2019,12,17,21:00,UTC,7,1005.5,86,0,0,4.6,2.4,35770,200,3.6,2.1
2019,12,17,22:00,UTC,7,1005.1,92,0,0,3.7,2.6,45340,178,3.5,2
2019,12,17,23:00,UTC,7,1004.7,95,0,0,5,4.1,10940,196,6,3.5
2019,12,18,00:00,UTC,7,1004,95,0,0,4.7,3.9,12630,195,6,3.8
2019,12,18,01:00,UTC,7,1003.7,95,0,0,4.7,3.9,11860,191,5.1,2.9
2019,12,18,02:00,UTC,7,1003,97,1.3,0,4.6,4.2,5750,148,5,3.2
2019,12,18,03:00,UTC,7,1001.9,97,0.7,0,4.2,3.8,6940,107,4.9,3.3
2019,12,18,04:00,UTC,7,1001.2,98,3.1,0,4.1,3.7,4700,128,6,3.5
2019,12,18,05:00,UTC,8,1000,95,0.3,0,3.6,2.8,14780,99,5.6,3.9
2019,12,18,06:00,UTC,8,998.4,95,0.1,0,3.6,2.8,11480,106,9.7,6
2019,12,18,07:00,UTC,8,996.7,96,0,0,3.8,3.2,21880,99,9.9,6.1
2019,12,18,08:00,UTC,8,994.6,98,0.8,0,4.5,4.1,3470,117,10,7.1
2019,12,18,09:00,UTC,8,991.8,98,3.5,0,4.7,4.5,4350,112,10.2,6.9
2019,12,18,10:00,UTC,7,990.3,99,7.3,0,4.8,4.6,2060,116,7.2,3.8
2019,12,18,11:00,UTC,7,987.3,99,3.7,0,5.3,5.2,2530,131,6.8,4.1
2019,12,18,12:00,UTC,8,985.1,98,1.2,0,6.3,6,2140,197,11.6,6.8
2019,12,18,13:00,UTC,8,983.7,98,0.5,0,6.6,6.3,6920,207,18.1,9.9
2019,12,18,14:00,UTC,8,982.9,96,0,0,6.4,5.8,25500,210,11.4,7.3
2019,12,18,15:00,UTC,8,982.7,92,0.7,0,6,4.9,13370,257,12.6,7.8
2019,12,18,16:00,UTC,8,985.4,93,0,0,2.5,1.4,27850,286,13.8,7.8
2019,12,18,17:00,UTC,8,989,93,0,0,1.8,0.8,12280,278,14.7,8.7
2019,12,18,18:00,UTC,7,992.3,92,0,0,2.1,0.9,29860,282,17.3,8.5
2019,12,18,19:00,UTC,7,995.3,91,0,0,2.5,1.2,50000,276,17,8.2
2019,12,18,20:00,UTC,8,997.8,92,0.3,0,2.2,1.1,20790,272,13.4,9
2019,12,18,21:00,UTC,7,999.9,93,0,0,2,0.9,15000,268,13.9,8.4
2019,12,18,22:00,UTC,8,1001.3,90,0,0,2.3,0.8,37980,278,12.8,7.2
2019,12,18,23:00,UTC,7,1002.7,87,0,0,2,0.1,50000,276,11.1,6.1
2019,12,19,00:00,UTC,7,1003.9,87,0,0,1.8,-0.2,50000,279,11.3,6.6
2019,12,19,01:00,UTC,7,1005.3,86,0,0,1.6,-0.4,50000,278,12.4,6.7
2019,12,19,02:00,UTC,7,1006.6,86,0,0,1.8,-0.4,50000,274,10.4,6.1
2019,12,19,03:00,UTC,7,1007.8,84,0,0,1.7,-0.6,50000,277,14.4,7.3
2019,12,19,04:00,UTC,7,1009.1,84,0,0,1.4,-0.9,50000,275,13.5,6.8
2019,12,19,05:00,UTC,7,1009.9,85,0,0,1.1,-1.2,50000,262,10.4,6.4
2019,12,19,06:00,UTC,5,1011,85,0,0,1.1,-1.1,50000,267,10.3,6.3
2019,12,19,07:00,UTC,7,1012.1,84,0,0,1.4,-1,50000,275,11.1,6.4
2019,12,19,08:00,UTC,5,1013.4,83,0,0,1.6,-1,50000,271,11.5,7.6
2019,12,19,09:00,UTC,1,1014.9,84,0,0,1.6,-0.8,50000,264,10.3,5.9
2019,12,19,10:00,UTC,3,1015.8,83,0,0,1.7,-0.8,50000,266,10.5,5.8
2019,12,19,11:00,UTC,3,1016.6,83,0,0,2.1,-0.5,50000,266,11.2,6
2019,12,19,12:00,UTC,0,1017.2,85,0,0,1.8,-0.5,50000,270,9.3,5.2
2019,12,19,13:00,UTC,0,1017.6,90,0,0,1,-0.6,50000,257,7.3,4.4
2019,12,19,14:00,UTC,0,1018.1,93,0,0,0.4,-0.7,50000,252,5.3,3.7
2019,12,19,15:00,UTC,0,1018.3,94,0,0,0.1,-0.7,50000,252,5.5,4.1
2019,12,19,16:00,UTC,0,1018.7,95,0,0,0.3,-0.4,50000,235,5.4,3.6
2019,12,19,17:00,UTC,0,1018.6,93,0,0,0.2,-0.8,50000,247,5.6,4.1
2019,12,19,18:00,UTC,3,1018.8,94,0,0,0,-0.8,50000,235,5.9,4
2019,12,19,19:00,UTC,0,1018.9,95,0,0,0,-0.8,50000,234,6,4.2
2019,12,19,20:00,UTC,7,1018.8,94,0,0,0.9,0.1,50000,235,5.4,4
2019,12,19,21:00,UTC,7,1018.4,93,0,0,1.6,0.6,50000,221,4.2,3
2019,12,19,22:00,UTC,7,1018,93,0,0,2.5,1.5,50000,196,4,2.6
2019,12,19,23:00,UTC,7,1016.9,95,0,0,3.4,2.6,46810,188,5.5,3.2
2019,12,20,00:00,UTC,7,1016.7,95,0,0,3.7,3,36250,199,7.9,5.2
2019,12,20,01:00,UTC,8,1016.2,96,0,0,3.7,3.1,22680,193,6.9,4.8
2019,12,20,02:00,UTC,7,1015.6,96,0,0,3.5,3,15050,133,3.3,2
2019,12,20,03:00,UTC,8,1014.7,96,0,0,3.9,3.3,21780,167,8,4
2019,12,20,04:00,UTC,8,1013.7,94,0,0,3.8,2.9,26830,167,8.9,5.8
2019,12,20,05:00,UTC,8,1013.1,93,0,0,4,3,26190,173,10,5.6
2019,12,20,06:00,UTC,8,1012.2,90,0,0,4.1,2.6,31860,166,9.5,6
2019,12,20,07:00,UTC,8,1011.8,89,0,0,4,2.4,28970,159,6.8,4.7
2019,12,20,08:00,UTC,7,1011.7,88,0,0,3.8,2.1,36930,171,10.4,6.2
2019,12,20,09:00,UTC,8,1011.1,87,0,0,3.5,1.6,32320,164,9.6,5.5
2019,12,20,10:00,UTC,7,1010.3,88,0,0,3.5,1.7,26960,152,8.3,4.5
2019,12,20,11:00,UTC,8,1009.7,88,0,0,3.3,1.5,32970,166,8.8,4.7
2019,12,20,12:00,UTC,7,1008.7,88,0,0,3.3,1.6,31250,151,6.4,3.2
2019,12,20,13:00,UTC,7,1008,91,0,0,3.2,1.9,17010,129,5.9,3.7
2019,12,20,14:00,UTC,7,1007.3,93,0,0,3.2,2.2,19410,123,6.8,4
2019,12,20,15:00,UTC,7,1006.7,96,0.3,0,3.3,2.7,8650,114,5.9,4.3
2019,12,20,16:00,UTC,8,1005.9,98,0,0,3.5,3.2,2260,117,5.5,4
2019,12,20,17:00,UTC,7,1005.6,99,0,0,3.7,3.5,4760,118,6.5,4.5
2019,12,20,18:00,UTC,7,1004.5,94,0,0,3.8,2.9,14690,113,5.7,4
2019,12,20,19:00,UTC,8,1004.5,93,0,0,3.6,2.6,18730,118,6,4.3
2019,12,20,20:00,UTC,8,1003.8,93,0,0,3.3,2.3,22170,98,6,3.8
2019,12,20,21:00,UTC,8,1003.3,92,0,0,3.2,2.1,27760,98,7.6,4.6
2019,12,20,22:00,UTC,8,1002.8,93,0,0,3.1,2.1,25950,105,7.1,4.8
2019,12,20,23:00,UTC,8,1002.1,94,0,0,3.1,2.2,21340,96,7.3,4.4
2019,12,21,00:00,UTC,8,1001.4,93,0,0,3,2.1,21620,112,6.3,4
2019,12,21,01:00,UTC,7,1001,93,0,0,2.9,1.9,24030,118,6.1,4.3
2019,12,21,02:00,UTC,8,1000.6,94,0,0,2.7,1.7,19780,113,6.2,4.4
2019,12,21,03:00,UTC,8,1000.2,93,0,0,2.7,1.7,23390,116,6.4,4.9
2019,12,21,04:00,UTC,8,999.8,94,0,0,2.7,1.8,23820,109,6.8,4.3
2019,12,21,05:00,UTC,8,999,94,0,0,2.8,1.9,21460,101,6.2,4.2
2019,12,21,06:00,UTC,8,998.4,93,0,0,3,2.1,17910,111,7.6,4.1
2019,12,21,07:00,UTC,8,998.1,93,0,0,3.1,2.1,17010,108,7.7,5
2019,12,21,08:00,UTC,8,997.9,93,0,0,3.1,2.1,23370,104,7.8,5.3
2019,12,21,09:00,UTC,8,997.7,93,0,0,3.1,2.1,19750,101,6.7,4.2
2019,12,21,10:00,UTC,8,997.2,94,0,0,2.9,2,19370,118,7.3,5
2019,12,21,11:00,UTC,8,996.9,96,0,0,2.5,2,10420,114,5.9,3.4
2019,12,21,12:00,UTC,8,996.6,98,0,0,2.4,2.1,7170,116,6.3,4.6
2019,12,21,13:00,UTC,7,996.3,97,0,0,2.5,2.1,11270,115,7,5.2
2019,12,21,14:00,UTC,7,996.1,96,0,0,2.7,2,11510,125,6.4,3.8
2019,12,21,15:00,UTC,7,995.9,96,0,0,2.6,2,8700,116,7.1,5.3
2019,12,21,16:00,UTC,8,995.7,96,0,0,2.6,2.1,7610,117,5.6,3.9
2019,12,21,17:00,UTC,8,995.4,95,0,0,2.7,2,10620,111,6.5,4.3
2019,12,21,18:00,UTC,7,995.2,95,0,0,2.6,2,9540,112,6.6,4
2019,12,21,19:00,UTC,8,995,95,0,0,2.6,1.9,11530,105,7.1,4.7
2019,12,21,20:00,UTC,7,994.7,94,0,0,2.7,1.8,14500,95,9,4.5
2019,12,21,21:00,UTC,8,994.4,94,0,0,2.7,1.9,12130,102,7.3,4.1
2019,12,21,22:00,UTC,8,994.4,95,0,0,2.7,2,10870,105,7,4.5
2019,12,21,23:00,UTC,7,993.9,95,0,0,2.7,2,7550,95,8.8,5.3
2019,12,22,00:00,UTC,7,993.8,95,0,0,2.8,2.1,7590,94,7.9,4.6
2019,12,22,01:00,UTC,7,993.6,96,0,0,3,2.4,6840,94,7.5,4.8
2019,12,22,02:00,UTC,7,993.1,94,0,0,3.2,2.3,9570,102,8,4.8
2019,12,22,03:00,UTC,7,993.1,93,0,0,3.5,2.5,11150,115,7.1,5.2
2019,12,22,04:00,UTC,7,993.1,94,0,0,3.5,2.6,9970,116,6.3,4.6
2019,12,22,05:00,UTC,7,992.5,95,0,0,3.5,2.8,7570,101,6.4,3.5
2019,12,22,06:00,UTC,7,992.7,97,0,0,3.5,3.1,2740,104,5.9,3.8
2019,12,22,07:00,UTC,7,992.8,99,0,0,3.6,3.4,1940,115,6.5,4.7
2019,12,22,08:00,UTC,7,992.9,99,0.2,0,3.8,3.6,3360,113,4.8,3.7
2019,12,22,09:00,UTC,7,993.2,99,0.2,0,4.1,3.9,2540,123,4.7,3.1
2019,12,22,10:00,UTC,7,993.2,99,0,0,4.4,4.3,2660,141,5.5,3.3
2019,12,22,11:00,UTC,7,993.5,99,1,0,4.7,4.5,2500,155,5.4,3.8
2019,12,22,12:00,UTC,7,993.6,99,0,0,5.1,5,2910,192,6,3.8
2019,12,22,13:00,UTC,7,994.2,98,0,0,5.2,4.9,4500,208,5.2,3.1
2019,12,22,14:00,UTC,7,994.5,98,0,0,5.2,4.9,4320,198,5.1,3
2019,12,22,15:00,UTC,7,994.9,98,0,0,5.2,5,5100,158,3.3,1.9
2019,12,22,16:00,UTC,7,995.1,98,0,0,5.2,5,6660,171,6.1,4
2019,12,22,17:00,UTC,7,995.6,97,0,0,5.4,5,8330,190,5.6,3.3
2019,12,22,18:00,UTC,7,995.8,96,0,0,5.4,4.9,10900,198,7.3,4.7
2019,12,22,19:00,UTC,7,996.1,97,0,0,5.3,4.9,10050,208,3.3,2.2
2019,12,22,20:00,UTC,7,996.6,97,0,0,5,4.7,10620,194,3.3,2.1
2019,12,22,21:00,UTC,7,996.9,95,0,0,4.9,4.2,21820,188,3.2,2.3
2019,12,22,22:00,UTC,5,997.2,94,0,0,4.4,3.5,24340,157,3.3,2.2
2019,12,22,23:00,UTC,7,997.7,94,0,0,4.4,3.5,33180,261,3.9,2.7
2019,12,23,00:00,UTC,7,998,95,0,0,4.4,3.6,21700,258,2.8,1.5
2019,12,23,01:00,UTC,7,998.1,97,0,0,4,3.5,10040,79,2.5,1
2019,12,23,02:00,UTC,7,998,98,0,0,4.1,3.7,9430,42,1.6,1.3
2019,12,23,03:00,UTC,7,998.1,97,0,0,4.2,3.8,10210,353,1.4,0.6
2019,12,23,04:00,UTC,8,998.3,97,0,0,4,3.6,9070,57,1.6,1.2
2019,12,23,05:00,UTC,8,998.4,95,0,0,4.3,3.5,12340,71,2.4,1.5
2019,12,23,06:00,UTC,8,998.7,93,0,0,4.4,3.4,16660,64,2.1,1.5
2019,12,23,07:00,UTC,8,999.1,93,0,0,4.3,3.3,8990,51,1.6,1.2
2019,12,23,08:00,UTC,8,999.4,75,0,0,5.1,1.1,48970,335,2.9,1.9
2019,12,23,09:00,UTC,8,1000,90,0,0,4.5,3,22600,47,2.7,2.2
2019,12,23,10:00,UTC,8,1000.4,88,0,0,4.8,3,28980,357,2.6,1.5
2019,12,23,11:00,UTC,8,1000.6,86,0,0,4.9,2.9,31640,316,1.8,0.7
2019,12,23,12:00,UTC,8,1000.9,85,0,0,5,2.7,20290,342,2.6,1.4
2019,12,23,13:00,UTC,8,1001.5,87,0,0,4.6,2.6,26330,324,2.3,1.3
2019,12,23,14:00,UTC,8,1002,72,0,0,5,0.4,50000,325,2,1.6
2019,12,23,15:00,UTC,8,1002.3,79,0,0,4.7,1.4,36980,327,2.2,1.3
2019,12,23,16:00,UTC,8,1002.6,75,0,0,4.9,0.8,50000,340,3.5,2.5
2019,12,23,17:00,UTC,8,1002.8,76,0,0,4.6,0.7,50000,12,3.7,1.9
2019,12,23,18:00,UTC,8,1003.2,78,0,0,4,0.5,50000,303,3.1,2.4
2019,12,23,19:00,UTC,8,1003.6,80,0,0,3.9,0.7,50000,298,2.1,1.6
2019,12,23,20:00,UTC,8,1004.1,84,0,0,3.7,1.2,50000,281,2.8,1.8
2019,12,23,21:00,UTC,8,1004.4,84,0,0,3.7,1.3,41350,21,1.8,1.1
2019,12,23,22:00,UTC,8,1005,83,0,0,3.9,1.2,49360,331,1.6,0.9
2019,12,23,23:00,UTC,8,1005.3,85,0,0,3.4,1.1,50000,327,1.2,0.7
2019,12,24,00:00,UTC,8,1005.5,81,0,0,3.8,0.9,50000,8,2.6,1.8
2019,12,24,01:00,UTC,8,1006,86,0,0,3.2,1,47260,27,1.8,1.2
2019,12,24,02:00,UTC,8,1006,83,0,0,3.4,0.8,50000,23,1.9,1.4
2019,12,24,03:00,UTC,8,1006.1,87,0,0,3,1,50000,4,1.9,1.1
2019,12,24,04:00,UTC,8,1006.4,89,0,0,3,1.3,33680,317,2,1.4
2019,12,24,05:00,UTC,8,1006.9,90,0.2,0,2.9,1.5,28670,322,2.6,1.3
2019,12,24,06:00,UTC,8,1006.9,89,0,0,3.1,1.5,37810,355,3.2,2
2019,12,24,07:00,UTC,8,1007.1,93,0.2,0,2.7,1.8,25740,11,2.6,1.1
2019,12,24,08:00,UTC,8,1007.2,92,0.3,0,2.8,1.7,19020,36,2.9,2.1
2019,12,24,09:00,UTC,8,1007.6,95,0,0,2.8,2,9170,30,1.6,1.1
2019,12,24,10:00,UTC,7,1007.4,93,0.3,0,3.1,2,25860,35,1.5,1.2
2019,12,24,11:00,UTC,8,1007.2,92,0,0,3.2,2,24750,,,
2019,12,24,12:00,UTC,8,1007,92,0,0,3.2,2,30420,19,2.9,2
2019,12,24,13:00,UTC,8,1006.9,93,0,0,3,1.9,20700,16,2.8,1.8
2019,12,24,14:00,UTC,8,1006.9,94,0.3,0,2.7,1.8,17780,37,3.6,2.6
2019,12,24,15:00,UTC,8,1006.7,95,0.3,0,2.5,1.8,17290,27,3.6,2.8
2019,12,24,16:00,UTC,8,1006.4,96,0,0,2.5,1.9,19530,15,4.2,2.7
2019,12,24,17:00,UTC,8,1006.3,96,0.3,0,2.5,1.9,11770,2,4.3,3.1
2019,12,24,18:00,UTC,8,1006.2,96,0.8,0,2.4,1.8,13680,10,5.2,2.5
2019,12,24,19:00,UTC,8,1005.9,97,0.4,0,2.3,1.8,11920,10,4.8,3
2019,12,24,20:00,UTC,8,1005.8,97,0,0,2.3,1.9,14180,8,5.2,3
2019,12,24,21:00,UTC,8,1005.8,97,0.5,0,2.3,1.9,12030,3,4.6,2.5
2019,12,24,22:00,UTC,8,1005.6,97,1.1,0,2.4,2,11420,1,4.8,3
2019,12,24,23:00,UTC,8,1005.6,97,0.9,0,2.4,2,12310,352,4.4,2.8
2019,12,25,00:00,UTC,8,1005.5,97,0.6,0,2.4,2,15400,349,4.6,2.8
2019,12,25,01:00,UTC,8,1005.4,97,0.5,0,2.3,1.9,15160,346,4.7,2.9
2019,12,25,02:00,UTC,7,1005.3,97,0.5,0,2.1,1.7,18210,347,4.1,3.1
2019,12,25,03:00,UTC,8,1005.4,98,0.5,0,1.9,1.6,15610,333,3.5,1.9
2019,12,25,04:00,UTC,7,1005.4,98,0,0,1.7,1.4,14010,328,3.5,1.9
2019,12,25,05:00,UTC,7,1005.6,98,0,0,1.6,1.3,20530,323,4,2
2019,12,25,06:00,UTC,7,1005.8,98,0,0,1.4,1.1,12470,306,4,2.5
2019,12,25,07:00,UTC,8,1006.4,98,0,0,1.3,1,17510,312,3.8,2
2019,12,25,08:00,UTC,8,1006.8,98,0,0,1.3,1,13610,306,3.3,2
2019,12,25,09:00,UTC,8,1007.2,98,0,0,1.3,1,16860,302,4,2.8
2019,12,25,10:00,UTC,8,1007.4,97,0,0,1.5,1.1,28260,293,5.2,3.3
2019,12,25,11:00,UTC,8,1007.9,97,0,0,1.3,0.9,39070,285,4.8,2.5
2019,12,25,12:00,UTC,8,1008.4,97,0,0,1,0.7,33260,286,6,3.5
2019,12,25,13:00,UTC,8,1008.7,97,0,0,0.8,0.4,45170,298,5.2,2.9
2019,12,25,14:00,UTC,8,1009.2,97,0,0,0.8,0.4,50000,283,6.6,3.9
2019,12,25,15:00,UTC,8,1009.7,97,0,0,0.8,0.4,46340,284,6.4,3.9
2019,12,25,16:00,UTC,8,1010.1,96,0,0,1,0.5,50000,286,4.4,2.9
2019,12,25,17:00,UTC,8,1010.4,96,0,0,1.2,0.6,50000,283,4.7,2.7
2019,12,25,18:00,UTC,8,1010.6,96,0,0,1.3,0.7,50000,281,5.4,2.4
2019,12,25,19:00,UTC,8,1010.7,97,0,0,1.2,0.9,6860,275,5.4,2.9
2019,12,25,20:00,UTC,8,1011,96,0,0,1.4,0.8,48940,275,5.6,3.6
2019,12,25,21:00,UTC,8,1011.4,93,0,0,1.3,0.2,50000,290,5.9,3
2019,12,25,22:00,UTC,8,1011.8,92,0,0,1,-0.2,50000,289,5.6,3.4
2019,12,25,23:00,UTC,8,1011.9,94,0,0,0.5,-0.3,48130,290,6.8,3.6
2019,12,26,00:00,UTC,8,1012.1,94,0,0,0.5,-0.3,50000,297,5.3,3.1
2019,12,26,01:00,UTC,8,1012.3,93,0,0,0.6,-0.4,50000,296,4.1,2.3
2019,12,26,02:00,UTC,8,1012.6,93,0,0,0.6,-0.4,50000,290,5.2,3.2
2019,12,26,03:00,UTC,8,1012.8,92,0,0,0.3,-0.9,50000,298,4.5,2.5
2019,12,26,04:00,UTC,8,1013.1,92,0,0,0.4,-0.7,43100,286,3.6,2.3
2019,12,26,05:00,UTC,8,1013,92,0,0,0.6,-0.5,50000,298,4.8,3.3
2019,12,26,06:00,UTC,8,1013.2,93,0,0,0.6,-0.4,50000,302,4.9,3.2
2019,12,26,07:00,UTC,8,1013.5,94,0,0,0.4,-0.4,14470,299,4.8,2.8
2019,12,26,08:00,UTC,8,1013.8,93,0,0,0.5,-0.5,50000,296,5.7,3.4
2019,12,26,09:00,UTC,8,1014,92,0,0,0.4,-0.7,50000,302,4.8,2.7
2019,12,26,10:00,UTC,8,1014.1,91,0,0,0.3,-0.9,49320,306,5.4,3.1
2019,12,26,11:00,UTC,7,1014.3,93,0,0,0.2,-0.7,5280,309,4.1,2.3
2019,12,26,12:00,UTC,8,1014.7,95,0,0,0.2,-0.5,5310,311,4.4,2.3
2019,12,26,13:00,UTC,8,1014.8,96,0,0,0.1,-0.5,5730,309,4,2.3
2019,12,26,14:00,UTC,8,1015.3,93,0,0,0.1,-0.9,50000,291,3.7,1.7
2019,12,26,15:00,UTC,8,1015.4,91,0,0,0.1,-1.2,50000,303,3.5,2.4
2019,12,26,16:00,UTC,8,1015.5,88,0,0,0.2,-1.5,50000,323,3.7,2
2019,12,26,17:00,UTC,8,1015.7,83,0,0,0.3,-2.3,50000,322,4.5,2.3
2019,12,26,18:00,UTC,8,1015.9,88,0,0,0.1,-1.7,50000,326,3.3,1.6
2019,12,26,19:00,UTC,7,1016.2,88,0,0,-0.1,-1.8,50000,336,5.4,3
2019,12,26,20:00,UTC,8,1016.4,89,0,0,-0.1,-1.7,50000,316,5.1,3
2019,12,26,21:00,UTC,8,1016.8,88,0,0,-0.1,-1.8,50000,328,5.2,2.5
2019,12,26,22:00,UTC,8,1017.2,89,0,0,-0.2,-1.7,7850,323,5.6,2.8
2019,12,26,23:00,UTC,7,1017.5,93,0,0,-0.5,-1.4,3030,325,5.1,3
2019,12,27,00:00,UTC,7,1017.9,93,0,0,-0.5,-1.5,4250,331,4.7,2.9
2019,12,27,01:00,UTC,7,1018.3,93,0,0,-0.5,-1.5,5970,333,7.2,3.4
2019,12,27,02:00,UTC,7,1018.7,90,0,0,-0.3,-1.8,27850,340,7,3.5
2019,12,27,03:00,UTC,7,1019.3,86,0,0,-0.3,-2.3,12030,356,8.6,5.3
2019,12,27,04:00,UTC,7,1019.8,84,0,0,-0.3,-2.7,36480,356,9.2,5.1
2019,12,27,05:00,UTC,7,1020.4,84,0,0,-0.4,-2.8,44060,355,10.3,5.1
2019,12,27,06:00,UTC,7,1020.9,85,0,0,-0.9,-3.1,34860,353,9.1,5
2019,12,27,07:00,UTC,7,1021.8,83,0,0,-1.5,-4,50000,358,12,6.7
2019,12,27,08:00,UTC,7,1022.7,82,0,0,-2,-4.7,50000,347,10.4,6.5
2019,12,27,09:00,UTC,3,1023.8,77,0,0,-3.7,-7.2,50000,348,12.3,6.3
2019,12,27,10:00,UTC,7,1024.5,77,0,0,-4.1,-7.6,22100,358,10.5,6.1
2019,12,27,11:00,UTC,1,1025.2,74,0,0,-4.2,-8.3,50000,357,13.2,7.7
2019,12,27,12:00,UTC,7,1025.5,82,0,0,-4.2,-6.9,13780,341,8.8,5.1
2019,12,27,13:00,UTC,5,1026.3,77,0,0,-4.2,-7.5,45010,360,13.3,8.3
2019,12,27,14:00,UTC,1,1027.4,79,0,0,-4.4,-7.5,48810,346,12,6
2019,12,27,15:00,UTC,3,1028.1,79,0,0,-4.5,-7.6,46690,343,13.1,7.6
2019,12,27,16:00,UTC,5,1028.8,80,0,0,-4.3,-7.2,38120,354,11.5,6.3
2019,12,27,17:00,UTC,7,1029.4,80,0,0,-4.1,-7,45300,346,9.6,6.3
2019,12,27,18:00,UTC,7,1030.5,78,0,0,-3.9,-7.1,43060,360,13.4,7.7
2019,12,27,19:00,UTC,7,1031.3,79,0,0,-3.7,-6.9,25820,358,12.8,8.1
2019,12,27,20:00,UTC,7,1032,79,0,0,-3.5,-6.7,39160,354,12.3,7.1
2019,12,27,21:00,UTC,7,1032.8,79,0,0,-3.3,-6.3,46690,350,8.7,4.9
2019,12,27,22:00,UTC,7,1033.4,80,0,0,-3.3,-6.3,42720,351,10.1,6.8
2019,12,27,23:00,UTC,7,1034,79,0,0,-3.4,-6.5,24860,3,9.6,6
2019,12,28,00:00,UTC,7,1034.9,74,0,0,-3,-7,50000,15,9.8,5.2
2019,12,28,01:00,UTC,7,1035.4,75,0,0,-3,-6.8,50000,355,7,4
2019,12,28,02:00,UTC,5,1035.5,75,0,0,-3,-6.8,50000,6,9.3,5.3
2019,12,28,03:00,UTC,0,1036.5,78,0,0,-3.6,-6.8,50000,342,7.3,4.5
2019,12,28,04:00,UTC,0,1036.8,81,0,0,-4.1,-6.8,50000,346,9.2,5.3
2019,12,28,05:00,UTC,0,1037.2,82,0,0,-4.3,-6.9,50000,347,10,6
2019,12,28,06:00,UTC,0,1037.5,84,0,0,-4.8,-7,50000,345,7.4,4.5
2019,12,28,07:00,UTC,0,1037.9,85,0,0,-5.2,-7.3,44660,358,9.3,4.9
2019,12,28,08:00,UTC,0,1038.7,85,0,0,-5.4,-7.6,45520,352,6.6,4.7
2019,12,28,09:00,UTC,0,1038.9,82,0,0,-5.2,-7.8,44830,2,6.1,3.8
2019,12,28,10:00,UTC,0,1038.9,80,0,0,-4.8,-7.8,47650,360,5.5,3
2019,12,28,11:00,UTC,0,1038.9,78,0,0,-4.6,-7.8,48150,356,5.3,3.6
2019,12,28,12:00,UTC,0,1038.3,77,0,0,-4.5,-8,41580,17,4.9,2.6
2019,12,28,13:00,UTC,0,1038.7,78,0,0,-4.9,-8.1,37930,345,3.4,1.9
2019,12,28,14:00,UTC,0,1038.6,84,0,0,-5.8,-8.1,31060,329,3.5,2
2019,12,28,15:00,UTC,0,1038.7,90,0,0,-7,-8.4,25450,321,2.8,1.9
2019,12,28,16:00,UTC,0,1038.5,90,0,0,-7,-8.4,23940,346,3.5,2.3
2019,12,28,17:00,UTC,0,1038.2,92,0,0,-7.8,-8.9,18230,26,2.1,1.4
2019,12,28,18:00,UTC,1,1037.7,94,0,0,-8.1,-8.9,15110,57,1.9,1.5
2019,12,28,19:00,UTC,1,1037.7,93,0,0,-8.1,-9,12400,327,1.8,1.2
2019,12,28,20:00,UTC,0,1037.4,93,0,0,-8.3,-9.3,13010,62,1.5,1.1
2019,12,28,21:00,UTC,7,1036.9,92,0,0,-7.7,-8.7,13710,102,1.7,1.1
2019,12,28,22:00,UTC,7,1036.5,93,0,0,-7.1,-8,14380,122,1.2,0.9
2019,12,28,23:00,UTC,7,1035.7,89,0,0,-6,-7.5,15500,255,5.4,3.3
2019,12,29,00:00,UTC,5,1034.8,90,0,0,-5.6,-6.9,16660,197,2.7,1.9
2019,12,29,01:00,UTC,7,1034,92,0,0,-5,-6.1,14850,189,3.8,2.3
2019,12,29,02:00,UTC,7,1032.9,90,0,0,-2.9,-4.3,28260,206,3.9,2.7
2019,12,29,03:00,UTC,7,1032.2,88,0,0,-0.1,-1.9,50000,197,11.2,6.5
2019,12,29,04:00,UTC,7,1031.4,90,0,0,0,-1.5,46710,184,9.2,4.7
2019,12,29,05:00,UTC,7,1030.4,92,0,0,0.1,-1.1,37990,172,11.1,7
2019,12,29,06:00,UTC,7,1029.3,92,0,0,-0.1,-1.3,40200,176,11.6,6.9
2019,12,29,07:00,UTC,7,1028.1,91,0,0,0.2,-1.2,18800,183,11.5,6
2019,12,29,08:00,UTC,8,1026.8,91,0,0,0.9,-0.4,40830,188,12.3,6.8
2019,12,29,09:00,UTC,8,1026.1,91,0.4,0,1.2,-0.1,46080,195,11.7,7.9
2019,12,29,10:00,UTC,8,1024.7,90,0,0,1.9,0.4,47610,197,15,9.4
2019,12,29,11:00,UTC,8,1022.7,90,0,0,2.2,0.8,34870,199,15.8,10.1
2019,12,29,12:00,UTC,8,1021.2,90,0,0,2.7,1.2,44920,198,16,9.8
2019,12,29,13:00,UTC,8,1020.2,85,0,0,3.3,1,36110,201,15.7,11.1
2019,12,29,14:00,UTC,8,1019,91,0.4,0,3.3,2,18160,207,13.2,8
2019,12,29,15:00,UTC,8,1017.4,87,0,0,3.9,1.8,29210,216,16.9,10.5
2019,12,29,16:00,UTC,8,1016.5,86,0,0,4,1.9,33010,215,16.9,10.6
2019,12,29,17:00,UTC,8,1014.8,94,0,0,3.8,2.9,8370,211,13.1,9.3
2019,12,29,18:00,UTC,8,1013.2,96,0.5,0,4,3.3,14720,219,14,10.2
2019,12,29,19:00,UTC,8,1011.9,96,0,0,4.1,3.5,9800,218,15.3,9.9
2019,12,29,20:00,UTC,8,1011,98,0.3,0,4.4,4.1,4170,223,13.1,8.2
2019,12,29,21:00,UTC,8,1009.7,98,0,0,4.7,4.4,5260,219,13.5,8.7
2019,12,29,22:00,UTC,8,1008.7,97,0.4,0,4.6,4.3,4900,223,11.2,6.6
2019,12,29,23:00,UTC,8,1008.2,97,0.3,0,4.9,4.5,3370,235,11.2,7.5
2019,12,30,00:00,UTC,8,1007,98,0.3,0,4.7,4.4,4100,221,9.6,6.8
2019,12,30,01:00,UTC,8,1006.2,98,0,0,4.5,4.3,7110,224,9,6.1
2019,12,30,02:00,UTC,8,1005.4,98,0,0,4.6,4.3,5650,231,10.4,6.9
2019,12,30,03:00,UTC,8,1004.6,98,0,0,4.6,4.3,5910,227,8.4,5.8
2019,12,30,04:00,UTC,8,1003.3,97,0,0,4.7,4.3,6390,230,10.5,6.6
2019,12,30,05:00,UTC,8,1002.7,97,0,0,4.9,4.4,7050,236,8,5.3
2019,12,30,06:00,UTC,8,1001.2,97,0,0,4.8,4.4,5280,220,9.1,6.5
2019,12,30,07:00,UTC,8,1000.2,99,0,0,4.9,4.7,3360,224,8.8,5.6
2019,12,30,08:00,UTC,8,999.8,99,0.3,0,4.9,4.7,2790,228,8.6,5.5
2019,12,30,09:00,UTC,8,998.6,99,0,0,4.9,4.8,2730,221,8.3,5.5
2019,12,30,10:00,UTC,8,997.3,99,0,0,5.2,5.1,3360,229,10.5,6.3
2019,12,30,11:00,UTC,8,996.1,98,0,0,5.6,5.4,3730,229,10.4,6.6
2019,12,30,12:00,UTC,8,995.4,97,0.3,0,5.9,5.5,6010,237,10.6,7.2
2019,12,30,13:00,UTC,8,994.3,96,0,0,6,5.3,11740,246,9.5,6.3
2019,12,30,14:00,UTC,7,994.3,92,0,0,6.1,4.9,23200,266,9.9,6.2
2019,12,30,15:00,UTC,1,994.2,92,0,0,5,3.9,27490,265,7.7,4.6
2019,12,30,16:00,UTC,7,994,91,0,0,5.2,3.9,34260,251,6.7,5
2019,12,30,17:00,UTC,0,993.8,91,0,0,4.7,3.3,44690,245,8.6,5.8
2019,12,30,18:00,UTC,0,993.2,92,0,0,4.5,3.4,39780,236,10.3,6.8
2019,12,30,19:00,UTC,5,992.9,94,0,0,4.8,3.8,38730,239,11.3,6.2
2019,12,30,20:00,UTC,1,992.3,94,0,0,4.5,3.6,30190,245,9.2,6.2
2019,12,30,21:00,UTC,0,991.8,92,0,0,4.5,3.3,44350,241,8.6,6.3
2019,12,30,22:00,UTC,0,991.5,88,0,0,4,2.2,50000,261,8.3,5.1
2019,12,30,23:00,UTC,0,991.2,87,0,0,3.6,1.6,46960,243,6,4.4
2019,12,31,00:00,UTC,0,990.9,86,0,0,3.4,1.2,48920,236,6.9,4.6
2019,12,31,01:00,UTC,0,990.8,82,0,0,3.5,0.8,50000,245,8.3,5.8
2019,12,31,02:00,UTC,0,990.7,84,0,0,2.8,0.3,50000,251,8,5.8
2019,12,31,03:00,UTC,0,990.7,83,0,0,2.9,0.2,50000,246,7.4,5.4
2019,12,31,04:00,UTC,1,991.2,86,0,0,2.5,0.4,50000,261,7.9,5.1
2019,12,31,05:00,UTC,7,991.3,84,0,0,3.2,0.8,50000,254,8.2,5.8
2019,12,31,06:00,UTC,7,992,85,0,0,3.4,1,50000,277,7.5,4.8
2019,12,31,07:00,UTC,5,992.8,85,0,0,3.4,1.1,50000,287,10.3,6.1
2019,12,31,08:00,UTC,7,994.3,90,0,0,3.1,1.7,5520,295,10.5,7.1
2019,12,31,09:00,UTC,7,996.4,85,0,0,2.1,-0.2,32620,322,10.8,6.2
2019,12,31,10:00,UTC,5,998.1,76,0,0,1,-2.7,50000,327,12.3,7.1
2019,12,31,11:00,UTC,8,999.5,80,0,0,0.7,-2.2,16860,320,11.3,6.2
2019,12,31,12:00,UTC,8,1001,81,0,0,0.7,-2.2,18450,310,9.3,5.1
2019,12,31,13:00,UTC,8,1002.5,81,0,0,0.7,-2.1,12580,311,10.6,5.9
2019,12,31,14:00,UTC,7,1004,74,0,0,0.9,-3.2,50000,315,11.1,6.5
2019,12,31,15:00,UTC,7,1006,70,0,0,0.5,-4.3,50000,317,11.4,6.9
2019,12,31,16:00,UTC,0,1007.8,61,0,0,-0.2,-6.7,50000,322,13,7.4
2019,12,31,17:00,UTC,0,1009.4,63,0,0,-0.8,-7,50000,318,9.5,5.8
2019,12,31,18:00,UTC,0,1010.1,74,0,0,-1.9,-5.9,47810,298,4.9,2.9
2019,12,31,19:00,UTC,0,1011.2,74,0,0,-2.4,-6.3,46650,278,5.2,3.4
2019,12,31,20:00,UTC,0,1011.4,78,0,0,-2.2,-5.6,42860,255,5.2,2.9
2019,12,31,21:00,UTC,0,1011.4,82,0,0,-1.9,-4.6,32850,244,7.7,5.6
2019,12,31,22:00,UTC,0,1011.7,86,0,0,-2.1,-4.1,24080,252,6.4,4.6
2019,12,31,23:00,UTC,0,1012.1,90,0,0,-2.2,-3.5,10930,255,6.2,4.5
2020,1,1,00:00,UTC,0,1011.5,90,0,0,-1.7,-3.1,22520,242,5.7,3.7